CID,CityName/AreaName,Pincode,District,State,Latitude,Longitude,distance(in kms)
101465,Flower Bazaar,600001,Chennai,TAMIL NADU,13.079564094543455,80.26604461669922,14.295614768128377
101466,Govt Stanley Hospital,600001,Chennai,TAMIL NADU,13.079564094543455,80.26604461669922,14.295614768128377
101467,Mannady (Chennai),600001,Chennai,TAMIL NADU,13.079564094543455,80.26604461669922,14.295614768128377
101468,Mint Building,600001,Chennai,TAMIL NADU,13.079564094543455,80.26604461669922,14.295614768128377
101469,MPT AO,600001,Chennai,TAMIL NADU,13.079564094543455,80.26604461669922,14.295614768128377
101470,Sowcarpet,600001,Chennai,TAMIL NADU,13.079564094543455,80.26604461669922,14.295614768128377
101471,Chennai,600001,Chennai,TAMIL NADU,13.079564094543455,80.26604461669922,14.295614768128377
101472,Anna Road,600002,Chennai,TAMIL NADU,13.023935317993164,80.2516326904297,8.10194479671527
101473,Chintadripet,600002,Chennai,TAMIL NADU,13.023935317993164,80.2516326904297,8.10194479671527
101474,Madras Electricity System,600002,Chennai,TAMIL NADU,13.023935317993164,80.2516326904297,8.10194479671527
101475,Edapalayam,600003,Chennai,TAMIL NADU,13.075394630432127,80.26689910888672,13.844161373037238
101476,Madras Medical College,600003,Chennai,TAMIL NADU,13.075394630432127,80.26689910888672,13.844161373037238
101477,Park Town,600003,Chennai,TAMIL NADU,13.075394630432127,80.26689910888672,13.844161373037238
101478,Ripon Buildings,600003,Chennai,TAMIL NADU,13.075394630432127,80.26689910888672,13.844161373037238
101479,Mandaveli,600004,Chennai,TAMIL NADU,13.038474082946776,80.26468658447266,9.755768149445755
101480,Mylapore,600004,Chennai,TAMIL NADU,13.038474082946776,80.26468658447266,9.755768149445755
101481,Vivekananda College Madras,600004,Chennai,TAMIL NADU,13.038474082946776,80.26468658447266,9.755768149445755
101482,Chepauk,600005,Chennai,TAMIL NADU,13.059370994567873,80.2758255004883,12.219873717353739
101483,Madras University,600005,Chennai,TAMIL NADU,13.059370994567873,80.2758255004883,12.219873717353739
101484,Tiruvallikkeni,600005,Chennai,TAMIL NADU,13.059370994567873,80.2758255004883,12.219873717353739
101485,Greams Road,600006,Chennai,TAMIL NADU,13.05889129638672,80.24500274658203,12.010898020893277
101486,Old College Buildings,600006,Chennai,TAMIL NADU,13.05889129638672,80.24500274658203,12.010898020893277
101487,Shastri Bhavan,600006,Chennai,TAMIL NADU,13.05889129638672,80.24500274658203,12.010898020893277
101488,Teynampet West,600006,Chennai,TAMIL NADU,13.05889129638672,80.24500274658203,12.010898020893277
101489,Vepery,600007,Chennai,TAMIL NADU,12.694091796875,79.99707794189453,39.894687714003645
101490,Egmore ND,600008,Chennai,TAMIL NADU,13.072554588317873,80.25841522216797,13.476099646856134
101491,Egmore,600008,Chennai,TAMIL NADU,13.072554588317873,80.25841522216797,13.476099646856134
101492,Ethiraj Salai,600008,Chennai,TAMIL NADU,13.072554588317873,80.25841522216797,13.476099646856134
101493,Fort St George,600009,Chennai,TAMIL NADU,13.08726978302002,80.28990936279298,15.562177587418773
101494,Kilpauk Medical College,600010,Chennai,TAMIL NADU,13.08133316040039,80.24002075195312,14.53614924241887
101495,Kilpauk,600010,Chennai,TAMIL NADU,13.08133316040039,80.24002075195312,14.53614924241887
101496,Medavakkam Tank Road,600010,Chennai,TAMIL NADU,13.08133316040039,80.24002075195312,14.53614924241887
101497,Perambur North,600011,Chennai,TAMIL NADU,13.109823226928713,80.2440414428711,17.636122670255904
101498,Perambur,600011,Chennai,TAMIL NADU,13.109823226928713,80.2440414428711,17.636122670255904
101499,Sembiam,600011,Chennai,TAMIL NADU,13.109823226928713,80.2440414428711,17.636122670255904
101500,Perambur Barracks,600012,Chennai,TAMIL NADU,12.832261085510256,79.95423889160156,35.196126630036524
101501,Puliyanthope,600012,Chennai,TAMIL NADU,12.832261085510256,79.95423889160156,35.196126630036524
101502,Venkatesapuram,600012,Chennai,TAMIL NADU,12.832261085510256,79.95423889160156,35.196126630036524
101503,Rayapuram,600013,Chennai,TAMIL NADU,12.859682083129885,80.1168670654297,18.080911133215903
101504,Lloyds Estate,600014,Chennai,TAMIL NADU,13.05457592010498,80.2662124633789,11.54466866332694
101505,Royapettah,600014,Chennai,TAMIL NADU,13.05457592010498,80.2662124633789,11.54466866332694
101506,Triplicane South,600014,Chennai,TAMIL NADU,13.05457592010498,80.2662124633789,11.54466866332694
101507,Guindy North,600015,Chennai,TAMIL NADU,13.018819808959961,80.22286224365234,8.303770880100977
101508,Saidapet (Chennai),600015,Chennai,TAMIL NADU,13.018819808959961,80.22286224365234,8.303770880100977
101509,Alandur(Reopened W.E.F.6.6.05),600016,Kanchipuram,TAMIL NADU,13.009040832519533,80.19112396240234,9.478793357185813
101510,Chennai Airport,600016,Kanchipuram,TAMIL NADU,13.009040832519533,80.19112396240234,9.478793357185813
101511,Meenambakkam,600016,Kanchipuram,TAMIL NADU,13.009040832519533,80.19112396240234,9.478793357185813
101512,St.Thomas Mount,600016,Kanchipuram,TAMIL NADU,13.009040832519533,80.19112396240234,9.478793357185813
101513,Hindi Prachar Sabha,600017,Chennai,TAMIL NADU,13.043249130249025,80.23480224609374,10.465796287442753
101514,Thygarayanagar,600017,Chennai,TAMIL NADU,13.043249130249025,80.23480224609374,10.465796287442753
101515,Thygarayanagar North ND,600017,Chennai,TAMIL NADU,13.043249130249025,80.23480224609374,10.465796287442753
101516,Thygarayanagar South ND,600017,Chennai,TAMIL NADU,13.043249130249025,80.23480224609374,10.465796287442753
101517,Pr. Accountant General,600018,Chennai,TAMIL NADU,13.037981986999512,80.2557144165039,9.646920586273799
101518,Teynampet,600018,Chennai,TAMIL NADU,13.037981986999512,80.2557144165039,9.646920586273799
101524,Adyar (Chennai),600020,Chennai,TAMIL NADU,13.001423835754395,80.25507354736328,5.602313130622384
101525,Kasturibai Nagar,600020,Chennai,TAMIL NADU,13.001423835754395,80.25507354736328,5.602313130622384
101526,Shastri Nagar (Chennai),600020,Chennai,TAMIL NADU,13.001423835754395,80.25507354736328,5.602313130622384
101527,Washermanpet East,600021,Chennai,TAMIL NADU,13.111709594726562,80.28244018554688,18.047065482563514
101528,Washermanpet,600021,Chennai,TAMIL NADU,13.111709594726562,80.28244018554688,18.047065482563514
101529,Rajbhavan (Chennai),600022,Chennai,TAMIL NADU,13.03030490875244,80.23124694824219,9.172837206534133
101530,Aynavaram,600023,Chennai,TAMIL NADU,13.098272323608398,80.23719787597656,16.433017683313565
101531,Kodambakkam,600024,Chennai,TAMIL NADU,13.05062770843506,80.22428131103517,11.543426095401916
101532,Engineering College (Chennai),600025,Chennai,TAMIL NADU,13.011810302734375,80.23771667480469,7.012405702291295
101533,Vadapalani,600026,Chennai,TAMIL NADU,13.04792594909668,80.20632934570312,11.982887475740764
101534,Raja Annamalaipuram,600028,Chennai,TAMIL NADU,13.02586841583252,80.26339721679688,8.354226470242635
101535,Ramakrishna Nagar (Chennai),600028,Chennai,TAMIL NADU,13.02586841583252,80.26339721679688,8.354226470242635
101536,Aminjikarai,600030,Chennai,TAMIL NADU,13.078669548034668,80.22766876220702,14.459569978288764
101537,Shenoy Nagar,600030,Chennai,TAMIL NADU,13.078669548034668,80.22766876220702,14.459569978288764
101538,Chetput,600031,Chennai,TAMIL NADU,12.932953834533693,80.17412567138672,9.014532138660362
101539,World University Centre,600031,Chennai,TAMIL NADU,12.932953834533693,80.17412567138672,9.014532138660362
101540,Ekkaduthangal,600032,Chennai,TAMIL NADU,13.396381378173828,80.13793945312499,50.90961248838771
101541,Guindy Industrial Estate,600032,Chennai,TAMIL NADU,13.396381378173828,80.13793945312499,50.90961248838771
101542,Mambalam R.S.,600033,Chennai,TAMIL NADU,13.036405563354492,80.22149658203125,10.153086727277383
101543,West Mambalam,600033,Chennai,TAMIL NADU,13.036405563354492,80.22149658203125,10.153086727277383
101544,Loyola College,600034,Chennai,TAMIL NADU,13.05799961090088,80.2436294555664,11.92741242297022
101545,Nungambakkam High Road,600034,Chennai,TAMIL NADU,13.05799961090088,80.2436294555664,11.92741242297022
101546,Nungambakkam,600034,Chennai,TAMIL NADU,13.05799961090088,80.2436294555664,11.92741242297022
101547,Nandanam,600035,Chennai,TAMIL NADU,13.02950382232666,80.24029541015626,8.857410772233248
101548,Indian Institute Of Technology,600036,Chennai,TAMIL NADU,12.993803977966307,80.2381134033203,5.107145998080144
101551,Icf Colony,600038,Chennai,TAMIL NADU,13.10043239593506,80.20873260498045,17.305629682616612
101552,Vyasar Nagar Colony,600039,Chennai,TAMIL NADU,13.120330810546875,80.2514877319336,18.761391239835547
101553,Vyasarpadi,600039,Chennai,TAMIL NADU,13.120330810546875,80.2514877319336,18.761391239835547
101554,Anna Nagar (Chennai),600040,Chennai,TAMIL NADU,13.086095809936525,80.20450592041016,15.947287655653422
101555,Neelankarai,600041,Kanchipuram,TAMIL NADU,12.980048179626465,80.25782012939453,3.2500733957070165
101556,Palavakkam (Kanchipuram),600041,Kanchipuram,TAMIL NADU,12.980048179626465,80.25782012939453,3.2500733957070165
101557,Tiruvanmiyur,600041,Chennai,TAMIL NADU,12.980048179626465,80.25782012939453,3.2500733957070165
101558,Valmiki Nagar,600041,Chennai,TAMIL NADU,12.980048179626465,80.25782012939453,3.2500733957070165
101559,Velacheri,600042,Chennai,TAMIL NADU,12.980438232421875,80.1865234375,8.140418679714225
101560,Pallavaram,600043,Kanchipuram,TAMIL NADU,12.973566055297852,80.15018463134766,11.668439829791286
101561,Rajajinagar (Kanchipuram),600043,Kanchipuram,TAMIL NADU,12.973566055297852,80.15018463134766,11.668439829791286
101562,Tirusulam,600043,Kanchipuram,TAMIL NADU,12.973566055297852,80.15018463134766,11.668439829791286
101563,Bharathipuram (Kanchipuram),600044,Kanchipuram,TAMIL NADU,12.953983306884766,80.13938903808594,12.5697967621285
101564,Chromepet,600044,Kanchipuram,TAMIL NADU,12.953983306884766,80.13938903808594,12.5697967621285
101565,Darkash,600044,Kanchipuram,TAMIL NADU,12.953983306884766,80.13938903808594,12.5697967621285
101566,Lakshmipuram,600044,Kanchipuram,TAMIL NADU,12.953983306884766,80.13938903808594,12.5697967621285
101567,Nagalkeni,600044,Kanchipuram,TAMIL NADU,12.953983306884766,80.13938903808594,12.5697967621285
101568,Nehrunagar,600044,Kanchipuram,TAMIL NADU,12.953983306884766,80.13938903808594,12.5697967621285
101569,Nemilichery,600044,Kanchipuram,TAMIL NADU,12.953983306884766,80.13938903808594,12.5697967621285
101570,Radhanagar (Kanchipuram),600044,Kanchipuram,TAMIL NADU,12.953983306884766,80.13938903808594,12.5697967621285
101571,Tirumudivakkam,600044,Kanchipuram,TAMIL NADU,12.953983306884766,80.13938903808594,12.5697967621285
101572,Tiruneermalai,600044,Kanchipuram,TAMIL NADU,12.953983306884766,80.13938903808594,12.5697967621285
101573,Irumbuliyur,600045,Kanchipuram,TAMIL NADU,12.929105758666992,80.1158905029297,15.304357426920062
101574,MEPZ Tambaram,600045,Kanchipuram,TAMIL NADU,12.929105758666992,80.1158905029297,15.304357426920062
101575,Tambaram,600045,Kanchipuram,TAMIL NADU,12.929105758666992,80.1158905029297,15.304357426920062
101576,Tambaram West,600045,Kanchipuram,TAMIL NADU,12.929105758666992,80.1158905029297,15.304357426920062
101577,Tambaram IAF,600046,Kanchipuram,TAMIL NADU,13.03849983215332,80.2344970703125,9.96027538413922
101578,Kadaperi,600047,Kanchipuram,TAMIL NADU,12.93978500366211,80.14337921142578,12.193069489933414
101579,Tambaram Sanatorium,600047,Kanchipuram,TAMIL NADU,12.93978500366211,80.14337921142578,12.193069489933414
101580,Mannivakkam,600048,Kanchipuram,TAMIL NADU,12.93740463256836,80.14921569824219,11.593819690351273
101581,Mudichur,600048,Kanchipuram,TAMIL NADU,12.93740463256836,80.14921569824219,11.593819690351273
101582,Otteri Extension,600048,Kanchipuram,TAMIL NADU,12.93740463256836,80.14921569824219,11.593819690351273
101583,Vandalur,600048,Kanchipuram,TAMIL NADU,12.93740463256836,80.14921569824219,11.593819690351273
101618,Iyyappanthangal,600056,Kanchipuram,TAMIL NADU,13.060993194580078,80.1198959350586,19.08048526010235
101629,Ganapathipuram(CMT),600058,Kanchipuram,TAMIL NADU,13.128859519958494,80.16043853759766,22.22018602410147
101630,Christian College Tambaram,600059,Kanchipuram,TAMIL NADU,12.927423477172852,80.13032531738281,13.793265931011122
101631,Kasthuribainagar,600059,Kanchipuram,TAMIL NADU,12.927423477172852,80.13032531738281,13.793265931011122
101632,LIC Colony,600059,Kanchipuram,TAMIL NADU,12.927423477172852,80.13032531738281,13.793265931011122
101633,Lic Colony Tambaram,600059,Kanchipuram,TAMIL NADU,12.927423477172852,80.13032531738281,13.793265931011122
101634,State Bank Colony,600059,Kanchipuram,TAMIL NADU,12.927423477172852,80.13032531738281,13.793265931011122
101635,Sundaram Colony,600059,Kanchipuram,TAMIL NADU,12.927423477172852,80.13032531738281,13.793265931011122
101636,Tambaram East,600059,Kanchipuram,TAMIL NADU,12.927423477172852,80.13032531738281,13.793265931011122
101640,Nanganallur Bazaar,600061,Kanchipuram,TAMIL NADU,12.981646537780762,80.18840026855469,8.010516845076651
101641,Nanganallur,600061,Kanchipuram,TAMIL NADU,12.981646537780762,80.18840026855469,8.010516845076651
101642,Pazhavanthangal,600061,Kanchipuram,TAMIL NADU,12.981646537780762,80.18840026855469,8.010516845076651
101649,Old Perungalathur,600063,Kanchipuram,TAMIL NADU,12.90925121307373,80.09574890136719,17.90126633191809
101650,Srinivasanagar East,600063,Kanchipuram,TAMIL NADU,12.90925121307373,80.09574890136719,17.90126633191809
101651,Srinivasanagar (Kanchipuram),600063,Kanchipuram,TAMIL NADU,12.90925121307373,80.09574890136719,17.90126633191809
101652,Chitlapakkam,600064,Kanchipuram,TAMIL NADU,12.939019203186035,80.14476013183594,12.052857549678386
101653,Hasthinapuram,600064,Kanchipuram,TAMIL NADU,12.939019203186035,80.14476013183594,12.052857549678386
101665,Kunnathur (Kanchipuram),600069,Kanchipuram,TAMIL NADU,13.000118255615234,80.09674835205078,18.035616166356537
101666,Nandambakkam,600069,Kanchipuram,TAMIL NADU,13.000118255615234,80.09674835205078,18.035616166356537
101667,Sirukalathur,600069,Kanchipuram,TAMIL NADU,13.000118255615234,80.09674835205078,18.035616166356537
101668,Somangalam,600069,Kanchipuram,TAMIL NADU,13.000118255615234,80.09674835205078,18.035616166356537
101669,South Malayambakkam,600069,Kanchipuram,TAMIL NADU,13.000118255615234,80.09674835205078,18.035616166356537
101670,Anakaputhur,600070,Kanchipuram,TAMIL NADU,12.97640609741211,80.13191223144531,13.672545755905375
101679,Gowriwakkam,600073,Kanchipuram,TAMIL NADU,12.911871910095215,80.15196228027344,12.000207500042078
101680,Rajakilpakkam,600073,Kanchipuram,TAMIL NADU,12.911871910095215,80.15196228027344,12.000207500042078
101681,Selaiyur,600073,Kanchipuram,TAMIL NADU,12.911871910095215,80.15196228027344,12.000207500042078
101682,Polichalur,600074,Kanchipuram,TAMIL NADU,12.975584030151367,80.13697052001955,13.116832169062397
101683,Pammal East,600075,Kanchipuram,TAMIL NADU,12.97269058227539,80.13680267333984,13.07159848485682
101684,Pammal,600075,Kanchipuram,TAMIL NADU,12.97269058227539,80.13680267333984,13.07159848485682
101690,Kalaignar Karunanidhi Nagar,600078,Chennai,TAMIL NADU,13.040244102478027,80.19955444335938,11.592156713862023
101691,Tondiarpet Bazaar,600081,Chennai,TAMIL NADU,13.130136489868164,80.28140258789062,20.04461607152673
101692,Tondiarpet,600081,Chennai,TAMIL NADU,13.130136489868164,80.28140258789062,20.04461607152673
101693,Tondiarpet West,600081,Chennai,TAMIL NADU,13.130136489868164,80.28140258789062,20.04461607152673
101694,Agaram,600082,Chennai,TAMIL NADU,13.11628246307373,80.22578430175781,18.584941681213554
101695,G K M Colony,600082,Chennai,TAMIL NADU,13.11628246307373,80.22578430175781,18.584941681213554
101696,Jawahar Nagar (Chennai),600082,Chennai,TAMIL NADU,13.11628246307373,80.22578430175781,18.584941681213554
101697,Kumaran Nagar,600082,Chennai,TAMIL NADU,13.11628246307373,80.22578430175781,18.584941681213554
101698,Ashoknagar (Chennai),600083,Chennai,TAMIL NADU,13.035299301147461,80.21076202392578,10.519082202630939
101699,Jafferkhanpet,600083,Chennai,TAMIL NADU,13.035299301147461,80.21076202392578,10.519082202630939
101700,Flowers Road,600084,Chennai,TAMIL NADU,13.080647468566895,80.25475311279298,14.366953525667363
101701,Kotturpuram,600085,Chennai,TAMIL NADU,13.018671035766602,80.2439956665039,7.6078950878168605
101702,Gopalapuram (Chennai),600086,Chennai,TAMIL NADU,13.04838752746582,80.2562255859375,10.798512053044197
101705,Adambakkam,600088,Kanchipuram,TAMIL NADU,12.989995956420898,80.20367431640626,7.075072338548176
101706,Nilamangai Nagar,600088,Kanchipuram,TAMIL NADU,12.989995956420898,80.20367431640626,7.075072338548176
101707,Nandambakkam Kudiyiruppu,600089,Kanchipuram,TAMIL NADU,13.024429321289062,80.18231964111328,11.352408565622577
101708,Ramapuram (Kanchipuram),600089,Kanchipuram,TAMIL NADU,13.024429321289062,80.18231964111328,11.352408565622577
101709,Besantnagar,600090,Chennai,TAMIL NADU,12.996636390686035,80.26486206054688,5.180111673753341
101710,Rajaji Bhavan,600090,Chennai,TAMIL NADU,12.996636390686035,80.26486206054688,5.180111673753341
101711,Madipakkam,600091,Kanchipuram,TAMIL NADU,12.966650009155273,80.19861602783203,6.3842421370223175
101712,Madipakkam South,600091,Kanchipuram,TAMIL NADU,12.966650009155273,80.19861602783203,6.3842421370223175
101713,Koyambedu Wholesale Market Com,600092,Chennai,TAMIL NADU,12.958831787109375,80.13018035888672,13.593061865799973
101714,Virugambakkam,600092,Chennai,TAMIL NADU,12.958831787109375,80.13018035888672,13.593061865799973
101715,Saligramam,600093,Chennai,TAMIL NADU,13.05111598968506,80.1998519897461,12.619118468029617
101716,Choolaimedu,600094,Chennai,TAMIL NADU,13.063706398010256,80.2242202758789,12.936478613465717
101720,Perungudi,600096,Kanchipuram,TAMIL NADU,12.957094192504885,80.24223327636719,1.5694547231287561
101721,Karapakkam,600097,Kanchipuram,TAMIL NADU,12.915533065795898,80.23043060302734,4.735596734261392
101722,Oggiamthoraipakkam,600097,Kanchipuram,TAMIL NADU,12.915533065795898,80.23043060302734,4.735596734261392
101726,Medavakkam ,600100,Kanchipuram,TAMIL NADU,12.922587394714355,80.19703674316406,7.0390485471746365
101727,Pallikaranai,600100,Kanchipuram,TAMIL NADU,12.922587394714355,80.19703674316406,7.0390485471746365
101728,Anna Nagar Western Extn,600101,Chennai,TAMIL NADU,13.09040069580078,80.19119262695312,16.93416887677262
101729,Anna Nagar East,600102,Chennai,TAMIL NADU,13.08784008026123,80.22201538085938,15.583752447856238
101734,High Court Building (Chennai),600104,Chennai,TAMIL NADU,23.011720657348636,69.46068572998047,1594.4956580641121
101735,Arumbakkam,600106,Chennai,TAMIL NADU,13.07296371459961,80.21537780761719,14.189943355488229
101736,D G Vaishnav College,600106,Chennai,TAMIL NADU,13.07296371459961,80.21537780761719,14.189943355488229
101737,Koyambedu,600107,Chennai,TAMIL NADU,13.06461238861084,80.20350646972656,13.784546858251955
101740,Tidel Park,600113,Chennai,TAMIL NADU,12.994867324829102,80.24273681640626,5.060592368284845
101741,TTTI Taramani,600113,Chennai,TAMIL NADU,12.994867324829102,80.24273681640626,5.060592368284845
101742,Injambakkam,600115,Kanchipuram,TAMIL NADU,12.950783729553224,80.25518798828125,2.994655361250771e-05
101743,Alapakkam,600116,Kanchipuram,TAMIL NADU,13.031414985656738,80.16214752197266,13.470564620144971
101744,Porur,600116,Kanchipuram,TAMIL NADU,13.031414985656738,80.16214752197266,13.470564620144971
101745,Sriramachandra Deemed Uty,600116,Kanchipuram,TAMIL NADU,13.031414985656738,80.16214752197266,13.470564620144971
101746,Bharathinagar,600117,Kanchipuram,TAMIL NADU,12.940811157226562,80.18035125732422,8.195012051074572
101747,Keelakattalai,600117,Kanchipuram,TAMIL NADU,12.940811157226562,80.18035125732422,8.195012051074572
101748,Old Pallavaram,600117,Kanchipuram,TAMIL NADU,12.940811157226562,80.18035125732422,8.195012051074572
101749,Erukkancheri,600118,Chennai,TAMIL NADU,13.128055572509766,80.24456787109374,19.64550168936257
101750,Kodungaiyur,600118,Chennai,TAMIL NADU,13.128055572509766,80.24456787109374,19.64550168936257
101751,Rv Nagar,600118,Chennai,TAMIL NADU,13.128055572509766,80.24456787109374,19.64550168936257
101752,Sathyabama University,600119,Kanchipuram,TAMIL NADU,12.898884773254395,80.22588348388672,6.563437513127656
101753,Sholinganallur,600119,Kanchipuram,TAMIL NADU,12.898884773254395,80.22588348388672,6.563437513127656
101758,Gerugambakkam,600122,Kanchipuram,TAMIL NADU,13.013998031616213,80.13232421875,15.052929270326382
101759,Mangadu,600122,Kanchipuram,TAMIL NADU,13.013998031616213,80.13232421875,15.052929270326382
101760,Paraniputhur,600122,Kanchipuram,TAMIL NADU,13.013998031616213,80.13232421875,15.052929270326382
101770,Manapakkam,600125,Kanchipuram,TAMIL NADU,13.020637512207033,80.16378784179688,12.571777222305037
101771,Mugalivakkam,600125,Kanchipuram,TAMIL NADU,13.020637512207033,80.16378784179688,12.571777222305037
101772,Madambakkam,600126,Kanchipuram,TAMIL NADU,12.901299476623535,80.1625747680664,11.444391180319814
101773,Mappedu,600126,Kanchipuram,TAMIL NADU,12.901299476623535,80.1625747680664,11.444391180319814
101774,Sithalapakkam,600126,Kanchipuram,TAMIL NADU,12.901299476623535,80.1625747680664,11.444391180319814
101775,Kolapakkam,600127,Kanchipuram,TAMIL NADU,12.843891143798828,80.15101623535155,16.36035078682345
101776,Kolathur,600127,Kanchipuram,TAMIL NADU,12.843891143798828,80.15101623535155,16.36035078682345
101777,Mambakkam,600127,Kanchipuram,TAMIL NADU,12.843891143798828,80.15101623535155,16.36035078682345
101778,Melakkottaiyur,600127,Kanchipuram,TAMIL NADU,12.843891143798828,80.15101623535155,16.36035078682345
101779,Nallambakkam,600127,Kanchipuram,TAMIL NADU,12.843891143798828,80.15101623535155,16.36035078682345
101780,Ponmar,600127,Kanchipuram,TAMIL NADU,12.843891143798828,80.15101623535155,16.36035078682345
101782,Thandalam,600128,Kanchipuram,TAMIL NADU,13.009148597717285,80.13532257080078,14.519347288307038
101784,Navalur,600130,Kanchipuram,TAMIL NADU,12.83950138092041,80.22360229492189,12.77950045778554
101785,Thazambur,600130,Kanchipuram,TAMIL NADU,12.83950138092041,80.22360229492189,12.77950045778554
101790,Athivakkam,601102,Kanchipuram,TAMIL NADU,13.31185817718506,80.04308319091797,46.09344159417226
101860,Malaipattu,601301,Kanchipuram,TAMIL NADU,12.886880874633787,80.02204895019531,26.26938270164126
101861,Manimangalam,601301,Kanchipuram,TAMIL NADU,12.886880874633787,80.02204895019531,26.26938270164126
101862,Padappai,601301,Kanchipuram,TAMIL NADU,12.886880874633787,80.02204895019531,26.26938270164126
101863,Serpananchery,601301,Kanchipuram,TAMIL NADU,12.886880874633787,80.02204895019531,26.26938270164126
101923,Gunduperumbedu,602105,Kanchipuram,TAMIL NADU,12.96250820159912,79.94940948486328,33.203397634874726
101924,Mathur,602105,Kanchipuram,TAMIL NADU,12.96250820159912,79.94940948486328,33.203397634874726
101925,Pattunoolchatram,602105,Kanchipuram,TAMIL NADU,12.96250820159912,79.94940948486328,33.203397634874726
101926,Pennalur,602105,Kanchipuram,TAMIL NADU,12.96250820159912,79.94940948486328,33.203397634874726
101927,Pillaipakkam,602105,Kanchipuram,TAMIL NADU,12.96250820159912,79.94940948486328,33.203397634874726
101928,Pondur,602105,Kanchipuram,TAMIL NADU,12.96250820159912,79.94940948486328,33.203397634874726
101929,Sriperumbudur,602105,Kanchipuram,TAMIL NADU,12.96250820159912,79.94940948486328,33.203397634874726
101930,Thandalam,602105,Kanchipuram,TAMIL NADU,12.96250820159912,79.94940948486328,33.203397634874726
101933,Valarpuram,602105,Kanchipuram,TAMIL NADU,12.96250820159912,79.94940948486328,33.203397634874726
101934,Vayalur,602105,Kanchipuram,TAMIL NADU,12.96250820159912,79.94940948486328,33.203397634874726
101935,Mambakkam,602106,Kanchipuram,TAMIL NADU,12.928033828735352,79.87669372558594,41.147838247684014
101936,Sendamangalam,602106,Kanchipuram,TAMIL NADU,12.928033828735352,79.87669372558594,41.147838247684014
101937,Sunguvarchatram,602106,Kanchipuram,TAMIL NADU,12.928033828735352,79.87669372558594,41.147838247684014
101938,Kandoor,602108,Kanchipuram,TAMIL NADU,12.95484447479248,79.81412506103517,47.85973103143496
101939,Kannur,602108,Kanchipuram,TAMIL NADU,12.95484447479248,79.81412506103517,47.85973103143496
101940,Maduramangalam,602108,Kanchipuram,TAMIL NADU,12.95484447479248,79.81412506103517,47.85973103143496
101941,Pannur (Kanchipuram),602108,Kanchipuram,TAMIL NADU,12.95484447479248,79.81412506103517,47.85973103143496
101942,Tirupandiyur,602108,Kanchipuram,TAMIL NADU,12.95484447479248,79.81412506103517,47.85973103143496
101943,Irungattukottai,602117,Kanchipuram,TAMIL NADU,12.970839500427244,79.97634887695312,30.335779385802816
101944,Alagesa Nagar,603001,Kanchipuram,TAMIL NADU,12.693777084350586,79.98564910888672,40.79996870887381
101945,Chengalpattu Cutcherry,603001,Kanchipuram,TAMIL NADU,12.693777084350586,79.98564910888672,40.79996870887381
101946,Chengalpattu,603001,Kanchipuram,TAMIL NADU,12.693777084350586,79.98564910888672,40.79996870887381
101947,Chengalpattu Med.College,603001,Kanchipuram,TAMIL NADU,12.693777084350586,79.98564910888672,40.79996870887381
101948,Chengalpattu Bazaar,603002,Kanchipuram,TAMIL NADU,12.69519329071045,79.98507690429688,40.73557836906703
101949,Gundur-chengalpattu,603002,Kanchipuram,TAMIL NADU,12.69519329071045,79.98507690429688,40.73557836906703
101950,Kunnavakkam,603002,Kanchipuram,TAMIL NADU,12.69519329071045,79.98507690429688,40.73557836906703
101951,Mahindra World City (Kanchipuram),603002,Kanchipuram,TAMIL NADU,12.69519329071045,79.98507690429688,40.73557836906703
101952,Natham-chengalpattu,603002,Kanchipuram,TAMIL NADU,12.69519329071045,79.98507690429688,40.73557836906703
101953,Paranur,603002,Kanchipuram,TAMIL NADU,12.69519329071045,79.98507690429688,40.73557836906703
101954,Pulipakkam,603002,Kanchipuram,TAMIL NADU,12.69519329071045,79.98507690429688,40.73557836906703
101960,Athur-chengalpattu,603101,Kanchipuram,TAMIL NADU,12.71414566040039,79.95591735839844,41.72300030388181
101961,Palur,603101,Kanchipuram,TAMIL NADU,12.71414566040039,79.95591735839844,41.72300030388181
101962,Reddipalayam,603101,Kanchipuram,TAMIL NADU,12.71414566040039,79.95591735839844,41.72300030388181
101963,Thimmavaram,603101,Kanchipuram,TAMIL NADU,12.71414566040039,79.95591735839844,41.72300030388181
101964,Villiambakkam,603101,Kanchipuram,TAMIL NADU,12.71414566040039,79.95591735839844,41.72300030388181
101965,Ayapakkam,603102,Kanchipuram,TAMIL NADU,12.569138526916506,80.0926513671875,45.76139601417374
101966,Kalpakkam,603102,Kanchipuram,TAMIL NADU,12.569138526916506,80.0926513671875,45.76139601417374
101967,Manamai,603102,Kanchipuram,TAMIL NADU,12.569138526916506,80.0926513671875,45.76139601417374
101968,Melprumal Chery,603102,Kanchipuram,TAMIL NADU,12.569138526916506,80.0926513671875,45.76139601417374
101969,Pattaraikalani,603102,Kanchipuram,TAMIL NADU,12.569138526916506,80.0926513671875,45.76139601417374
101970,Pudupattinam,603102,Kanchipuram,TAMIL NADU,12.569138526916506,80.0926513671875,45.76139601417374
101971,Pudupattinam Colony,603102,Kanchipuram,TAMIL NADU,12.569138526916506,80.0926513671875,45.76139601417374
101972,Reactor Research Centre ,603102,Kanchipuram,TAMIL NADU,12.569138526916506,80.0926513671875,45.76139601417374
101973,Suradimangalam,603102,Kanchipuram,TAMIL NADU,12.569138526916506,80.0926513671875,45.76139601417374
101974,Vayalur,603102,Kanchipuram,TAMIL NADU,12.569138526916506,80.0926513671875,45.76139601417374
101975,Vazhuvadur,603102,Kanchipuram,TAMIL NADU,12.569138526916506,80.0926513671875,45.76139601417374
101976,Vengapakkam,603102,Kanchipuram,TAMIL NADU,12.569138526916506,80.0926513671875,45.76139601417374
101977,Vittalapuram,603102,Kanchipuram,TAMIL NADU,12.569138526916506,80.0926513671875,45.76139601417374
101978,Kelambakkam,603103,Kanchipuram,TAMIL NADU,12.815051078796387,80.21961975097656,15.50435358880397
101979,Padur,603103,Kanchipuram,TAMIL NADU,12.815051078796387,80.21961975097656,15.50435358880397
101980,Pudupakkam,603103,Kanchipuram,TAMIL NADU,12.815051078796387,80.21961975097656,15.50435358880397
101981,Thaiyur,603103,Kanchipuram,TAMIL NADU,12.815051078796387,80.21961975097656,15.50435358880397
101982,Kadambadi,603104,Kanchipuram,TAMIL NADU,12.632222175598145,80.197265625,35.798813183070614
101983,Kokilamedu,603104,Kanchipuram,TAMIL NADU,12.632222175598145,80.197265625,35.798813183070614
101984,Koothavakkam,603104,Kanchipuram,TAMIL NADU,12.632222175598145,80.197265625,35.798813183070614
101985,Mamallapuram,603104,Kanchipuram,TAMIL NADU,12.632222175598145,80.197265625,35.798813183070614
101986,Pattipulam,603104,Kanchipuram,TAMIL NADU,12.632222175598145,80.197265625,35.798813183070614
101987,Perur,603104,Kanchipuram,TAMIL NADU,12.632222175598145,80.197265625,35.798813183070614
101988,Poonjeri,603104,Kanchipuram,TAMIL NADU,12.632222175598145,80.197265625,35.798813183070614
101989,Vadakadambadi,603104,Kanchipuram,TAMIL NADU,12.632222175598145,80.197265625,35.798813183070614
101990,Zamin Paiyanur,603104,Kanchipuram,TAMIL NADU,12.632222175598145,80.197265625,35.798813183070614
101991,Kuzhipanthandalam,603105,Kanchipuram,TAMIL NADU,12.71994686126709,80.18724060058594,26.581204787763962
101992,Manambathi,603105,Kanchipuram,TAMIL NADU,12.71994686126709,80.18724060058594,26.581204787763962
101993,Mullipakkam,603105,Kanchipuram,TAMIL NADU,12.71994686126709,80.18724060058594,26.581204787763962
101994,Peria Irumbedu,603105,Kanchipuram,TAMIL NADU,12.71994686126709,80.18724060058594,26.581204787763962
101995,Sirudavur,603105,Kanchipuram,TAMIL NADU,12.71994686126709,80.18724060058594,26.581204787763962
101996,Arumbuliyur,603106,Kanchipuram,TAMIL NADU,12.531900405883787,80.16110229492189,47.453393959578705
101997,Orakattupettai,603106,Kanchipuram,TAMIL NADU,12.531900405883787,80.16110229492189,47.453393959578705
101998,Sathanjeri,603106,Kanchipuram,TAMIL NADU,12.531900405883787,80.16110229492189,47.453393959578705
101999,Seethananjeri,603106,Kanchipuram,TAMIL NADU,12.531900405883787,80.16110229492189,47.453393959578705
102000,Tiruvanaikoil,603106,Kanchipuram,TAMIL NADU,12.531900405883787,80.16110229492189,47.453393959578705
102001,Vitchur,603106,Kanchipuram,TAMIL NADU,12.531900405883787,80.16110229492189,47.453393959578705
102002,Anambakkam,603107,Kanchipuram,TAMIL NADU,12.674519538879395,79.88948822021484,50.10352886923114
102003,Chithanakkavur,603107,Kanchipuram,TAMIL NADU,12.674519538879395,79.88948822021484,50.10352886923114
102004,Edayambudur,603107,Kanchipuram,TAMIL NADU,12.674519538879395,79.88948822021484,50.10352886923114
102005,Kilakadi,603107,Kanchipuram,TAMIL NADU,12.674519538879395,79.88948822021484,50.10352886923114
102006,Kunnavakkam,603107,Kanchipuram,TAMIL NADU,12.674519538879395,79.88948822021484,50.10352886923114
102007,Nelvoy,603107,Kanchipuram,TAMIL NADU,12.674519538879395,79.88948822021484,50.10352886923114
102008,Olaiyur,603107,Kanchipuram,TAMIL NADU,12.674519538879395,79.88948822021484,50.10352886923114
102009,Palliagaram,603107,Kanchipuram,TAMIL NADU,12.674519538879395,79.88948822021484,50.10352886923114
102010,Porpandal,603107,Kanchipuram,TAMIL NADU,12.674519538879395,79.88948822021484,50.10352886923114
102011,Salavakkam,603107,Kanchipuram,TAMIL NADU,12.674519538879395,79.88948822021484,50.10352886923114
102012,Valathodu,603107,Kanchipuram,TAMIL NADU,12.674519538879395,79.88948822021484,50.10352886923114
102013,Hanumanthapuram,603108,Kanchipuram,TAMIL NADU,12.740756034851074,80.11263275146483,27.916615305318018
102014,Kalvoy,603108,Kanchipuram,TAMIL NADU,12.740756034851074,80.11263275146483,27.916615305318018
102015,Karumbakkam,603108,Kanchipuram,TAMIL NADU,12.740756034851074,80.11263275146483,27.916615305318018
102016,Kottamedu,603108,Kanchipuram,TAMIL NADU,12.740756034851074,80.11263275146483,27.916615305318018
102017,Madayathur,603108,Kanchipuram,TAMIL NADU,12.740756034851074,80.11263275146483,27.916615305318018
102018,Melaiyur,603108,Kanchipuram,TAMIL NADU,12.740756034851074,80.11263275146483,27.916615305318018
102019,Nellikuppam,603108,Kanchipuram,TAMIL NADU,12.740756034851074,80.11263275146483,27.916615305318018
102020,Sembakkam,603108,Kanchipuram,TAMIL NADU,12.740756034851074,80.11263275146483,27.916615305318018
102021,Senneri,603108,Kanchipuram,TAMIL NADU,12.740756034851074,80.11263275146483,27.916615305318018
102022,Sirunkundram,603108,Kanchipuram,TAMIL NADU,12.740756034851074,80.11263275146483,27.916615305318018
102023,Ammanambakkam,603109,Kanchipuram,TAMIL NADU,12.609179496765135,80.06027984619139,43.313395868538684
102024,Desumugipettai,603109,Kanchipuram,TAMIL NADU,12.609179496765135,80.06027984619139,43.313395868538684
102025,Edaiyur,603109,Kanchipuram,TAMIL NADU,12.609179496765135,80.06027984619139,43.313395868538684
102026,Irumbulichery,603109,Kanchipuram,TAMIL NADU,12.609179496765135,80.06027984619139,43.313395868538684
102027,Mullikolathur,603109,Kanchipuram,TAMIL NADU,12.609179496765135,80.06027984619139,43.313395868538684
102028,Oragadam,603109,Kanchipuram,TAMIL NADU,12.609179496765135,80.06027984619139,43.313395868538684
102029,Pandur,603109,Kanchipuram,TAMIL NADU,12.609179496765135,80.06027984619139,43.313395868538684
102030,Puliyur,603109,Kanchipuram,TAMIL NADU,12.609179496765135,80.06027984619139,43.313395868538684
102031,Thathalur,603109,Kanchipuram,TAMIL NADU,12.609179496765135,80.06027984619139,43.313395868538684
102032,Tirukalikundram Bazaar,603109,Kanchipuram,TAMIL NADU,12.609179496765135,80.06027984619139,43.313395868538684
102033,Tirukalikundram,603109,Kanchipuram,TAMIL NADU,12.609179496765135,80.06027984619139,43.313395868538684
102034,Veerapuram,603109,Kanchipuram,TAMIL NADU,12.609179496765135,80.06027984619139,43.313395868538684
102035,Alathur Industrial Estate,603110,Kanchipuram,TAMIL NADU,12.71689224243164,80.08871459960938,31.56130125469245
102036,Illalur,603110,Kanchipuram,TAMIL NADU,12.71689224243164,80.08871459960938,31.56130125469245
102037,Kayar,603110,Kanchipuram,TAMIL NADU,12.71689224243164,80.08871459960938,31.56130125469245
102038,Tiruporur,603110,Kanchipuram,TAMIL NADU,12.71689224243164,80.08871459960938,31.56130125469245
102039,Venbedu,603110,Kanchipuram,TAMIL NADU,12.71689224243164,80.08871459960938,31.56130125469245
102040,Mamandur,603111,Kanchipuram,TAMIL NADU,12.695292472839355,79.8957290649414,48.18411395202386
102041,Manapakkam,603111,Kanchipuram,TAMIL NADU,12.695292472839355,79.8957290649414,48.18411395202386
102042,Meyyur,603111,Kanchipuram,TAMIL NADU,12.695292472839355,79.8957290649414,48.18411395202386
102043,Ozhalur,603111,Kanchipuram,TAMIL NADU,12.695292472839355,79.8957290649414,48.18411395202386
102044,Pazhamathur,603111,Kanchipuram,TAMIL NADU,12.695292472839355,79.8957290649414,48.18411395202386
102045,Tirumani,603111,Kanchipuram,TAMIL NADU,12.695292472839355,79.8957290649414,48.18411395202386
102046,Venpakkam,603111,Kanchipuram,TAMIL NADU,12.695292472839355,79.8957290649414,48.18411395202386
102047,Kovalam (Kanchipuram),603112,Kanchipuram,TAMIL NADU,12.826387405395508,80.24713897705078,13.789637331984977
102048,Muttukadu,603112,Kanchipuram,TAMIL NADU,12.826387405395508,80.24713897705078,13.789637331984977
102049,Thiruvidanthai,603112,Kanchipuram,TAMIL NADU,12.826387405395508,80.24713897705078,13.789637331984977
102050,Anupuram,603127,Kanchipuram,TAMIL NADU,13.338040351867676,78.19211578369139,227.7466651954024
102051,Elapakkam,603201,Kanchipuram,TAMIL NADU,12.655601501464846,79.90430450439453,50.17609878042418
102052,Kattukaranai,603201,Kanchipuram,TAMIL NADU,12.655601501464846,79.90430450439453,50.17609878042418
102053,Madhur,603201,Kanchipuram,TAMIL NADU,12.655601501464846,79.90430450439453,50.17609878042418
102054,Padiri,603201,Kanchipuram,TAMIL NADU,12.655601501464846,79.90430450439453,50.17609878042418
102055,Ramapuram,603201,Kanchipuram,TAMIL NADU,12.655601501464846,79.90430450439453,50.17609878042418
102056,Guduvanchery,603202,Kanchipuram,TAMIL NADU,12.844141960144045,80.05430603027344,24.788998475938328
102057,Kannivakkam,603202,Kanchipuram,TAMIL NADU,12.844141960144045,80.05430603027344,24.788998475938328
102058,Karanaipuduchery,603202,Kanchipuram,TAMIL NADU,12.844141960144045,80.05430603027344,24.788998475938328
102059,Madambakkam,603202,Kanchipuram,TAMIL NADU,12.844141960144045,80.05430603027344,24.788998475938328
102060,Kayarambedu,603202,Kanchipuram,TAMIL NADU,12.844141960144045,80.05430603027344,24.788998475938328
102061,Kattankolathur,603203,Kanchipuram,TAMIL NADU,12.815274238586426,80.0389175415039,27.851789388144944
102062,Kavanur,603203,Kanchipuram,TAMIL NADU,12.815274238586426,80.0389175415039,27.851789388144944
102063,Ninnakarai,603203,Kanchipuram,TAMIL NADU,12.815274238586426,80.0389175415039,27.851789388144944
102064,Anjur,603204,Kanchipuram,TAMIL NADU,12.768665313720705,80.0097885131836,33.39844400672994
102065,Appur,603204,Kanchipuram,TAMIL NADU,12.768665313720705,80.0097885131836,33.39844400672994
102066,Chettipunniam,603204,Kanchipuram,TAMIL NADU,12.768665313720705,80.0097885131836,33.39844400672994
102067,Elutchur,603204,Kanchipuram,TAMIL NADU,12.768665313720705,80.0097885131836,33.39844400672994
102068,Karunilam,603204,Kanchipuram,TAMIL NADU,12.768665313720705,80.0097885131836,33.39844400672994
102069,Melrosapuram,603204,Kanchipuram,TAMIL NADU,12.768665313720705,80.0097885131836,33.39844400672994
102070,Singaperumalkoil,603204,Kanchipuram,TAMIL NADU,12.768665313720705,80.0097885131836,33.39844400672994
102071,Tirukatchur,603204,Kanchipuram,TAMIL NADU,12.768665313720705,80.0097885131836,33.39844400672994
102072,Vadakkupattu,603204,Kanchipuram,TAMIL NADU,12.768665313720705,80.0097885131836,33.39844400672994
102073,Venkatapuram,603204,Kanchipuram,TAMIL NADU,12.768665313720705,80.0097885131836,33.39844400672994
102074,Maraimalai Nagar,603209,Kanchipuram,TAMIL NADU,12.783823013305664,80.01902770996094,31.594892959395448
102075,Panangottur,603209,Kanchipuram,TAMIL NADU,12.783823013305664,80.01902770996094,31.594892959395448
102076,Urapakkam,603210,Kanchipuram,TAMIL NADU,12.87332820892334,80.08291625976562,20.565621926252597
102077,Annai Anjugam Nagar,603211,Kanchipuram,TAMIL NADU,12.867284774780273,80.0699234008789,22.12621918875249
102078,Acharapakkam R.S.,603301,Kanchipuram,TAMIL NADU,12.386863708496096,79.82951354980469,77.65307381633122
102079,Acharapakkam,603301,Kanchipuram,TAMIL NADU,12.386863708496096,79.82951354980469,77.65307381633122
102080,Indalur,603301,Kanchipuram,TAMIL NADU,12.386863708496096,79.82951354980469,77.65307381633122
102081,Irumbuli,603301,Kanchipuram,TAMIL NADU,12.386863708496096,79.82951354980469,77.65307381633122
102082,Kattugudalur,603301,Kanchipuram,TAMIL NADU,12.386863708496096,79.82951354980469,77.65307381633122
102083,Kayapakkam,603301,Kanchipuram,TAMIL NADU,12.386863708496096,79.82951354980469,77.65307381633122
102084,Parukkal,603301,Kanchipuram,TAMIL NADU,12.386863708496096,79.82951354980469,77.65307381633122
102085,Seethapuram,603301,Kanchipuram,TAMIL NADU,12.386863708496096,79.82951354980469,77.65307381633122
102086,Chengattur,603302,Kanchipuram,TAMIL NADU,12.353082656860352,79.99376678466797,71.96289983930359
102087,Cheyur (Kanchipuram),603302,Kanchipuram,TAMIL NADU,12.353082656860352,79.99376678466797,71.96289983930359
102088,Cheyyur North,603302,Kanchipuram,TAMIL NADU,12.353082656860352,79.99376678466797,71.96289983930359
102089,Irumbedu,603302,Kanchipuram,TAMIL NADU,12.353082656860352,79.99376678466797,71.96289983930359
102090,Nainarkuppam,603302,Kanchipuram,TAMIL NADU,12.353082656860352,79.99376678466797,71.96289983930359
102091,Palaiyur,603302,Kanchipuram,TAMIL NADU,12.353082656860352,79.99376678466797,71.96289983930359
102092,Panaiyur,603302,Kanchipuram,TAMIL NADU,12.353082656860352,79.99376678466797,71.96289983930359
102093,Perumbakkam,603302,Kanchipuram,TAMIL NADU,12.353082656860352,79.99376678466797,71.96289983930359
102094,Zamin Budur,603302,Kanchipuram,TAMIL NADU,12.353082656860352,79.99376678466797,71.96289983930359
102095,Janakipuram,603303,Kanchipuram,TAMIL NADU,12.547710418701172,79.90625762939453,58.516084032058586
102096,Karunguli,603303,Kanchipuram,TAMIL NADU,12.547710418701172,79.90625762939453,58.516084032058586
102097,Kathirichery,603303,Kanchipuram,TAMIL NADU,12.547710418701172,79.90625762939453,58.516084032058586
102098,Keelavalam,603303,Kanchipuram,TAMIL NADU,12.547710418701172,79.90625762939453,58.516084032058586
102099,Kinar,603303,Kanchipuram,TAMIL NADU,12.547710418701172,79.90625762939453,58.516084032058586
102100,Kinar Kandigai Pudur,603303,Kanchipuram,TAMIL NADU,12.547710418701172,79.90625762939453,58.516084032058586
102101,Malapalayam,603303,Kanchipuram,TAMIL NADU,12.547710418701172,79.90625762939453,58.516084032058586
102102,Malayalipettai,603303,Kanchipuram,TAMIL NADU,12.547710418701172,79.90625762939453,58.516084032058586
102103,Melavalam,603303,Kanchipuram,TAMIL NADU,12.547710418701172,79.90625762939453,58.516084032058586
102104,Pudupattu,603303,Kanchipuram,TAMIL NADU,12.547710418701172,79.90625762939453,58.516084032058586
102105,Vedavakkam,603303,Kanchipuram,TAMIL NADU,12.547710418701172,79.90625762939453,58.516084032058586
102106,Kolathur,603304,Kanchipuram,TAMIL NADU,12.25303840637207,79.97909545898438,82.81397798401942
102107,Kottaikadu,603304,Kanchipuram,TAMIL NADU,12.25303840637207,79.97909545898438,82.81397798401942
102108,Kudapakkam,603304,Kanchipuram,TAMIL NADU,12.25303840637207,79.97909545898438,82.81397798401942
102109,Sembulipuram,603304,Kanchipuram,TAMIL NADU,12.25303840637207,79.97909545898438,82.81397798401942
102110,Vedal,603304,Kanchipuram,TAMIL NADU,12.25303840637207,79.97909545898438,82.81397798401942
102111,Vilambur,603304,Kanchipuram,TAMIL NADU,12.25303840637207,79.97909545898438,82.81397798401942
102112,Kadalur,603305,Kanchipuram,TAMIL NADU,12.414156913757324,80.10773468017578,61.48849985855636
102113,Kodoovur,603305,Kanchipuram,TAMIL NADU,12.414156913757324,80.10773468017578,61.48849985855636
102114,Kuvathur,603305,Kanchipuram,TAMIL NADU,12.414156913757324,80.10773468017578,61.48849985855636
102115,Mugaiyur,603305,Kanchipuram,TAMIL NADU,12.414156913757324,80.10773468017578,61.48849985855636
102116,Nedumaram,603305,Kanchipuram,TAMIL NADU,12.414156913757324,80.10773468017578,61.48849985855636
102117,Nerkunapattu,603305,Kanchipuram,TAMIL NADU,12.414156913757324,80.10773468017578,61.48849985855636
102118,Seekanankuppam,603305,Kanchipuram,TAMIL NADU,12.414156913757324,80.10773468017578,61.48849985855636
102119,Vepancheri,603305,Kanchipuram,TAMIL NADU,12.414156913757324,80.10773468017578,61.48849985855636
102120,Arungunam,603306,Kanchipuram,TAMIL NADU,12.505718231201172,79.88036346435547,63.88487483117262
102121,Madurantakam,603306,Kanchipuram,TAMIL NADU,12.505718231201172,79.88036346435547,63.88487483117262
102122,Morapakkam,603306,Kanchipuram,TAMIL NADU,12.505718231201172,79.88036346435547,63.88487483117262
102123,Murugambakkam,603306,Kanchipuram,TAMIL NADU,12.505718231201172,79.88036346435547,63.88487483117262
102124,New Mambakkam,603306,Kanchipuram,TAMIL NADU,12.505718231201172,79.88036346435547,63.88487483117262
102125,Pakkam,603306,Kanchipuram,TAMIL NADU,12.505718231201172,79.88036346435547,63.88487483117262
102126,Perumbakkam,603306,Kanchipuram,TAMIL NADU,12.505718231201172,79.88036346435547,63.88487483117262
102127,Senguntharpettai,603306,Kanchipuram,TAMIL NADU,12.505718231201172,79.88036346435547,63.88487483117262
102128,Thatchur,603306,Kanchipuram,TAMIL NADU,12.505718231201172,79.88036346435547,63.88487483117262
102129,Unamalai,603306,Kanchipuram,TAMIL NADU,12.505718231201172,79.88036346435547,63.88487483117262
102130,Vanniarpettai,603306,Kanchipuram,TAMIL NADU,12.505718231201172,79.88036346435547,63.88487483117262
102131,Veeranakunnam,603306,Kanchipuram,TAMIL NADU,12.505718231201172,79.88036346435547,63.88487483117262
102132,Ananthamangalam,603307,Kanchipuram,TAMIL NADU,12.382513046264648,79.69161224365234,87.7498890747034
102133,Minnal Sithamur,603307,Kanchipuram,TAMIL NADU,12.382513046264648,79.69161224365234,87.7498890747034
102134,Orathy,603307,Kanchipuram,TAMIL NADU,12.382513046264648,79.69161224365234,87.7498890747034
102135,Sirudamur,603307,Kanchipuram,TAMIL NADU,12.382513046264648,79.69161224365234,87.7498890747034
102136,Vadamanipakkam,603307,Kanchipuram,TAMIL NADU,12.382513046264648,79.69161224365234,87.7498890747034
102137,Budur,603308,Kanchipuram,TAMIL NADU,12.5957670211792,79.9236068725586,53.280401937061285
102138,Bukkathurai,603308,Kanchipuram,TAMIL NADU,12.5957670211792,79.9236068725586,53.280401937061285
102139,Isur,603308,Kanchipuram,TAMIL NADU,12.5957670211792,79.9236068725586,53.280401937061285
102140,Kallabiranpuram,603308,Kanchipuram,TAMIL NADU,12.5957670211792,79.9236068725586,53.280401937061285
102141,Kolampakkam,603308,Kanchipuram,TAMIL NADU,12.5957670211792,79.9236068725586,53.280401937061285
102142,Malaivaiyavur,603308,Kanchipuram,TAMIL NADU,12.5957670211792,79.9236068725586,53.280401937061285
102143,Padalam,603308,Kanchipuram,TAMIL NADU,12.5957670211792,79.9236068725586,53.280401937061285
102144,Palayanur,603308,Kanchipuram,TAMIL NADU,12.5957670211792,79.9236068725586,53.280401937061285
102145,Mugundagiri,603309,Kanchipuram,TAMIL NADU,12.416150093078613,79.89016723632812,71.20525985232496
102146,Paiyambadi,603309,Kanchipuram,TAMIL NADU,12.416150093078613,79.89016723632812,71.20525985232496
102147,Perukkaranai,603309,Kanchipuram,TAMIL NADU,12.416150093078613,79.89016723632812,71.20525985232496
102148,Polambakkam,603309,Kanchipuram,TAMIL NADU,12.416150093078613,79.89016723632812,71.20525985232496
102157,Ozhavetti,603311,Kanchipuram,TAMIL NADU,12.445151329040527,79.93372344970702,65.939793489219
102158,Peria Venmani,603311,Kanchipuram,TAMIL NADU,12.445151329040527,79.93372344970702,65.939793489219
102159,Zamin Endathur,603311,Kanchipuram,TAMIL NADU,12.445151329040527,79.93372344970702,65.939793489219
102160,Anaicut,603312,Kanchipuram,TAMIL NADU,12.460022926330565,80.00762176513672,60.5854646301067
102161,Iranya Sidhi,603312,Kanchipuram,TAMIL NADU,12.460022926330565,80.00762176513672,60.5854646301067
102162,K.Nelvoy,603312,Kanchipuram,TAMIL NADU,12.460022926330565,80.00762176513672,60.5854646301067
102163,Kalkulam,603312,Kanchipuram,TAMIL NADU,12.460022926330565,80.00762176513672,60.5854646301067
102164,Lathur,603312,Kanchipuram,TAMIL NADU,12.460022926330565,80.00762176513672,60.5854646301067
102165,Palur,603312,Kanchipuram,TAMIL NADU,12.460022926330565,80.00762176513672,60.5854646301067
102166,Pavunjur,603312,Kanchipuram,TAMIL NADU,12.460022926330565,80.00762176513672,60.5854646301067
102167,Seevadi,603312,Kanchipuram,TAMIL NADU,12.460022926330565,80.00762176513672,60.5854646301067
102168,Tiruvadur,603312,Kanchipuram,TAMIL NADU,12.460022926330565,80.00762176513672,60.5854646301067
102169,Chithamur,603313,Kanchipuram,TAMIL NADU,12.406220436096193,79.91578674316406,70.62905515956278
102170,Kattudevadur,603313,Kanchipuram,TAMIL NADU,12.406220436096193,79.91578674316406,70.62905515956278
102171,Neerpair,603313,Kanchipuram,TAMIL NADU,12.406220436096193,79.91578674316406,70.62905515956278
102172,Nugumbal,603313,Kanchipuram,TAMIL NADU,12.406220436096193,79.91578674316406,70.62905515956278
102173,Onambakkam,603313,Kanchipuram,TAMIL NADU,12.406220436096193,79.91578674316406,70.62905515956278
102174,Vilanganur,603313,Kanchipuram,TAMIL NADU,12.406220436096193,79.91578674316406,70.62905515956278
102180,Melmaruvathur,603319,Kanchipuram,TAMIL NADU,12.434181213378904,79.82584381103517,73.76253438148564
102181,Sendivakkam,603319,Kanchipuram,TAMIL NADU,12.434181213378904,79.82584381103517,73.76253438148564
102182,Sirunagalur,603319,Kanchipuram,TAMIL NADU,12.434181213378904,79.82584381103517,73.76253438148564
102183,Andarkuppam,603401,Kanchipuram,TAMIL NADU,12.267948150634766,79.9012222290039,84.76677414095651
102184,Chunampet,603401,Kanchipuram,TAMIL NADU,12.267948150634766,79.9012222290039,84.76677414095651
102185,Kadukkalur,603401,Kanchipuram,TAMIL NADU,12.267948150634766,79.9012222290039,84.76677414095651
102186,Puthirankottai,603401,Kanchipuram,TAMIL NADU,12.267948150634766,79.9012222290039,84.76677414095651
102187,Vannianallur,603401,Kanchipuram,TAMIL NADU,12.267948150634766,79.9012222290039,84.76677414095651
102188,Velur,603401,Kanchipuram,TAMIL NADU,12.267948150634766,79.9012222290039,84.76677414095651
102189,Alisoor,603402,Kanchipuram,TAMIL NADU,12.64072036743164,79.71485900878906,67.95732712607482
102190,Arasanimangalam,603402,Kanchipuram,TAMIL NADU,12.64072036743164,79.71485900878906,67.95732712607482
102191,Elaganar,603402,Kanchipuram,TAMIL NADU,12.64072036743164,79.71485900878906,67.95732712607482
102192,Hanumanthandalam,603402,Kanchipuram,TAMIL NADU,12.64072036743164,79.71485900878906,67.95732712607482
102193,Kaliyampoondi,603402,Kanchipuram,TAMIL NADU,12.64072036743164,79.71485900878906,67.95732712607482
102194,Pennalur,603402,Kanchipuram,TAMIL NADU,12.64072036743164,79.71485900878906,67.95732712607482
102195,Manampathi,603403,Kanchipuram,TAMIL NADU,12.628629684448242,79.65331268310547,74.43541242039177
102196,Manampathikandigai,603403,Kanchipuram,TAMIL NADU,12.628629684448242,79.65331268310547,74.43541242039177
102197,Perunagar,603403,Kanchipuram,TAMIL NADU,12.628629684448242,79.65331268310547,74.43541242039177
102198,R.N.Kandigai,603403,Kanchipuram,TAMIL NADU,12.628629684448242,79.65331268310547,74.43541242039177
102199,Thandarai,603403,Kanchipuram,TAMIL NADU,12.628629684448242,79.65331268310547,74.43541242039177
102206,Agaramduli,603406,Kanchipuram,TAMIL NADU,12.610297203063965,79.74778747558594,66.73900945870317
102207,Kammalampoondi,603406,Kanchipuram,TAMIL NADU,12.610297203063965,79.74778747558594,66.73900945870317
102208,Kavanur Pudhucheri,603406,Kanchipuram,TAMIL NADU,12.610297203063965,79.74778747558594,66.73900945870317
102209,Kiliyanagar,603406,Kanchipuram,TAMIL NADU,12.610297203063965,79.74778747558594,66.73900945870317
102210,L.Endathur,603406,Kanchipuram,TAMIL NADU,12.610297203063965,79.74778747558594,66.73900945870317
102211,Malliyankaranai,603406,Kanchipuram,TAMIL NADU,12.610297203063965,79.74778747558594,66.73900945870317
102212,Maruthuvambadi,603406,Kanchipuram,TAMIL NADU,12.610297203063965,79.74778747558594,66.73900945870317
102213,Sirungoli,603406,Kanchipuram,TAMIL NADU,12.610297203063965,79.74778747558594,66.73900945870317
102214,Tirupulivanam,603406,Kanchipuram,TAMIL NADU,12.610297203063965,79.74778747558594,66.73900945870317
102215,Tittalam,603406,Kanchipuram,TAMIL NADU,12.610297203063965,79.74778747558594,66.73900945870317
102216,Uttiramerur,603406,Kanchipuram,TAMIL NADU,12.610297203063965,79.74778747558594,66.73900945870317
102217,Vadanallur,603406,Kanchipuram,TAMIL NADU,12.610297203063965,79.74778747558594,66.73900945870317
109663,Kilacheri,631402,Kanchipuram,TAMIL NADU,13.032615661621096,79.84019470214845,45.92311543382657
109665,Kuvam,631402,Kanchipuram,TAMIL NADU,13.032615661621096,79.84019470214845,45.92311543382657
109666,Mappedu,631402,Kanchipuram,TAMIL NADU,13.032615661621096,79.84019470214845,45.92311543382657
109667,Narasingapuram,631402,Kanchipuram,TAMIL NADU,13.032615661621096,79.84019470214845,45.92311543382657
109669,Kanchipuram Collectorate,631501,Kanchipuram,TAMIL NADU,12.764269828796387,79.6632080078125,67.48885859095587
109670,Kanchipuram Cutchery,631501,Kanchipuram,TAMIL NADU,12.764269828796387,79.6632080078125,67.48885859095587
109671,Kanchipuram,631501,Kanchipuram,TAMIL NADU,12.764269828796387,79.6632080078125,67.48885859095587
109672,Little Kanchipuram,631501,Kanchipuram,TAMIL NADU,12.764269828796387,79.6632080078125,67.48885859095587
109673,Pillayarpalayam,631501,Kanchipuram,TAMIL NADU,12.764269828796387,79.6632080078125,67.48885859095587
109674,Thoopul,631501,Kanchipuram,TAMIL NADU,12.764269828796387,79.6632080078125,67.48885859095587
109675,Tirukachinambi Street,631501,Kanchipuram,TAMIL NADU,12.764269828796387,79.6632080078125,67.48885859095587
109676,Ayyankarkulam,631502,Kanchipuram,TAMIL NADU,12.840322494506836,79.72867584228516,58.4344086859344
109677,Big Kanchipuram,631502,Kanchipuram,TAMIL NADU,12.840322494506836,79.72867584228516,58.4344086859344
109678,Govindavadi,631502,Kanchipuram,TAMIL NADU,12.840322494506836,79.72867584228516,58.4344086859344
109679,Kammavarpalayam,631502,Kanchipuram,TAMIL NADU,12.840322494506836,79.72867584228516,58.4344086859344
109680,Kilakattur,631502,Kanchipuram,TAMIL NADU,12.840322494506836,79.72867584228516,58.4344086859344
109681,Kuram,631502,Kanchipuram,TAMIL NADU,12.840322494506836,79.72867584228516,58.4344086859344
109682,Melkadirpur,631502,Kanchipuram,TAMIL NADU,12.840322494506836,79.72867584228516,58.4344086859344
109683,Olimohamedpet,631502,Kanchipuram,TAMIL NADU,12.840322494506836,79.72867584228516,58.4344086859344
109684,Orikkai,631502,Kanchipuram,TAMIL NADU,12.840322494506836,79.72867584228516,58.4344086859344
109685,Perumanallur,631502,Kanchipuram,TAMIL NADU,12.840322494506836,79.72867584228516,58.4344086859344
109686,Sankaramutt,631502,Kanchipuram,TAMIL NADU,12.840322494506836,79.72867584228516,58.4344086859344
109687,Sevilimedu,631502,Kanchipuram,TAMIL NADU,12.840322494506836,79.72867584228516,58.4344086859344
109688,Sirukaveripakkam,631502,Kanchipuram,TAMIL NADU,12.840322494506836,79.72867584228516,58.4344086859344
109689,Thimamsamudram,631502,Kanchipuram,TAMIL NADU,12.840322494506836,79.72867584228516,58.4344086859344
109690,Veliyur,631502,Kanchipuram,TAMIL NADU,12.840322494506836,79.72867584228516,58.4344086859344
109691,Balchettychatram,631551,Kanchipuram,TAMIL NADU,12.865887641906738,79.60716247558594,70.95095536054802
109692,Damal,631551,Kanchipuram,TAMIL NADU,12.865887641906738,79.60716247558594,70.95095536054802
109693,Krishnapuram,631551,Kanchipuram,TAMIL NADU,12.865887641906738,79.60716247558594,70.95095536054802
109694,Musaravakkam,631551,Kanchipuram,TAMIL NADU,12.865887641906738,79.60716247558594,70.95095536054802
109695,Muthavedu,631551,Kanchipuram,TAMIL NADU,12.865887641906738,79.60716247558594,70.95095536054802
109696,Karai,631552,Kanchipuram,TAMIL NADU,12.87244987487793,79.7166748046875,59.08010292466133
109697,Karaipettai,631552,Kanchipuram,TAMIL NADU,12.87244987487793,79.7166748046875,59.08010292466133
109698,Parandur,631552,Kanchipuram,TAMIL NADU,12.87244987487793,79.7166748046875,59.08010292466133
109699,Siruvakkam,631552,Kanchipuram,TAMIL NADU,12.87244987487793,79.7166748046875,59.08010292466133
109700,Siruvallur,631552,Kanchipuram,TAMIL NADU,12.87244987487793,79.7166748046875,59.08010292466133
109717,Ayyampettai,631601,Kanchipuram,TAMIL NADU,12.808321952819824,79.76271057128906,55.72702013918046
109718,Ekanampet,631601,Kanchipuram,TAMIL NADU,12.808321952819824,79.76271057128906,55.72702013918046
109719,Muthialpet,631601,Kanchipuram,TAMIL NADU,12.808321952819824,79.76271057128906,55.72702013918046
109720,Naickenpet,631601,Kanchipuram,TAMIL NADU,12.808321952819824,79.76271057128906,55.72702013918046
109721,Thenambakkam,631601,Kanchipuram,TAMIL NADU,12.808321952819824,79.76271057128906,55.72702013918046
109722,Thimmarajampettai,631601,Kanchipuram,TAMIL NADU,12.808321952819824,79.76271057128906,55.72702013918046
109723,Arpakkam,631603,Kanchipuram,TAMIL NADU,12.764484405517578,79.75773620605469,57.796206618073626
109724,Kavanthandalam,631603,Kanchipuram,TAMIL NADU,12.764484405517578,79.75773620605469,57.796206618073626
109725,Magaral,631603,Kanchipuram,TAMIL NADU,12.764484405517578,79.75773620605469,57.796206618073626
109726,Malayankulam,631603,Kanchipuram,TAMIL NADU,12.764484405517578,79.75773620605469,57.796206618073626
109727,Neyyadupakkam,631603,Kanchipuram,TAMIL NADU,12.764484405517578,79.75773620605469,57.796206618073626
109728,Olugarai,631603,Kanchipuram,TAMIL NADU,12.764484405517578,79.75773620605469,57.796206618073626
109729,Puthali,631603,Kanchipuram,TAMIL NADU,12.764484405517578,79.75773620605469,57.796206618073626
109730,Vayalakkavur,631603,Kanchipuram,TAMIL NADU,12.764484405517578,79.75773620605469,57.796206618073626
109731,Echoor,631604,Kanchipuram,TAMIL NADU,12.850509643554688,79.91207122802734,38.85494366576261
109732,Kunnam,631604,Kanchipuram,TAMIL NADU,12.850509643554688,79.91207122802734,38.85494366576261
109733,Panruti,631604,Kanchipuram,TAMIL NADU,12.850509643554688,79.91207122802734,38.85494366576261
109734,Sinnivakkam,631604,Kanchipuram,TAMIL NADU,12.850509643554688,79.91207122802734,38.85494366576261
109735,Thenneri,631604,Kanchipuram,TAMIL NADU,12.850509643554688,79.91207122802734,38.85494366576261
109736,Varanavasi,631604,Kanchipuram,TAMIL NADU,12.850509643554688,79.91207122802734,38.85494366576261
109737,Asoor,631605,Kanchipuram,TAMIL NADU,12.826764106750488,79.79402160644531,51.89814501728962
109738,Avalur,631605,Kanchipuram,TAMIL NADU,12.826764106750488,79.79402160644531,51.89814501728962
109739,Nathanallur,631605,Kanchipuram,TAMIL NADU,12.826764106750488,79.79402160644531,51.89814501728962
109740,Puliambakkam,631605,Kanchipuram,TAMIL NADU,12.826764106750488,79.79402160644531,51.89814501728962
109741,Serkadu,631605,Kanchipuram,TAMIL NADU,12.826764106750488,79.79402160644531,51.89814501728962
109742,Thammanur,631605,Kanchipuram,TAMIL NADU,12.826764106750488,79.79402160644531,51.89814501728962
109743,Uttukadu,631605,Kanchipuram,TAMIL NADU,12.826764106750488,79.79402160644531,51.89814501728962
109744,Walajabad,631605,Kanchipuram,TAMIL NADU,12.826764106750488,79.79402160644531,51.89814501728962
