CID,CityName/AreaName,Pincode,District,State,Locality,Location,Latitude,Longitude,distance(in kms)
101465,Flower Bazaar,600001,Chennai,TAMIL NADU,"Flower Bazaar,600001,Chennai,TAMIL NADU","Flower Bazaar Chowk, George Town, Chennai, Tamil Nadu, 600001",13.088193703671566,80.28145515589098,18.57958878803867
101466,Govt Stanley Hospital,600001,Chennai,TAMIL NADU,"Govt Stanley Hospital,600001,Chennai,TAMIL NADU",Blood Bank-Government Stanley Hospital,13.105560000000025,80.28648000000004,20.568511974466634
101467,Mannady (Chennai),600001,Chennai,TAMIL NADU,"Mannady (Chennai),600001,Chennai,TAMIL NADU","Mannady, George Town, Chennai, Tamil Nadu",13.100870000000043,80.29380000000003,20.228572192352136
101468,Mint Building,600001,Chennai,TAMIL NADU,"Mint Building,600001,Chennai,TAMIL NADU",T. N. K. Buildings,13.08471000000003,80.27819000000005,18.1387475550403
101469,MPT AO,600001,Chennai,TAMIL NADU,"MPT AO,600001,Chennai,TAMIL NADU",600001,13.09370000000007,80.29583779900008,19.5123343831257
101470,Sowcarpet,600001,Chennai,TAMIL NADU,"Sowcarpet,600001,Chennai,TAMIL NADU","600001, Sowcarpet, George Town, Chennai, Tamil Nadu",13.090211475719883,80.28564465889032,18.885530160445256
101471,Chennai,600001,Chennai,TAMIL NADU,"Chennai,600001,Chennai,TAMIL NADU",600001,13.09370000000007,80.29583779900008,19.5123343831257
101472,Anna Road,600002,Chennai,TAMIL NADU,"Anna Road,600002,Chennai,TAMIL NADU","Anna Salai, Anna Salai Area, Chennai, Tamil Nadu, 600002",13.06366744686848,80.26483293647927,15.638228638757635
101473,Chintadripet,600002,Chennai,TAMIL NADU,"Chintadripet,600002,Chennai,TAMIL NADU","600002, Chintadripet, Anna Salai, Chennai, Tamil Nadu",13.069073844661292,80.27076400598074,16.30748819199047
101474,Madras Electricity System,600002,Chennai,TAMIL NADU,"Madras Electricity System,600002,Chennai,TAMIL NADU",600002,13.080595000000073,80.27082500000006,17.572171220825567
101475,Edapalayam,600003,Chennai,TAMIL NADU,"Edapalayam,600003,Chennai,TAMIL NADU","Edapalayam, Park Town, Chennai, Tamil Nadu",13.087470000000053,80.27711000000005,18.421271784573246
101476,Madras Medical College,600003,Chennai,TAMIL NADU,"Madras Medical College,600003,Chennai,TAMIL NADU",Madras Medical College,13.08206000000007,80.27901000000008,17.86483124958022
101477,Park Town,600003,Chennai,TAMIL NADU,"Park Town,600003,Chennai,TAMIL NADU","600003, Chennai Central, Park Town, Chennai, Tamil Nadu",13.086005081967231,80.27544223691189,18.23355306494326
101478,Ripon Buildings,600003,Chennai,TAMIL NADU,"Ripon Buildings,600003,Chennai,TAMIL NADU",Ripon Building,13.08158000000003,80.27161000000007,17.691084477657558
101479,Mandaveli,600004,Chennai,TAMIL NADU,"Mandaveli,600004,Chennai,TAMIL NADU","600004, Mandaveli, Chennai, Tamil Nadu",13.027353783480226,80.26790125055527,11.69631669298246
101480,Mylapore,600004,Chennai,TAMIL NADU,"Mylapore,600004,Chennai,TAMIL NADU","600004, Royapettah, Mylapore, Chennai, Tamil Nadu",13.047857110551599,80.27153577211301,13.99851540701946
101481,Vivekananda College Madras,600004,Chennai,TAMIL NADU,"Vivekananda College Madras,600004,Chennai,TAMIL NADU",Ramakrishna Mission Vivekananda College,13.040900000000022,80.26460000000003,13.131252716977194
101482,Chepauk,600005,Chennai,TAMIL NADU,"Chepauk,600005,Chennai,TAMIL NADU","600005, Government Estate, Chepauk, Chennai, Tamil Nadu",13.06792656368259,80.27627249664422,16.27346650243326
101483,Madras University,600005,Chennai,TAMIL NADU,"Madras University,600005,Chennai,TAMIL NADU",Madras University,13.06582000000003,80.28266000000008,16.17882073665639
101484,Tiruvallikkeni,600005,Chennai,TAMIL NADU,"Tiruvallikkeni,600005,Chennai,TAMIL NADU","600005, Royapettah, Thiruvallikeni, Chennai, Tamil Nadu",13.04821607136676,80.27367985708054,14.077290247891261
101485,Greams Road,600006,Chennai,TAMIL NADU,"Greams Road,600006,Chennai,TAMIL NADU","Greams Road, Thousand Lights, Chennai, Tamil Nadu, 600006",13.055763899013696,80.25552586982994,14.696845978918068
101486,Old College Buildings,600006,Chennai,TAMIL NADU,"Old College Buildings,600006,Chennai,TAMIL NADU",600006,13.062070000000062,80.25457835400005,15.39078918433727
101487,Shastri Bhavan,600006,Chennai,TAMIL NADU,"Shastri Bhavan,600006,Chennai,TAMIL NADU","Sastri Bhavan, Urapakkam, Chennai, Kancheepuram, Tamil Nadu",12.86623000000003,80.08015000000006,19.531663333022003
101488,Teynampet West,600006,Chennai,TAMIL NADU,"Teynampet West,600006,Chennai,TAMIL NADU",600006,13.062070000000062,80.25457835400005,15.39078918433727
101489,Vepery,600007,Chennai,TAMIL NADU,"Vepery,600007,Chennai,TAMIL NADU","600007, Periyamet, Vepery, Chennai, Tamil Nadu",13.086562618340208,80.26362278693414,18.149692746574093
101490,Egmore ND,600008,Chennai,TAMIL NADU,"Egmore ND,600008,Chennai,TAMIL NADU","Egmore Chowk, Egmore, Chennai, Tamil Nadu, 600008",13.07546327839996,80.25832818710819,16.887378969894897
101491,Egmore,600008,Chennai,TAMIL NADU,"Egmore,600008,Chennai,TAMIL NADU","600008, Egmore, Pudupet, Chennai, Tamil Nadu",13.069705431594615,80.26104839234058,16.269190946120844
101492,Ethiraj Salai,600008,Chennai,TAMIL NADU,"Ethiraj Salai,600008,Chennai,TAMIL NADU","Ethiraj Salai, Egmore, Chennai, Tamil Nadu, 600008",13.06580479047619,80.25659087660586,15.811347413431657
101493,Fort St George,600009,Chennai,TAMIL NADU,"Fort St George,600009,Chennai,TAMIL NADU","600009, Island Grounds, Fort ST. George, Chennai, Tamil Nadu",13.074200029036394,80.28497584446876,17.13830856210842
101494,Kilpauk Medical College,600010,Chennai,TAMIL NADU,"Kilpauk Medical College,600010,Chennai,TAMIL NADU",Kilpauk Medical College,13.07815000000005,80.24395000000004,17.17849682520071
101495,Kilpauk,600010,Chennai,TAMIL NADU,"Kilpauk,600010,Chennai,TAMIL NADU","600010, Kilpauk, Chennai, Tamil Nadu",13.083652080239425,80.24035290016568,17.806675974352384
101496,Medavakkam Tank Road,600010,Chennai,TAMIL NADU,"Medavakkam Tank Road,600010,Chennai,TAMIL NADU","Medavakkam Tank Road, Ayanavaram, Chennai, Tamil Nadu, 600010",13.092925064968322,80.24093498926234,18.827075296512447
101497,Perambur North,600011,Chennai,TAMIL NADU,"Perambur North,600011,Chennai,TAMIL NADU","Perambur Flyover, Perambur, Chennai, Tamil Nadu, 600011",13.107223014784868,80.24198676792376,20.40111513380374
101498,Perambur,600011,Chennai,TAMIL NADU,"Perambur,600011,Chennai,TAMIL NADU","600011, Perambur, Chennai, Tamil Nadu",13.113252563316989,80.23934774691065,21.082071162233184
101499,Sembiam,600011,Chennai,TAMIL NADU,"Sembiam,600011,Chennai,TAMIL NADU",Sembian,13.112510000000043,80.23727000000008,21.01431040367212
101500,Perambur Barracks,600012,Chennai,TAMIL NADU,"Perambur Barracks,600012,Chennai,TAMIL NADU","Perambur Barracks Road, Otteri, Chennai, Tamil Nadu, 600012",13.096421878028774,80.25912634262312,19.20750600176269
101501,Puliyanthope,600012,Chennai,TAMIL NADU,"Puliyanthope,600012,Chennai,TAMIL NADU","600012, Chennai Central, Pulianthope, Chennai, Tamil Nadu",13.092684080549319,80.27114219107992,18.903856835042372
101502,Venkatesapuram,600012,Chennai,TAMIL NADU,"Venkatesapuram,600012,Chennai,TAMIL NADU","Venkatesapuram, Triplicane, Chennai, Tamil Nadu",13.049730000000068,80.27441000000005,14.256293334515739
101503,Rayapuram,600013,Chennai,TAMIL NADU,"Rayapuram,600013,Chennai,TAMIL NADU","600013, Old Washermanpet, Royapuram, Chennai, Tamil Nadu",13.103903465000432,80.29107898853957,20.48981038605209
101504,Lloyds Estate,600014,Chennai,TAMIL NADU,"Lloyds Estate,600014,Chennai,TAMIL NADU","Lloyds Road, Royapettah, Chennai, Tamil Nadu, 600014",13.047753990597322,80.26593659405644,13.901330549413421
101505,Royapettah,600014,Chennai,TAMIL NADU,"Royapettah,600014,Chennai,TAMIL NADU","600014, Mylapore, Royapettah, Chennai, Tamil Nadu",13.046862254103788,80.26612347626744,13.805861628233254
101506,Triplicane South,600014,Chennai,TAMIL NADU,"Triplicane South,600014,Chennai,TAMIL NADU",Post Office-Triplicane South,13.054300000000069,80.27205000000004,14.711004651427666
101507,Guindy North,600015,Chennai,TAMIL NADU,"Guindy North,600015,Chennai,TAMIL NADU","North Road, Saidapet, Chennai, Tamil Nadu, 600015",13.028360029230065,80.22754508081243,11.919599703727492
101508,Saidapet (Chennai),600015,Chennai,TAMIL NADU,"Saidapet (Chennai),600015,Chennai,TAMIL NADU","600015, Saidapet, Chennai, Tamil Nadu",13.020510254447448,80.22349202410636,11.1793033341398
101509,Alandur(Reopened W.E.F.6.6.05),600016,Kanchipuram,TAMIL NADU,"Alandur(Reopened W.E.F.6.6.05),600016,Kanchipuram,TAMIL NADU","600016, Mameenampaakkam, Sasennai, Kaanjchipuram, Thamiznaatu",12.98207908652391,80.154019090905,12.346120488069934
101510,Chennai Airport,600016,Kanchipuram,TAMIL NADU,"Chennai Airport,600016,Kanchipuram,TAMIL NADU","Chennai International Airport, Meenambakkam, Chennai, Kancheepuram, Tamil Nadu",12.998260000000073,80.18089000000003,11.244774150275239
101511,Meenambakkam,600016,Kanchipuram,TAMIL NADU,"Meenambakkam,600016,Kanchipuram,TAMIL NADU","600016, Meenambakkam, Chennai, Kancheepuram, Tamil Nadu",12.98207908652391,80.154019090905,12.346120488069934
101512,St.Thomas Mount,600016,Kanchipuram,TAMIL NADU,"St.Thomas Mount,600016,Kanchipuram,TAMIL NADU","600016, ST.Thomas Mount, Chennai, Tamil Nadu",13.006268995530295,80.1923616269567,11.167554863033336
101513,Hindi Prachar Sabha,600017,Chennai,TAMIL NADU,"Hindi Prachar Sabha,600017,Chennai,TAMIL NADU","Hindi Prachara Sabha Street, T Nagar, Chennai, Tamil Nadu, 600017",13.033720046763179,80.2391701099645,12.310342981511754
101514,Thygarayanagar,600017,Chennai,TAMIL NADU,"Thygarayanagar,600017,Chennai,TAMIL NADU","600017, Thyagaraya Nagar, T Nagar, Chennai, Tamil Nadu",13.04286826729034,80.2410235772682,13.300552591572151
101515,Thygarayanagar North ND,600017,Chennai,TAMIL NADU,"Thygarayanagar North ND,600017,Chennai,TAMIL NADU","Thyagaraya Nagar, Chennai, Tamil Nadu",13.052310000000034,80.25095000000005,14.304904425732737
101516,Thygarayanagar South ND,600017,Chennai,TAMIL NADU,"Thygarayanagar South ND,600017,Chennai,TAMIL NADU","Thyagaraya Nagar, Chennai, Tamil Nadu",13.052310000000034,80.25095000000005,14.304904425732737
101517,Pr. Accountant General,600018,Chennai,TAMIL NADU,"Pr. Accountant General,600018,Chennai,TAMIL NADU",Accountant General,13.04460000000006,80.24804000000006,13.454643025107217
101518,Teynampet,600018,Chennai,TAMIL NADU,"Teynampet,600018,Chennai,TAMIL NADU","600018, Teynampet, Alwarpet, Chennai, Tamil Nadu",13.038670000000025,80.25424000000004,12.802079285379612
101524,Adyar (Chennai),600020,Chennai,TAMIL NADU,"Adyar (Chennai),600020,Chennai,TAMIL NADU","600020, Adyar, Chennai, Tamil Nadu",13.00329807450622,80.25655503997938,8.906439824374337
101525,Kasturibai Nagar,600020,Chennai,TAMIL NADU,"Kasturibai Nagar,600020,Chennai,TAMIL NADU","Kasturibai Nagar, Adyar, Chennai, Tamil Nadu",13.002560000000074,80.24897000000004,8.8026419890863
101526,Shastri Nagar (Chennai),600020,Chennai,TAMIL NADU,"Shastri Nagar (Chennai),600020,Chennai,TAMIL NADU","Sastri Nagar, Adyar, Chennai, Tamil Nadu",12.99884000000003,80.25955000000005,8.44599503103511
101527,Washermanpet East,600021,Chennai,TAMIL NADU,"Washermanpet East,600021,Chennai,TAMIL NADU","Washermanpet, Chennai, Tamil Nadu",13.109500000000025,80.28701000000007,21.007407966601928
101528,Washermanpet,600021,Chennai,TAMIL NADU,"Washermanpet,600021,Chennai,TAMIL NADU","600021, Washermanpet, Chennai, Tamil Nadu",13.109794407538756,80.28753459477976,21.050167203230732
101529,Rajbhavan (Chennai),600022,Chennai,TAMIL NADU,"Rajbhavan (Chennai),600022,Chennai,TAMIL NADU",600022,13.008360000000039,80.22372660900004,9.881104245374518
101530,Aynavaram,600023,Chennai,TAMIL NADU,"Aynavaram,600023,Chennai,TAMIL NADU","600023, Ayanavaram, Chennai, Tamil Nadu",13.098163614310947,80.23377843721929,19.462951938156504
101531,Kodambakkam,600024,Chennai,TAMIL NADU,"Kodambakkam,600024,Chennai,TAMIL NADU","600024, Kodambakkam, Chennai, Tamil Nadu",13.051728117646135,80.22304798672862,14.549796293668388
101532,Engineering College (Chennai),600025,Chennai,TAMIL NADU,"Engineering College (Chennai),600025,Chennai,TAMIL NADU",Engineering College Hostel,13.058730000000025,80.23581000000007,15.100062519582831
101533,Vadapalani,600026,Chennai,TAMIL NADU,"Vadapalani,600026,Chennai,TAMIL NADU","600026, Vadapalani, Chennai, Tamil Nadu",13.051844749937079,80.21101234614635,14.884977231213988
101534,Raja Annamalaipuram,600028,Chennai,TAMIL NADU,"Raja Annamalaipuram,600028,Chennai,TAMIL NADU","600028, Raja Annamalai Puram, Chennai, Tamil Nadu",13.022034452679245,80.26046046044074,11.00801951466941
101535,Ramakrishna Nagar (Chennai),600028,Chennai,TAMIL NADU,"Ramakrishna Nagar (Chennai),600028,Chennai,TAMIL NADU","Ramakrishna Nagar, Raja Annamalai Puram, Chennai, Tamil Nadu",13.023650000000032,80.26358000000005,11.223483429288976
101536,Aminjikarai,600030,Chennai,TAMIL NADU,"Aminjikarai,600030,Chennai,TAMIL NADU",600030,13.075515000000053,80.22670125000008,17.069331780260008
101537,Shenoy Nagar,600030,Chennai,TAMIL NADU,"Shenoy Nagar,600030,Chennai,TAMIL NADU","600030, Shenoy Nagar, Chennai, Tamil Nadu",13.076968432267824,80.2269315001562,17.224549982921737
101538,Chetput,600031,Chennai,TAMIL NADU,"Chetput,600031,Chennai,TAMIL NADU","600031, Chetpet, Chennai, Tamil Nadu",13.072114185269786,80.24186391858832,16.52272113740079
101539,World University Centre,600031,Chennai,TAMIL NADU,"World University Centre,600031,Chennai,TAMIL NADU",World University Service Centre,13.073040000000049,80.25236000000007,16.59937631147061
101540,Ekkaduthangal,600032,Chennai,TAMIL NADU,"Ekkaduthangal,600032,Chennai,TAMIL NADU","600032, Ekkaduthangal, Chennai, Tamil Nadu",13.022084220505976,80.20271231804337,12.127912577231717
101541,Guindy Industrial Estate,600032,Chennai,TAMIL NADU,"Guindy Industrial Estate,600032,Chennai,TAMIL NADU","Guindy Industrial Estate Road, Guindy, Chennai, Tamil Nadu, 600032",13.010174760686404,80.20938672597464,10.627631775670151
101542,Mambalam R.S.,600033,Chennai,TAMIL NADU,"Mambalam R.S.,600033,Chennai,TAMIL NADU",West Mambalam,13.031620000000032,80.22224000000006,12.402374715803676
101543,West Mambalam,600033,Chennai,TAMIL NADU,"West Mambalam,600033,Chennai,TAMIL NADU","600033, West Mambalam, Chennai, Tamil Nadu",13.036531724432358,80.22222540619934,12.929899069835539
101544,Loyola College,600034,Chennai,TAMIL NADU,"Loyola College,600034,Chennai,TAMIL NADU",Loyola College,13.063810000000046,80.23513000000008,15.666725049828003
101545,Nungambakkam High Road,600034,Chennai,TAMIL NADU,"Nungambakkam High Road,600034,Chennai,TAMIL NADU","Nungambakkam High Road, Nungambakkam, Chennai, Tamil Nadu, 600034",13.05699168215822,80.24861662472486,14.824270836872156
101546,Nungambakkam,600034,Chennai,TAMIL NADU,"Nungambakkam,600034,Chennai,TAMIL NADU","600034, Nungambakam, Nungambakkam, Chennai, Tamil Nadu",13.059180484271216,80.24935357505848,15.06549235481592
101547,Nandanam,600035,Chennai,TAMIL NADU,"Nandanam,600035,Chennai,TAMIL NADU","600035, Nandanam, Chennai, Tamil Nadu",13.028747856626739,80.23770318807149,11.780948022835702
101548,Indian Institute Of Technology,600036,Chennai,TAMIL NADU,"Indian Institute Of Technology,600036,Chennai,TAMIL NADU","600036, Indian Institute of Technology, Chennai, Tamil Nadu",12.992542424423046,80.23504288571115,7.874687110703791
101551,Icf Colony,600038,Chennai,TAMIL NADU,"Icf Colony,600038,Chennai,TAMIL NADU",Icf South Colony,13.094620000000077,80.21837000000005,19.304012479451647
101552,Vyasar Nagar Colony,600039,Chennai,TAMIL NADU,"Vyasar Nagar Colony,600039,Chennai,TAMIL NADU","Vyasar Nagar, Vyasarpadi, Chennai, Tamil Nadu",13.111960000000067,80.25559000000004,20.911124659515536
101553,Vyasarpadi,600039,Chennai,TAMIL NADU,"Vyasarpadi,600039,Chennai,TAMIL NADU","600039, Basin Bridge, Vyasarpadi, Chennai, Tamil Nadu",13.10858417281676,80.26844483345474,20.622034109857346
101554,Anna Nagar (Chennai),600040,Chennai,TAMIL NADU,"Anna Nagar (Chennai),600040,Chennai,TAMIL NADU","600040, Anna Nagar, Chennai, Tamil Nadu",13.08527469243356,80.20904157651677,18.50802951800074
101555,Neelankarai,600041,Kanchipuram,TAMIL NADU,"Neelankarai,600041,Kanchipuram,TAMIL NADU",Neelankarai,12.950640000000021,80.25505000000004,3.09570501475185
101556,Palavakkam (Kanchipuram),600041,Kanchipuram,TAMIL NADU,"Palavakkam (Kanchipuram),600041,Kanchipuram,TAMIL NADU","Kānchipuram, Tamil Nādu",12.835150000000056,79.70006000000006,60.53447344940606
101557,Tiruvanmiyur,600041,Chennai,TAMIL NADU,"Tiruvanmiyur,600041,Chennai,TAMIL NADU","600041, Tiruvanmiyur, Chennai, Tamil Nadu",12.972932371149902,80.26605286963591,5.773571969995337
101558,Valmiki Nagar,600041,Chennai,TAMIL NADU,"Valmiki Nagar,600041,Chennai,TAMIL NADU","Valmiki Nagar, Thiruvanmiyur, Chennai, Tamil Nadu",12.981390000000033,80.26377000000008,6.616166906484114
101559,Velacheri,600042,Chennai,TAMIL NADU,"Velacheri,600042,Chennai,TAMIL NADU","600042, Velachery, Chennai, Tamil Nadu",12.980708075438555,80.21940559095881,7.223044767101441
101560,Pallavaram,600043,Kanchipuram,TAMIL NADU,"Pallavaram,600043,Kanchipuram,TAMIL NADU","600043, Pallavaram, Chennai, Kancheepuram, Tamil Nadu",12.970688319590435,80.15002487316704,12.116787209362608
101561,Rajajinagar (Kanchipuram),600043,Kanchipuram,TAMIL NADU,"Rajajinagar (Kanchipuram),600043,Kanchipuram,TAMIL NADU","Rajaji Nagar, Zamin Pallavaram, Chennai, Kancheepuram, Tamil Nadu",12.965710000000058,80.15337000000005,11.555283218075118
101562,Tirusulam,600043,Kanchipuram,TAMIL NADU,"Tirusulam,600043,Kanchipuram,TAMIL NADU","600043, Tirusulam, Chennai, Kancheepuram, Tamil Nadu",12.971954061857996,80.16920758957968,10.355428021277577
101563,Bharathipuram (Kanchipuram),600044,Kanchipuram,TAMIL NADU,"Bharathipuram (Kanchipuram),600044,Kanchipuram,TAMIL NADU","Bharathipuram, Chromepet, Chennai, Kancheepuram, Tamil Nadu",12.948200000000043,80.14910000000003,11.356467119233907
101564,Chromepet,600044,Kanchipuram,TAMIL NADU,"Chromepet,600044,Kanchipuram,TAMIL NADU","600044, Chromepet, Chennai, Kancheepuram, Tamil Nadu",12.952451508765378,80.14408264897415,12.003928680828135
101565,Darkash,600044,Kanchipuram,TAMIL NADU,"Darkash,600044,Kanchipuram,TAMIL NADU",600044,12.957670000000064,80.10649480000006,16.095550150398573
101566,Lakshmipuram,600044,Kanchipuram,TAMIL NADU,"Lakshmipuram,600044,Kanchipuram,TAMIL NADU","Lakshmipuram, Chromepet, Chennai, Kancheepuram, Tamil Nadu",12.955430000000035,80.12997000000007,13.56755344985978
101567,Nagalkeni,600044,Kanchipuram,TAMIL NADU,"Nagalkeni,600044,Kanchipuram,TAMIL NADU","Nagalkeni, Chromepet, Chennai, Kancheepuram, Tamil Nadu",12.964170000000024,80.13571000000007,13.267728356325385
101568,Nehrunagar,600044,Kanchipuram,TAMIL NADU,"Nehrunagar,600044,Kanchipuram,TAMIL NADU","Nehru Nagar, Chromepet, Chennai, Kancheepuram, Tamil Nadu",12.94258000000002,80.14078000000006,12.107318090111125
101569,Nemilichery,600044,Kanchipuram,TAMIL NADU,"Nemilichery,600044,Kanchipuram,TAMIL NADU","Nemilichery, Chromepet, Chennai, Kancheepuram, Tamil Nadu",12.939410000000066,80.15801000000005,10.205116208152877
101570,Radhanagar (Kanchipuram),600044,Kanchipuram,TAMIL NADU,"Radhanagar (Kanchipuram),600044,Kanchipuram,TAMIL NADU","Radha Nagar, Chromepet, Chennai, Kancheepuram, Tamil Nadu",12.951280000000054,80.14697000000007,11.667296623519935
101571,Tirumudivakkam,600044,Kanchipuram,TAMIL NADU,"Tirumudivakkam,600044,Kanchipuram,TAMIL NADU","600044, Thirumudivakkam, Chennai, Kancheepuram, Tamil Nadu",12.969316696335419,80.0930195014742,17.845117147321055
101572,Tiruneermalai,600044,Kanchipuram,TAMIL NADU,"Tiruneermalai,600044,Kanchipuram,TAMIL NADU","600044, Thiruneermalai, Chennai, Kancheepuram, Tamil Nadu",12.956531931611757,80.11347744785975,15.329823992426377
101573,Irumbuliyur,600045,Kanchipuram,TAMIL NADU,"Irumbuliyur,600045,Kanchipuram,TAMIL NADU",600045,12.934560000000033,80.10990286200007,15.316372024845174
101574,MEPZ Tambaram,600045,Kanchipuram,TAMIL NADU,"MEPZ Tambaram,600045,Kanchipuram,TAMIL NADU","Tambaram Flyover, West Tambaram, Chennai, Kancheepuram, Tamil Nadu, 600045",12.924667293604594,80.11292473371984,14.936454953448722
101575,Tambaram,600045,Kanchipuram,TAMIL NADU,"Tambaram,600045,Kanchipuram,TAMIL NADU",Tambaram,12.924410000000023,80.11518000000007,14.691416597682016
101576,Tambaram West,600045,Kanchipuram,TAMIL NADU,"Tambaram West,600045,Kanchipuram,TAMIL NADU",Tambaram West,12.925820000000044,80.10647000000006,15.638839429738702
101577,Tambaram IAF,600046,Kanchipuram,TAMIL NADU,"Tambaram IAF,600046,Kanchipuram,TAMIL NADU","Tambaram, East Tambaram, Chennai, Kancheepuram, Tamil Nadu",12.924890000000062,80.12818000000004,13.281486444630936
101578,Kadaperi,600047,Kanchipuram,TAMIL NADU,"Kadaperi,600047,Kanchipuram,TAMIL NADU","Kadaperi, West Tambaram, Chennai, Kancheepuram, Tamil Nadu",12.933910000000026,80.12431000000004,13.752568326632414
101579,Tambaram Sanatorium,600047,Kanchipuram,TAMIL NADU,"Tambaram Sanatorium,600047,Kanchipuram,TAMIL NADU","600047, Tambaram Sanatorium, Chennai, Kancheepuram, Tamil Nadu",12.941747300267624,80.12926621693627,13.32382740643526
101580,Mannivakkam,600048,Kanchipuram,TAMIL NADU,"Mannivakkam,600048,Kanchipuram,TAMIL NADU","600048, Mannivakkam, Chennai, Kancheepuram, Tamil Nadu",12.889736559139333,80.06576712659763,20.389131117932614
101581,Mudichur,600048,Kanchipuram,TAMIL NADU,"Mudichur,600048,Kanchipuram,TAMIL NADU","600048, Mudichur, Chennai, Kancheepuram, Tamil Nadu",12.910820756240616,80.07207301638276,19.41585698346387
101582,Otteri Extension,600048,Kanchipuram,TAMIL NADU,"Otteri Extension,600048,Kanchipuram,TAMIL NADU","Otteri Extn, Vandalur, Chennai, Kancheepuram, Tamil Nadu",12.881030000000067,80.07593000000008,19.512232316028573
101583,Vandalur,600048,Kanchipuram,TAMIL NADU,"Vandalur,600048,Kanchipuram,TAMIL NADU",Vandalur,12.879580000000033,80.08006000000006,19.116926312935348
101618,Iyyappanthangal,600056,Kanchipuram,TAMIL NADU,"Iyyappanthangal,600056,Kanchipuram,TAMIL NADU","600056, Iyyapanthangal, Chennai, Kancheepuram, Tamil Nadu",13.036959143111181,80.13511461416246,17.770454709641996
101629,Ganapathipuram(CMT),600058,Kanchipuram,TAMIL NADU,"Ganapathipuram(CMT),600058,Kanchipuram,TAMIL NADU","Ganapathipuram, East Tambaram, Chennai, Kancheepuram, Tamil Nadu",12.919430000000034,80.11448000000007,14.77200682565831
101630,Christian College Tambaram,600059,Kanchipuram,TAMIL NADU,"Christian College Tambaram,600059,Kanchipuram,TAMIL NADU",Madras Christian College,12.92321000000004,80.12056000000007,14.106822492122571
101631,Kasthuribainagar,600059,Kanchipuram,TAMIL NADU,"Kasthuribainagar,600059,Kanchipuram,TAMIL NADU","Kasthuribai Nagar, Anakaputhur, Chennai, Kancheepuram, Tamil Nadu",12.988750000000039,80.12874000000005,15.086366598928219
101632,LIC Colony,600059,Kanchipuram,TAMIL NADU,"LIC Colony,600059,Kanchipuram,TAMIL NADU","Lic Colony, Anakaputhur, Chennai, Kancheepuram, Tamil Nadu",12.974740000000054,80.12955000000005,14.323024336929759
101633,Lic Colony Tambaram,600059,Kanchipuram,TAMIL NADU,"Lic Colony Tambaram,600059,Kanchipuram,TAMIL NADU",Lic,12.922660000000064,80.13320000000004,12.735208215001743
101634,State Bank Colony,600059,Kanchipuram,TAMIL NADU,"State Bank Colony,600059,Kanchipuram,TAMIL NADU","State Bank Colony, Pammal, Chennai, Kancheepuram, Tamil Nadu",12.97986000000003,80.14513000000005,13.054331728994352
101635,Sundaram Colony,600059,Kanchipuram,TAMIL NADU,"Sundaram Colony,600059,Kanchipuram,TAMIL NADU","Sundaram Colony, East Tambaram, Chennai, Kancheepuram, Tamil Nadu",12.931880000000035,80.13073000000009,13.039951199371913
101636,Tambaram East,600059,Kanchipuram,TAMIL NADU,"Tambaram East,600059,Kanchipuram,TAMIL NADU","600059, East Tambaram, Chennai, Kancheepuram, Tamil Nadu",12.917369931628281,80.12517612326683,13.620314363238599
101640,Nanganallur Bazaar,600061,Kanchipuram,TAMIL NADU,"Nanganallur Bazaar,600061,Kanchipuram,TAMIL NADU",Post Office-Nanganallur Bazaar,12.985590000000059,80.18843000000004,9.6630604534947
101641,Nanganallur,600061,Kanchipuram,TAMIL NADU,"Nanganallur,600061,Kanchipuram,TAMIL NADU","600061, Nanganallur, Chennai, Kancheepuram, Tamil Nadu",12.979919905749531,80.18678684418914,9.35514063922969
101642,Pazhavanthangal,600061,Kanchipuram,TAMIL NADU,"Pazhavanthangal,600061,Kanchipuram,TAMIL NADU","600061, Pazhavanthangal, Chennai, Kancheepuram, Tamil Nadu",12.986389959755037,80.1881962488591,9.744253289990791
101649,Old Perungalathur,600063,Kanchipuram,TAMIL NADU,"Old Perungalathur,600063,Kanchipuram,TAMIL NADU","600063, Old Perungalathur, Chennai, Kancheepuram, Tamil Nadu",12.927531569905263,80.08839198655386,17.604581012966225
101650,Srinivasanagar East,600063,Kanchipuram,TAMIL NADU,"Srinivasanagar East,600063,Kanchipuram,TAMIL NADU","Srinivasa Nagar, Chitlapakkam, Chennai, Kancheepuram, Tamil Nadu",12.939780000000042,80.14285000000007,11.833938437530204
101651,Srinivasanagar (Kanchipuram),600063,Kanchipuram,TAMIL NADU,"Srinivasanagar (Kanchipuram),600063,Kanchipuram,TAMIL NADU","Srinivasa Nagar, New Perungalathur, Chennai, Kancheepuram, Tamil Nadu",12.911540000000059,80.09258000000005,17.190410350005564
101652,Chitlapakkam,600064,Kanchipuram,TAMIL NADU,"Chitlapakkam,600064,Kanchipuram,TAMIL NADU","600064, Chitlapakkam, Chennai, Kancheepuram, Tamil Nadu",12.932997202583056,80.14412863631239,11.601720150415915
101653,Hasthinapuram,600064,Kanchipuram,TAMIL NADU,"Hasthinapuram,600064,Kanchipuram,TAMIL NADU","600064, Hasthinapuram, Chennai, Kancheepuram, Tamil Nadu",12.93945387993259,80.15027108252647,11.033327173766024
101665,Kunnathur (Kanchipuram),600069,Kanchipuram,TAMIL NADU,"Kunnathur (Kanchipuram),600069,Kanchipuram,TAMIL NADU","Kānchipuram, Tamil Nādu",12.835150000000056,79.70006000000006,60.53447344940606
101666,Nandambakkam,600069,Kanchipuram,TAMIL NADU,"Nandambakkam,600069,Kanchipuram,TAMIL NADU","600069, Nandambakkam, Chennai, Kancheepuram, Tamil Nadu",12.978089073220707,80.05803709712964,21.760053757924346
101667,Sirukalathur,600069,Kanchipuram,TAMIL NADU,"Sirukalathur,600069,Kanchipuram,TAMIL NADU","600069, Sirukalathur, Chennai, Kancheepuram, Tamil Nadu",12.990867608771088,80.0682357867763,21.158903663712085
101668,Somangalam,600069,Kanchipuram,TAMIL NADU,"Somangalam,600069,Kanchipuram,TAMIL NADU","600069, Somangalam, Sriperumbudur, Kancheepuram, Tamil Nadu",12.952143580814106,80.04090605805966,22.97661117619368
101669,South Malayambakkam,600069,Kanchipuram,TAMIL NADU,"South Malayambakkam,600069,Kanchipuram,TAMIL NADU","South Malayambakkam, Kundrathur, Chennai, Kancheepuram, Tamil Nadu",13.01195000000007,80.08810000000005,20.186717652590033
101670,Anakaputhur,600070,Kanchipuram,TAMIL NADU,"Anakaputhur,600070,Kanchipuram,TAMIL NADU","600070, Anakaputhur, Chennai, Kancheepuram, Tamil Nadu",12.980121215687666,80.12609558163626,14.909637167055719
101679,Gowriwakkam,600073,Kanchipuram,TAMIL NADU,"Gowriwakkam,600073,Kanchipuram,TAMIL NADU","600073, Gowriwakkam, Chennai, Kancheepuram, Tamil Nadu",12.920344065144363,80.16659654174401,9.115822234834836
101680,Rajakilpakkam,600073,Kanchipuram,TAMIL NADU,"Rajakilpakkam,600073,Kanchipuram,TAMIL NADU",Rajakilpakkam,12.922630000000026,80.15177000000006,10.720049658792638
101681,Selaiyur,600073,Kanchipuram,TAMIL NADU,"Selaiyur,600073,Kanchipuram,TAMIL NADU",Selaiyur,12.922400000000039,80.13845000000003,12.16562157955613
101682,Polichalur,600074,Kanchipuram,TAMIL NADU,"Polichalur,600074,Kanchipuram,TAMIL NADU",600074,12.989085000000046,80.14662014000004,13.439397146803099
101683,Pammal East,600075,Kanchipuram,TAMIL NADU,"Pammal East,600075,Kanchipuram,TAMIL NADU",Pammal,12.974200000000053,80.13552000000004,13.706860768946955
101684,Pammal,600075,Kanchipuram,TAMIL NADU,"Pammal,600075,Kanchipuram,TAMIL NADU",Pammal,12.974200000000053,80.13552000000004,13.706860768946955
101690,Kalaignar Karunanidhi Nagar,600078,Chennai,TAMIL NADU,"Kalaignar Karunanidhi Nagar,600078,Chennai,TAMIL NADU",Bank of India-Kalaignar Karunanidhi Nagar,13.03770000000003,80.20160000000004,13.755304368972023
101691,Tondiarpet Bazaar,600081,Chennai,TAMIL NADU,"Tondiarpet Bazaar,600081,Chennai,TAMIL NADU",Post Office-Tondiarpet Bazar,13.135030000000029,80.29315000000008,23.906985132724117
101692,Tondiarpet,600081,Chennai,TAMIL NADU,"Tondiarpet,600081,Chennai,TAMIL NADU","600081, Tondiarpet, Chennai, Tamil Nadu",13.131826312697262,80.28483350572701,23.39915030678132
101693,Tondiarpet West,600081,Chennai,TAMIL NADU,"Tondiarpet West,600081,Chennai,TAMIL NADU","Tondiarpet Bridge, Tondiarpet, Chennai, Tamil Nadu, 600081",13.128577132724788,80.27915011173076,22.952921001027885
101694,Agaram,600082,Chennai,TAMIL NADU,"Agaram,600082,Chennai,TAMIL NADU","Agaram, Peravallur, Chennai, Tamil Nadu",13.109530000000063,80.23236000000009,20.729335730054835
101695,G K M Colony,600082,Chennai,TAMIL NADU,"G K M Colony,600082,Chennai,TAMIL NADU","G.K.M. Colony, Peravallur, Chennai, Tamil Nadu",13.110420000000033,80.22647000000006,20.897583869400936
101696,Jawahar Nagar (Chennai),600082,Chennai,TAMIL NADU,"Jawahar Nagar (Chennai),600082,Chennai,TAMIL NADU","Jawahar Nagar, Peravallur, Chennai, Tamil Nadu",13.110990000000072,80.22907000000004,20.92686494574511
101697,Kumaran Nagar,600082,Chennai,TAMIL NADU,"Kumaran Nagar,600082,Chennai,TAMIL NADU","Kumaran Nagar, Villivakkam, Chennai, Tamil Nadu",13.109940000000051,80.21521000000007,21.032934196422758
101698,Ashoknagar (Chennai),600083,Chennai,TAMIL NADU,"Ashoknagar (Chennai),600083,Chennai,TAMIL NADU","600083, Ashok Nagar, Chennai, Tamil Nadu",13.037613837666752,80.21381136730446,13.290917781350474
101699,Jafferkhanpet,600083,Chennai,TAMIL NADU,"Jafferkhanpet,600083,Chennai,TAMIL NADU","600083, Jafferkhanpet, Chennai, Tamil Nadu",13.0289468853662,80.20784184155904,12.603082106508927
101700,Flowers Road,600084,Chennai,TAMIL NADU,"Flowers Road,600084,Chennai,TAMIL NADU","Flowers Road, Purasawalkam, Chennai, Tamil Nadu, 600084",13.080255740728127,80.25004119405553,17.396596202040097
101701,Kotturpuram,600085,Chennai,TAMIL NADU,"Kotturpuram,600085,Chennai,TAMIL NADU","600085, Kotturpuram, Chennai, Tamil Nadu",13.016261580042109,80.24307167278893,10.348675248746313
101702,Gopalapuram (Chennai),600086,Chennai,TAMIL NADU,"Gopalapuram (Chennai),600086,Chennai,TAMIL NADU","600086, Nungambakam, Gopalapuram, Chennai, Tamil Nadu",13.053304815952346,80.25233003291206,14.41618392113041
101705,Adambakkam,600088,Kanchipuram,TAMIL NADU,"Adambakkam,600088,Kanchipuram,TAMIL NADU","600088, Adambakkam, Chennai, Kancheepuram, Tamil Nadu",12.987504807793028,80.20415094089321,8.73301101128052
101706,Nilamangai Nagar,600088,Kanchipuram,TAMIL NADU,"Nilamangai Nagar,600088,Kanchipuram,TAMIL NADU","Nilamangai Nagar, Adambakkam, Chennai, Kancheepuram, Tamil Nadu",12.98317000000003,80.20149000000004,8.523089199412073
101707,Nandambakkam Kudiyiruppu,600089,Kanchipuram,TAMIL NADU,"Nandambakkam Kudiyiruppu,600089,Kanchipuram,TAMIL NADU","Nandambakkam, Chennai, Kancheepuram, Tamil Nadu",12.978590000000054,80.05834000000004,21.744090841336128
101708,Ramapuram (Kanchipuram),600089,Kanchipuram,TAMIL NADU,"Ramapuram (Kanchipuram),600089,Kanchipuram,TAMIL NADU","Kānchipuram, Tamil Nādu",12.835150000000056,79.70006000000006,60.53447344940606
101709,Besantnagar,600090,Chennai,TAMIL NADU,"Besantnagar,600090,Chennai,TAMIL NADU","600090, Besant Nagar, Chennai, Tamil Nadu",12.996886337920763,80.26807385430266,8.391406509983007
101710,Rajaji Bhavan,600090,Chennai,TAMIL NADU,"Rajaji Bhavan,600090,Chennai,TAMIL NADU",Rajaji Bhavan Complex,13.001640000000066,80.26862000000006,8.917266847672874
101711,Madipakkam,600091,Kanchipuram,TAMIL NADU,"Madipakkam,600091,Kanchipuram,TAMIL NADU",Madipakkam,12.963310000000035,80.19770000000005,7.264533281815529
101712,Madipakkam South,600091,Kanchipuram,TAMIL NADU,"Madipakkam South,600091,Kanchipuram,TAMIL NADU",Madipakkam,12.963310000000035,80.19770000000005,7.264533281815529
101713,Koyambedu Wholesale Market Com,600092,Chennai,TAMIL NADU,"Koyambedu Wholesale Market Com,600092,Chennai,TAMIL NADU",Koyambedu Wholesale Market Complex,13.069270000000074,80.19556000000006,17.246014447517044
101714,Virugambakkam,600092,Chennai,TAMIL NADU,"Virugambakkam,600092,Chennai,TAMIL NADU","600092, Virugambakkam, Chennai, Tamil Nadu",13.055020635141666,80.19396524650699,15.842664382445825
101715,Saligramam,600093,Chennai,TAMIL NADU,"Saligramam,600093,Chennai,TAMIL NADU","600093, Saligramam, Chennai, Tamil Nadu",13.05260598240451,80.20230483981587,15.26328996506285
101716,Choolaimedu,600094,Chennai,TAMIL NADU,"Choolaimedu,600094,Chennai,TAMIL NADU","600094, Choolaimedu, Chennai, Tamil Nadu",13.062570458246679,80.22377173200938,15.710995110186646
101720,Perungudi,600096,Kanchipuram,TAMIL NADU,"Perungudi,600096,Kanchipuram,TAMIL NADU","600096, Perungudi, Chennai, Tamil Nadu",12.964952727297243,80.24020500337514,4.774423145213472
101721,Karapakkam,600097,Kanchipuram,TAMIL NADU,"Karapakkam,600097,Kanchipuram,TAMIL NADU",Karapakkam,12.913500000000056,80.22910000000007,2.5548334613791104
101722,Oggiamthoraipakkam,600097,Kanchipuram,TAMIL NADU,"Oggiamthoraipakkam,600097,Kanchipuram,TAMIL NADU",Post Office-Oggiam Thuraipakkam,12.951970000000074,80.23921000000007,3.432530502273055
101726,Medavakkam ,600100,Kanchipuram,TAMIL NADU,"Medavakkam ,600100,Kanchipuram,TAMIL NADU",Medavakkam,12.917160000000024,80.19100000000003,6.49516088356451
101727,Pallikaranai,600100,Kanchipuram,TAMIL NADU,"Pallikaranai,600100,Kanchipuram,TAMIL NADU",Pallikaranai,12.93291000000005,80.20405000000005,5.1640857754525875
101728,Anna Nagar Western Extn,600101,Chennai,TAMIL NADU,"Anna Nagar Western Extn,600101,Chennai,TAMIL NADU",600101,13.089435000000037,80.18790282800006,19.626428287703956
101729,Anna Nagar East,600102,Chennai,TAMIL NADU,"Anna Nagar East,600102,Chennai,TAMIL NADU","600102, Anna Nagar East, Chennai, Tamil Nadu",13.088832737337597,80.22314442019022,18.58481633025631
101734,High Court Building (Chennai),600104,Chennai,TAMIL NADU,"High Court Building (Chennai),600104,Chennai,TAMIL NADU","South High Court Colony, Villivakkam, Chennai, Tamil Nadu",13.103410000000054,80.20366000000007,20.596218988604683
101735,Arumbakkam,600106,Chennai,TAMIL NADU,"Arumbakkam,600106,Chennai,TAMIL NADU","600106, Arumbakkam, Chennai, Tamil Nadu",13.070497452816614,80.21135260535783,16.862079127129636
101736,D G Vaishnav College,600106,Chennai,TAMIL NADU,"D G Vaishnav College,600106,Chennai,TAMIL NADU",Vaishnav College,13.075720000000047,80.21324000000004,17.372926433585373
101737,Koyambedu,600107,Chennai,TAMIL NADU,"Koyambedu,600107,Chennai,TAMIL NADU","600107, Koyambedu, Chennai, Tamil Nadu",13.069701091859875,80.19804313692416,17.199674283635545
101740,Tidel Park,600113,Chennai,TAMIL NADU,"Tidel Park,600113,Chennai,TAMIL NADU",Tidel Park,12.989940000000047,80.25065000000006,7.404812776178996
101741,TTTI Taramani,600113,Chennai,TAMIL NADU,"TTTI Taramani,600113,Chennai,TAMIL NADU","600113, Taramani, Chennai, Tamil Nadu",12.988252055032435,80.24428342637286,7.250073609523574
101742,Injambakkam,600115,Kanchipuram,TAMIL NADU,"Injambakkam,600115,Kanchipuram,TAMIL NADU","600115, Injambakkam, Chennai, Kancheepuram, Tamil Nadu",12.923006764034415,80.25055502560586,2.625230445757263e-05
101743,Alapakkam,600116,Kanchipuram,TAMIL NADU,"Alapakkam,600116,Kanchipuram,TAMIL NADU","Alapakkam, Uthiramerur, Kancheepuram, Tamil Nadu",12.526190000000042,79.75250000000005,69.66264493919505
101744,Porur,600116,Kanchipuram,TAMIL NADU,"Porur,600116,Kanchipuram,TAMIL NADU","600116, Porur, Chennai, Tamil Nadu",13.034686463892973,80.15572925392726,16.077705187846554
101745,Sriramachandra Deemed Uty,600116,Kanchipuram,TAMIL NADU,"Sriramachandra Deemed Uty,600116,Kanchipuram,TAMIL NADU","600116, Moulivakkam, Sasennai, Kaanjchipuram, Thamiznaatu",13.019930548469823,80.14417524616997,15.75408390164992
101746,Bharathinagar,600117,Kanchipuram,TAMIL NADU,"Bharathinagar,600117,Kanchipuram,TAMIL NADU","Bharath Nagar, Old Pallavaram, Chennai, Kancheepuram, Tamil Nadu",12.955120000000022,80.17589000000004,8.846669913918575
101747,Keelakattalai,600117,Kanchipuram,TAMIL NADU,"Keelakattalai,600117,Kanchipuram,TAMIL NADU","600117, Keelkattalai, Chennai, Kancheepuram, Tamil Nadu",12.955591486536523,80.18487384481287,7.9869104900652665
101748,Old Pallavaram,600117,Kanchipuram,TAMIL NADU,"Old Pallavaram,600117,Kanchipuram,TAMIL NADU","600117, Old Pallavaram, Chennai, Kancheepuram, Tamil Nadu",12.957950893888981,80.16923876740593,9.633372783532685
101749,Erukkancheri,600118,Chennai,TAMIL NADU,"Erukkancheri,600118,Chennai,TAMIL NADU","600118, Erukkancherry, Chennai, Tamil Nadu",13.127503210029092,80.25278905982293,22.624857171000393
101750,Kodungaiyur,600118,Chennai,TAMIL NADU,"Kodungaiyur,600118,Chennai,TAMIL NADU","600118, Kodungaiyur, Chennai, Tamil Nadu",13.135578712739887,80.2535005478402,23.51913553347719
101751,Rv Nagar,600118,Chennai,TAMIL NADU,"Rv Nagar,600118,Chennai,TAMIL NADU","600118, RV Nagar, Chennai, Thiruvallur, Tamil Nadu",13.14081971305418,80.27669499264427,24.263032047687815
101752,Sathyabama University,600119,Kanchipuram,TAMIL NADU,"Sathyabama University,600119,Kanchipuram,TAMIL NADU",Sathyabama University,12.873390000000029,80.22214000000008,6.296064972845352
101753,Sholinganallur,600119,Kanchipuram,TAMIL NADU,"Sholinganallur,600119,Kanchipuram,TAMIL NADU",Sholinganallur,12.898870000000045,80.22793000000007,3.627538385014718
101758,Gerugambakkam,600122,Kanchipuram,TAMIL NADU,"Gerugambakkam,600122,Kanchipuram,TAMIL NADU","600122, Gerugampakkam, Chennai, Kancheepuram, Tamil Nadu",13.004969097932364,80.14057135256321,14.98739666158562
101759,Mangadu,600122,Kanchipuram,TAMIL NADU,"Mangadu,600122,Kanchipuram,TAMIL NADU","600122, Mangadu, Chennai, Kancheepuram, Tamil Nadu",13.030158480401097,80.1091194343861,19.39051847960381
101760,Paraniputhur,600122,Kanchipuram,TAMIL NADU,"Paraniputhur,600122,Kanchipuram,TAMIL NADU","600122, Paraniputhur, Chennai, Kancheepuram, Tamil Nadu",13.022728728392439,80.12993939489162,17.11617568498428
101770,Manapakkam,600125,Kanchipuram,TAMIL NADU,"Manapakkam,600125,Kanchipuram,TAMIL NADU","600125, Manapakkam, Chennai, Tamil Nadu",13.010047537339586,80.17186332025784,12.869378999554684
101771,Mugalivakkam,600125,Kanchipuram,TAMIL NADU,"Mugalivakkam,600125,Kanchipuram,TAMIL NADU","600125, Mugalivakkam, Chennai, Tamil Nadu",13.020660101950439,80.16046304757208,14.569076377775067
101772,Madambakkam,600126,Kanchipuram,TAMIL NADU,"Madambakkam,600126,Kanchipuram,TAMIL NADU","600126, Madambakkam, Chennai, Kancheepuram, Tamil Nadu",12.903165736651951,80.15572537301301,10.522626766835689
101773,Mappedu,600126,Kanchipuram,TAMIL NADU,"Mappedu,600126,Kanchipuram,TAMIL NADU","600126, Mappedu, Chennai, Kancheepuram, Tamil Nadu",12.884901614573453,80.13500199143311,13.230131406558927
101774,Sithalapakkam,600126,Kanchipuram,TAMIL NADU,"Sithalapakkam,600126,Kanchipuram,TAMIL NADU","600126, Sithalapakkam, Chennai, Kancheepuram, Tamil Nadu",12.888356032242495,80.1844228848349,8.136636415731097
101775,Kolapakkam,600127,Kanchipuram,TAMIL NADU,"Kolapakkam,600127,Kanchipuram,TAMIL NADU","600127, Kolapakkam, Chennai, Kancheepuram, Tamil Nadu",12.867510761003567,80.11161680608825,16.28094454508514
101776,Kolathur,600127,Kanchipuram,TAMIL NADU,"Kolathur,600127,Kanchipuram,TAMIL NADU","Kolathur Road, Mambakkam, Chennai, Kancheepuram, Tamil Nadu, 600127",12.826638306280945,80.16457071177558,14.168964911130578
101777,Mambakkam,600127,Kanchipuram,TAMIL NADU,"Mambakkam,600127,Kanchipuram,TAMIL NADU","600127, Mambakkam, Chennai, Kancheepuram, Tamil Nadu",12.835983121515481,80.1643734605698,13.423183735206122
101778,Melakkottaiyur,600127,Kanchipuram,TAMIL NADU,"Melakkottaiyur,600127,Kanchipuram,TAMIL NADU","600127, Melakottaiyur, Chennai, Kancheepuram, Tamil Nadu",12.846068468053737,80.14570268831343,14.211105017470652
101779,Nallambakkam,600127,Kanchipuram,TAMIL NADU,"Nallambakkam,600127,Kanchipuram,TAMIL NADU","600127, Nallambakkam, Chennai, Kancheepuram, Tamil Nadu",12.843115473122914,80.1265862375675,16.098239279631684
101780,Ponmar,600127,Kanchipuram,TAMIL NADU,"Ponmar,600127,Kanchipuram,TAMIL NADU","600127, Ponmar, Chennai, Kancheepuram, Tamil Nadu",12.856670361638782,80.17617934757283,10.909526673221706
101782,Thandalam,600128,Kanchipuram,TAMIL NADU,"Thandalam,600128,Kanchipuram,TAMIL NADU","600128, Thandalam, Chennai, Kancheepuram, Tamil Nadu",13.00409623408511,80.12484320518215,16.32548517395497
101783,Kovilambakkam,600129,Kanchipuram,TAMIL NADU,"Kovilambakkam,600129,Kanchipuram,TAMIL NADU",Kovilambakkam,12.944620000000043,80.19359000000009,6.6277926801865235
101784,Navalur,600130,Kanchipuram,TAMIL NADU,"Navalur,600130,Kanchipuram,TAMIL NADU","Navalur, Sriperumbudur, Kancheepuram, Tamil Nadu",12.856490000000065,79.97247000000004,31.065390138323906
101785,Thazambur,600130,Kanchipuram,TAMIL NADU,"Thazambur,600130,Kanchipuram,TAMIL NADU","Thazhambur, Chennai, Kancheepuram, Tamil Nadu",12.862550000000056,80.20725000000004,8.174547871720184
101790,Athivakkam,601102,Kanchipuram,TAMIL NADU,"Athivakkam,601102,Kanchipuram,TAMIL NADU","Athivakkam, Sriperumbudur, Kancheepuram, Tamil Nadu",12.908970000000068,79.83692000000008,44.914986268805805
101860,Malaipattu,601301,Kanchipuram,TAMIL NADU,"Malaipattu,601301,Kanchipuram,TAMIL NADU","601301, Malaippattu, Sriperumbudur, Kancheepuram, Tamil Nadu",12.92502434408479,80.01030937282182,26.071848729599346
101861,Manimangalam,601301,Kanchipuram,TAMIL NADU,"Manimangalam,601301,Kanchipuram,TAMIL NADU","601301, Manimangalam, Chennai, Kancheepuram, Tamil Nadu",12.913598974624197,80.05382393455965,21.374635888525297
101862,Padappai,601301,Kanchipuram,TAMIL NADU,"Padappai,601301,Kanchipuram,TAMIL NADU","601301, Padappai, Sriperumbudur, Kancheepuram, Tamil Nadu",12.888998380169557,80.0207831904529,25.218321057661534
101863,Serpananchery,601301,Kanchipuram,TAMIL NADU,"Serpananchery,601301,Kanchipuram,TAMIL NADU",601301,12.90176761400005,80.00253000000004,27.018703791697696
101923,Gunduperumbedu,602105,Kanchipuram,TAMIL NADU,"Gunduperumbedu,602105,Kanchipuram,TAMIL NADU","Gunduperumbedu, Sriperumbudur, Kancheepuram, Tamil Nadu",12.924160000000029,79.97807000000006,29.569760488406764
101924,Mathur,602105,Kanchipuram,TAMIL NADU,"Mathur,602105,Kanchipuram,TAMIL NADU",602105,12.947661724000056,79.95530500000007,32.15428845063572
101925,Pattunoolchatram,602105,Kanchipuram,TAMIL NADU,"Pattunoolchatram,602105,Kanchipuram,TAMIL NADU",Post Office-Pattunool Chatram,12.955710000000067,79.94386000000003,33.4758691410665
101926,Pennalur,602105,Kanchipuram,TAMIL NADU,"Pennalur,602105,Kanchipuram,TAMIL NADU","Pennalur, Sriperumbudur, Kancheepuram, Tamil Nadu",12.989100000000064,79.98153000000008,30.09208110826978
101927,Pillaipakkam,602105,Kanchipuram,TAMIL NADU,"Pillaipakkam,602105,Kanchipuram,TAMIL NADU","Pillaipakkam, Sriperumbudur, Kancheepuram, Tamil Nadu",12.953540000000032,79.95739000000003,31.990605942430474
101928,Pondur,602105,Kanchipuram,TAMIL NADU,"Pondur,602105,Kanchipuram,TAMIL NADU",602105,12.947661724000056,79.95530500000007,32.15428845063572
101929,Sriperumbudur,602105,Kanchipuram,TAMIL NADU,"Sriperumbudur,602105,Kanchipuram,TAMIL NADU",602105,12.947661724000056,79.95530500000007,32.15428845063572
101930,Thandalam,602105,Kanchipuram,TAMIL NADU,"Thandalam,602105,Kanchipuram,TAMIL NADU","Thandalam, Mevalurkuppam, Sriperumbudur, Kancheepuram, Tamil Nadu",13.017700000000048,80.00680000000006,28.44608259055156
101933,Valarpuram,602105,Kanchipuram,TAMIL NADU,"Valarpuram,602105,Kanchipuram,TAMIL NADU","Valarpuram, Sriperumbudur, Kancheepuram, Tamil Nadu",13.041600000000074,79.97649000000007,32.49989341540085
101934,Vayalur,602105,Kanchipuram,TAMIL NADU,"Vayalur,602105,Kanchipuram,TAMIL NADU","Vayalur, Uthiramerur, Kancheepuram, Tamil Nadu",12.61728000000005,79.70936000000006,67.80300702427895
101935,Mambakkam,602106,Kanchipuram,TAMIL NADU,"Mambakkam,602106,Kanchipuram,TAMIL NADU","Mambakkam, Chennai, Kancheepuram, Tamil Nadu",12.834510000000023,80.16728000000006,13.324590270649956
101936,Sendamangalam,602106,Kanchipuram,TAMIL NADU,"Sendamangalam,602106,Kanchipuram,TAMIL NADU","Sendamangalam, Sriperumbudur, Kancheepuram, Tamil Nadu",12.915900000000022,79.85941000000008,42.45418956904469
101937,Sunguvarchatram,602106,Kanchipuram,TAMIL NADU,"Sunguvarchatram,602106,Kanchipuram,TAMIL NADU","Sunguvarchatram, Molachur, Sriperumbudur, Kancheepuram, Tamil Nadu",12.92599000000007,79.87931000000003,40.287911161666834
101938,Kandoor,602108,Kanchipuram,TAMIL NADU,"Kandoor,602108,Kanchipuram,TAMIL NADU",602108,12.93317989600007,79.84300500000006,44.23996901527104
101939,Kannur,602108,Kanchipuram,TAMIL NADU,"Kannur,602108,Kanchipuram,TAMIL NADU",602108,12.93317989600007,79.84300500000006,44.23996901527104
101940,Maduramangalam,602108,Kanchipuram,TAMIL NADU,"Maduramangalam,602108,Kanchipuram,TAMIL NADU","Maduramangalam, Sriperumbudur, Kancheepuram, Tamil Nadu",12.949790000000064,79.83226000000008,45.486760552316724
101941,Pannur (Kanchipuram),602108,Kanchipuram,TAMIL NADU,"Pannur (Kanchipuram),602108,Kanchipuram,TAMIL NADU","Kānchipuram, Tamil Nādu",12.835150000000056,79.70006000000006,60.53447344940606
101942,Tirupandiyur,602108,Kanchipuram,TAMIL NADU,"Tirupandiyur,602108,Kanchipuram,TAMIL NADU",602108,12.93317989600007,79.84300500000006,44.23996901527104
101943,Irungattukottai,602117,Kanchipuram,TAMIL NADU,"Irungattukottai,602117,Kanchipuram,TAMIL NADU",602117,12.990405000000067,80.02634635500004,25.44443653066855
101944,Alagesa Nagar,603001,Kanchipuram,TAMIL NADU,"Alagesa Nagar,603001,Kanchipuram,TAMIL NADU","Al Nagar, Keerapakkam, Chennai, Kancheepuram, Tamil Nadu",12.827530000000024,80.11987000000005,17.685143422696058
101945,Chengalpattu Cutcherry,603001,Kanchipuram,TAMIL NADU,"Chengalpattu Cutcherry,603001,Kanchipuram,TAMIL NADU","Chengalpattu, Tamil Nadu",12.682240000000036,79.98008000000004,39.645820737956946
101946,Chengalpattu,603001,Kanchipuram,TAMIL NADU,"Chengalpattu,603001,Kanchipuram,TAMIL NADU","Chengalpattu Road, Sriperumbudur, Kancheepuram, Tamil Nadu, 602105",12.954319955838917,79.9409950112579,33.768918512685325
101947,Chengalpattu Med.College,603001,Kanchipuram,TAMIL NADU,"Chengalpattu Med.College,603001,Kanchipuram,TAMIL NADU","Chengalpattu, Tamil Nadu",12.682240000000036,79.98008000000004,39.645820737956946
101948,Chengalpattu Bazaar,603002,Kanchipuram,TAMIL NADU,"Chengalpattu Bazaar,603002,Kanchipuram,TAMIL NADU","Chengalpattu Road, Sriperumbudur, Kancheepuram, Tamil Nadu, 602105",12.954319955838917,79.9409950112579,33.768918512685325
101949,Gundur-chengalpattu,603002,Kanchipuram,TAMIL NADU,"Gundur-chengalpattu,603002,Kanchipuram,TAMIL NADU","Chengalpattu Road, Sriperumbudur, Kancheepuram, Tamil Nadu, 602105",12.954319955838917,79.9409950112579,33.768918512685325
101950,Kunnavakkam,603002,Kanchipuram,TAMIL NADU,"Kunnavakkam,603002,Kanchipuram,TAMIL NADU","Kunnavakkam, Kancheepuram Sub-District, Kancheepuram, Tamil Nadu",12.853220000000022,79.89474000000007,39.381901740932676
101951,Mahindra World City (Kanchipuram),603002,Kanchipuram,TAMIL NADU,"Mahindra World City (Kanchipuram),603002,Kanchipuram,TAMIL NADU","Kānchipuram, Tamil Nādu",12.835150000000056,79.70006000000006,60.53447344940606
101952,Natham-chengalpattu,603002,Kanchipuram,TAMIL NADU,"Natham-chengalpattu,603002,Kanchipuram,TAMIL NADU","Natham, Thalambur, Chennai, Kancheepuram, Tamil Nadu",12.839290000000062,80.21607000000006,9.989279796454708
101953,Paranur,603002,Kanchipuram,TAMIL NADU,"Paranur,603002,Kanchipuram,TAMIL NADU","Parandur, Valathur, Kancheepuram Sub-District, Kancheepuram, Tamil Nadu",12.942960000000028,79.74486000000007,54.91925167702716
101954,Pulipakkam,603002,Kanchipuram,TAMIL NADU,"Pulipakkam,603002,Kanchipuram,TAMIL NADU","Pulipakkam, Uthiramerur, Kancheepuram, Tamil Nadu",12.650070000000028,79.87875000000008,50.412297395256395
101955,Ammanambakkam,603003,Kanchipuram,TAMIL NADU,"Ammanambakkam,603003,Kanchipuram,TAMIL NADU","Ammanumbakkam, Nandivaram - Guduvancheri, Chennai, Kancheepuram, Tamil Nadu",12.867480000000057,80.03386000000006,24.30695983876123
101956,Meleripakkam,603003,Kanchipuram,TAMIL NADU,"Meleripakkam,603003,Kanchipuram,TAMIL NADU","Erivakkam, Sriperumbudur, Kancheepuram, Tamil Nadu",12.838080000000048,80.01241000000005,27.502038706583566
101957,Nenmeli,603003,Kanchipuram,TAMIL NADU,"Nenmeli,603003,Kanchipuram,TAMIL NADU","Kānchipuram, Tamil Nādu",12.835150000000056,79.70006000000006,60.53447344940606
101958,Tiruvadisoolam,603003,Kanchipuram,TAMIL NADU,"Tiruvadisoolam,603003,Kanchipuram,TAMIL NADU","Thiruvadisoolam, Chengalpattu, Tamil Nadu",12.693750000000023,80.03201000000007,34.7306266811976
101959,Vallam,603003,Kanchipuram,TAMIL NADU,"Vallam,603003,Kanchipuram,TAMIL NADU","Kānchipuram, Tamil Nādu",12.835150000000056,79.70006000000006,60.53447344940606
101960,Athur-chengalpattu,603101,Kanchipuram,TAMIL NADU,"Athur-chengalpattu,603101,Kanchipuram,TAMIL NADU","Athur, Chettipunniyam, Chengalpattu, Tamil Nadu",12.753130000000056,79.97052000000008,35.73925565361071
101961,Palur,603101,Kanchipuram,TAMIL NADU,"Palur,603101,Kanchipuram,TAMIL NADU","603101, Uththiramaeroor, Kaanjchipuram, Thamiznaatu",12.726516505933237,79.94934028699004,39.26586723623083
101962,Reddipalayam,603101,Kanchipuram,TAMIL NADU,"Reddipalayam,603101,Kanchipuram,TAMIL NADU","603101, Uththiramaeroor, Kaanjchipuram, Thamiznaatu",12.726516505933237,79.94934028699004,39.26586723623083
101963,Thimmavaram,603101,Kanchipuram,TAMIL NADU,"Thimmavaram,603101,Kanchipuram,TAMIL NADU","Thimmavaram, Uthiramerur, Kancheepuram, Tamil Nadu",12.718400000000031,79.95610000000005,39.16924553896065
101964,Villiambakkam,603101,Kanchipuram,TAMIL NADU,"Villiambakkam,603101,Kanchipuram,TAMIL NADU","603101, Uththiramaeroor, Kaanjchipuram, Thamiznaatu",12.726516505933237,79.94934028699004,39.26586723623083
101965,Ayapakkam,603102,Kanchipuram,TAMIL NADU,"Ayapakkam,603102,Kanchipuram,TAMIL NADU","Alapakkam, Uthiramerur, Kancheepuram, Tamil Nadu",12.526190000000042,79.75250000000005,69.66264493919505
101966,Kalpakkam,603102,Kanchipuram,TAMIL NADU,"Kalpakkam,603102,Kanchipuram,TAMIL NADU","Kolapakkam, Chennai, Kancheepuram, Tamil Nadu",13.011220000000037,80.15393000000006,14.322947908413257
101967,Manamai,603102,Kanchipuram,TAMIL NADU,"Manamai,603102,Kanchipuram,TAMIL NADU","Kānchipuram, Tamil Nādu",12.835150000000056,79.70006000000006,60.53447344940606
101968,Melprumal Chery,603102,Kanchipuram,TAMIL NADU,"Melprumal Chery,603102,Kanchipuram,TAMIL NADU","Kānchipuram, Tamil Nādu",12.835150000000056,79.70006000000006,60.53447344940606
101969,Pattaraikalani,603102,Kanchipuram,TAMIL NADU,"Pattaraikalani,603102,Kanchipuram,TAMIL NADU","Kānchipuram, Tamil Nādu",12.835150000000056,79.70006000000006,60.53447344940606
101970,Pudupattinam,603102,Kanchipuram,TAMIL NADU,"Pudupattinam,603102,Kanchipuram,TAMIL NADU","Pudupattinam, Thanjavur, Tamil Nadu",10.766150000000039,79.16575000000006,266.2663675627188
101971,Pudupattinam Colony,603102,Kanchipuram,TAMIL NADU,"Pudupattinam Colony,603102,Kanchipuram,TAMIL NADU","Pudupattinam, Thanjavur, Tamil Nadu",10.766150000000039,79.16575000000006,266.2663675627188
101972,Reactor Research Centre ,603102,Kanchipuram,TAMIL NADU,"Reactor Research Centre ,603102,Kanchipuram,TAMIL NADU","Kānchipuram, Tamil Nādu",12.835150000000056,79.70006000000006,60.53447344940606
101973,Suradimangalam,603102,Kanchipuram,TAMIL NADU,"Suradimangalam,603102,Kanchipuram,TAMIL NADU","Kānchipuram, Tamil Nādu",12.835150000000056,79.70006000000006,60.53447344940606
101974,Vayalur,603102,Kanchipuram,TAMIL NADU,"Vayalur,603102,Kanchipuram,TAMIL NADU","Vayalur, Uthiramerur, Kancheepuram, Tamil Nadu",12.61728000000005,79.70936000000006,67.80300702427895
101975,Vazhuvadur,603102,Kanchipuram,TAMIL NADU,"Vazhuvadur,603102,Kanchipuram,TAMIL NADU","Kānchipuram, Tamil Nādu",12.835150000000056,79.70006000000006,60.53447344940606
101976,Vengapakkam,603102,Kanchipuram,TAMIL NADU,"Vengapakkam,603102,Kanchipuram,TAMIL NADU","Vengapakkam, Rathinamangalam, Chennai, Kancheepuram, Tamil Nadu",12.861780000000067,80.13393000000008,14.355900925238341
101977,Vittalapuram,603102,Kanchipuram,TAMIL NADU,"Vittalapuram,603102,Kanchipuram,TAMIL NADU","Vittalapuram, Tindivanam, Viluppuram, Tamil Nadu",12.23622000000006,79.69853000000006,96.8025765701247
101978,Kelambakkam,603103,Kanchipuram,TAMIL NADU,"Kelambakkam,603103,Kanchipuram,TAMIL NADU",Kelambakkam,12.786140000000046,80.22030000000007,15.4935537022372
101979,Padur,603103,Kanchipuram,TAMIL NADU,"Padur,603103,Kanchipuram,TAMIL NADU",Padur,12.792470000000037,80.22244000000006,14.760149731430849
101980,Pudupakkam,603103,Kanchipuram,TAMIL NADU,"Pudupakkam,603103,Kanchipuram,TAMIL NADU","603103, Pudupakkam, Chennai, Kancheepuram, Tamil Nadu",12.811357246303208,80.19767949663571,13.619990984682408
101981,Thaiyur,603103,Kanchipuram,TAMIL NADU,"Thaiyur,603103,Kanchipuram,TAMIL NADU",Thaiyur,12.770780000000059,80.21327000000008,17.320266841863273
101982,Kadambadi,603104,Kanchipuram,TAMIL NADU,"Kadambadi,603104,Kanchipuram,TAMIL NADU",Kadambari,12.997400000000027,80.20622000000003,9.53283729853424
101983,Kokilamedu,603104,Kanchipuram,TAMIL NADU,"Kokilamedu,603104,Kanchipuram,TAMIL NADU","Kānchipuram, Tamil Nādu",12.835150000000056,79.70006000000006,60.53447344940606
101984,Koothavakkam,603104,Kanchipuram,TAMIL NADU,"Koothavakkam,603104,Kanchipuram,TAMIL NADU","Koothavakkam, Sriperumbudur, Kancheepuram, Tamil Nadu",12.930960000000027,79.80064000000004,48.831069276984486
101985,Mamallapuram,603104,Kanchipuram,TAMIL NADU,"Mamallapuram,603104,Kanchipuram,TAMIL NADU",Mamallapuram,12.625510000000077,80.19425000000007,33.47469912028491
101986,Pattipulam,603104,Kanchipuram,TAMIL NADU,"Pattipulam,603104,Kanchipuram,TAMIL NADU","Kānchipuram, Tamil Nādu",12.835150000000056,79.70006000000006,60.53447344940606
101987,Perur,603104,Kanchipuram,TAMIL NADU,"Perur,603104,Kanchipuram,TAMIL NADU","Kānchipuram, Tamil Nādu",12.835150000000056,79.70006000000006,60.53447344940606
101988,Poonjeri,603104,Kanchipuram,TAMIL NADU,"Poonjeri,603104,Kanchipuram,TAMIL NADU","Poongeri, Panangattupakkam, Chennai, Kancheepuram, Tamil Nadu",12.79848000000004,80.14189000000005,18.135881408296076
101989,Vadakadambadi,603104,Kanchipuram,TAMIL NADU,"Vadakadambadi,603104,Kanchipuram,TAMIL NADU","Kānchipuram, Tamil Nādu",12.835150000000056,79.70006000000006,60.53447344940606
101990,Zamin Paiyanur,603104,Kanchipuram,TAMIL NADU,"Zamin Paiyanur,603104,Kanchipuram,TAMIL NADU","Kānchipuram, Tamil Nādu",12.835150000000056,79.70006000000006,60.53447344940606
101991,Kuzhipanthandalam,603105,Kanchipuram,TAMIL NADU,"Kuzhipanthandalam,603105,Kanchipuram,TAMIL NADU","Kuhipanthandalam, Tirukalukundram, Chengalpattu, Tamil Nadu",12.631140000000073,80.12678000000005,34.974149919761125
101992,Manambathi,603105,Kanchipuram,TAMIL NADU,"Manambathi,603105,Kanchipuram,TAMIL NADU","Manampathy, Uthiramerur, Kancheepuram, Tamil Nadu",12.628850000000057,79.68007000000006,69.97169729263473
101993,Mullipakkam,603105,Kanchipuram,TAMIL NADU,"Mullipakkam,603105,Kanchipuram,TAMIL NADU","Kānchipuram, Tamil Nādu",12.835150000000056,79.70006000000006,60.53447344940606
101994,Peria Irumbedu,603105,Kanchipuram,TAMIL NADU,"Peria Irumbedu,603105,Kanchipuram,TAMIL NADU","Irumbedu, Sriperumbudur, Kancheepuram, Tamil Nadu",12.957820000000027,80.01869000000005,25.452872672528294
101995,Sirudavur,603105,Kanchipuram,TAMIL NADU,"Sirudavur,603105,Kanchipuram,TAMIL NADU","Sirudamur, Uthiramerur, Kancheepuram, Tamil Nadu",12.719960000000071,79.86479000000008,47.52322644062846
101996,Arumbuliyur,603106,Kanchipuram,TAMIL NADU,"Arumbuliyur,603106,Kanchipuram,TAMIL NADU","Arumbuliyur, Uthiramerur, Kancheepuram, Tamil Nadu",12.734240000000057,79.89692000000008,43.70248218059601
101997,Orakattupettai,603106,Kanchipuram,TAMIL NADU,"Orakattupettai,603106,Kanchipuram,TAMIL NADU","Orakattupettai, Uthiramerur, Kancheepuram, Tamil Nadu",12.721290000000067,79.93802000000005,40.61017119896159
101998,Sathanjeri,603106,Kanchipuram,TAMIL NADU,"Sathanjeri,603106,Kanchipuram,TAMIL NADU",603106,12.71986389400007,79.91334000000006,42.95638900105233
101999,Seethananjeri,603106,Kanchipuram,TAMIL NADU,"Seethananjeri,603106,Kanchipuram,TAMIL NADU","Seethananjeri, Uthiramerur, Kancheepuram, Tamil Nadu",12.747550000000047,79.90487000000007,42.24905150813299
102000,Tiruvanaikoil,603106,Kanchipuram,TAMIL NADU,"Tiruvanaikoil,603106,Kanchipuram,TAMIL NADU","Thiruvanaikoil, Uthiramerur, Kancheepuram, Tamil Nadu",12.711170000000038,79.91951000000006,42.9051975212355
102001,Vitchur,603106,Kanchipuram,TAMIL NADU,"Vitchur,603106,Kanchipuram,TAMIL NADU",603106,12.71986389400007,79.91334000000006,42.95638900105233
102002,Anambakkam,603107,Kanchipuram,TAMIL NADU,"Anambakkam,603107,Kanchipuram,TAMIL NADU","Anambakkam, Uthiramerur, Kancheepuram, Tamil Nadu",12.701110000000028,79.84329000000008,50.57255100963052
102003,Chithanakkavur,603107,Kanchipuram,TAMIL NADU,"Chithanakkavur,603107,Kanchipuram,TAMIL NADU",603107,12.670120000000054,79.85716040100004,51.058632381466175
102004,Edayambudur,603107,Kanchipuram,TAMIL NADU,"Edayambudur,603107,Kanchipuram,TAMIL NADU","Edayambudur, Uthiramerur, Kancheepuram, Tamil Nadu",12.661740000000066,79.86374000000006,50.982940943914784
102005,Kilakadi,603107,Kanchipuram,TAMIL NADU,"Kilakadi,603107,Kanchipuram,TAMIL NADU",603107,12.670120000000054,79.85716040100004,51.058632381466175
102006,Kunnavakkam,603107,Kanchipuram,TAMIL NADU,"Kunnavakkam,603107,Kanchipuram,TAMIL NADU","Kunnavakkam, Kancheepuram Sub-District, Kancheepuram, Tamil Nadu",12.853220000000022,79.89474000000007,39.381901740932676
102007,Nelvoy,603107,Kanchipuram,TAMIL NADU,"Nelvoy,603107,Kanchipuram,TAMIL NADU",603107,12.670120000000054,79.85716040100004,51.058632381466175
102008,Olaiyur,603107,Kanchipuram,TAMIL NADU,"Olaiyur,603107,Kanchipuram,TAMIL NADU","Olaiyur, Kancheepuram Sub-District, Kancheepuram, Tamil Nadu",12.842650000000049,79.78699000000006,51.09255155262655
102009,Palliagaram,603107,Kanchipuram,TAMIL NADU,"Palliagaram,603107,Kanchipuram,TAMIL NADU",603107,12.670120000000054,79.85716040100004,51.058632381466175
102010,Porpandal,603107,Kanchipuram,TAMIL NADU,"Porpandal,603107,Kanchipuram,TAMIL NADU","Porpandal, Uthiramerur, Kancheepuram, Tamil Nadu",12.698560000000043,79.88328000000007,46.97291619048554
102011,Salavakkam,603107,Kanchipuram,TAMIL NADU,"Salavakkam,603107,Kanchipuram,TAMIL NADU","Salavakkam, Uthiramerur, Kancheepuram, Tamil Nadu",12.670220000000029,79.89274000000006,47.86751824120791
102012,Valathodu,603107,Kanchipuram,TAMIL NADU,"Valathodu,603107,Kanchipuram,TAMIL NADU","Valathodu, Uthiramerur, Kancheepuram, Tamil Nadu",12.642550000000028,79.83260000000007,54.97331761506758
102013,Hanumanthapuram,603108,Kanchipuram,TAMIL NADU,"Hanumanthapuram,603108,Kanchipuram,TAMIL NADU","Hanumanthapuram Road, Hanumanthapuram, Chengalpattu, Tamil Nadu, 603108",12.712885177965786,80.06211331654488,30.965769775793905
102014,Kalvoy,603108,Kanchipuram,TAMIL NADU,"Kalvoy,603108,Kanchipuram,TAMIL NADU","Kalvoy, Othivakkam, Chennai, Kancheepuram, Tamil Nadu",12.781180000000063,80.10997000000003,21.887432595395587
102015,Karumbakkam,603108,Kanchipuram,TAMIL NADU,"Karumbakkam,603108,Kanchipuram,TAMIL NADU","Karumbakkam, Uthiramerur, Kancheepuram, Tamil Nadu",12.732070000000022,79.90756000000005,42.8094734875969
102016,Kottamedu,603108,Kanchipuram,TAMIL NADU,"Kottamedu,603108,Kanchipuram,TAMIL NADU",603108,12.721360000000061,80.09145653700006,28.212893182646752
102017,Madayathur,603108,Kanchipuram,TAMIL NADU,"Madayathur,603108,Kanchipuram,TAMIL NADU",603108,12.721360000000061,80.09145653700006,28.212893182646752
102018,Melaiyur,603108,Kanchipuram,TAMIL NADU,"Melaiyur,603108,Kanchipuram,TAMIL NADU",603108,12.721360000000061,80.09145653700006,28.212893182646752
102019,Nellikuppam,603108,Kanchipuram,TAMIL NADU,"Nellikuppam,603108,Kanchipuram,TAMIL NADU",603108,12.721360000000061,80.09145653700006,28.212893182646752
102020,Sembakkam,603108,Kanchipuram,TAMIL NADU,"Sembakkam,603108,Kanchipuram,TAMIL NADU","Sembakkam, Chennai, Kancheepuram, Tamil Nadu",12.93055000000004,80.15864000000005,10.009138228175836
102021,Senneri,603108,Kanchipuram,TAMIL NADU,"Senneri,603108,Kanchipuram,TAMIL NADU",603108,12.721360000000061,80.09145653700006,28.212893182646752
102022,Sirunkundram,603108,Kanchipuram,TAMIL NADU,"Sirunkundram,603108,Kanchipuram,TAMIL NADU",603108,12.721360000000061,80.09145653700006,28.212893182646752
102023,Ammanambakkam,603109,Kanchipuram,TAMIL NADU,"Ammanambakkam,603109,Kanchipuram,TAMIL NADU","Ammanumbakkam, Nandivaram - Guduvancheri, Chennai, Kancheepuram, Tamil Nadu",12.867480000000057,80.03386000000006,24.30695983876123
102024,Desumugipettai,603109,Kanchipuram,TAMIL NADU,"Desumugipettai,603109,Kanchipuram,TAMIL NADU","603109, Orakattupettai, Uththiramaeroor, Kaanjchipuram, Thamiznaatu",12.7220012239387,79.93786743256928,40.58080226555218
102025,Edaiyur,603109,Kanchipuram,TAMIL NADU,"Edaiyur,603109,Kanchipuram,TAMIL NADU","603109, Orakattupettai, Uththiramaeroor, Kaanjchipuram, Thamiznaatu",12.7220012239387,79.93786743256928,40.58080226555218
102026,Irumbulichery,603109,Kanchipuram,TAMIL NADU,"Irumbulichery,603109,Kanchipuram,TAMIL NADU","603109, Orakattupettai, Uththiramaeroor, Kaanjchipuram, Thamiznaatu",12.7220012239387,79.93786743256928,40.58080226555218
102027,Mullikolathur,603109,Kanchipuram,TAMIL NADU,"Mullikolathur,603109,Kanchipuram,TAMIL NADU","603109, Orakattupettai, Uththiramaeroor, Kaanjchipuram, Thamiznaatu",12.7220012239387,79.93786743256928,40.58080226555218
102028,Oragadam,603109,Kanchipuram,TAMIL NADU,"Oragadam,603109,Kanchipuram,TAMIL NADU","Oragadam, Oragadam-Vaippur, Sriperumbudur, Kancheepuram, Tamil Nadu",12.85695000000004,79.95452000000006,32.94997891696654
102029,Pandur,603109,Kanchipuram,TAMIL NADU,"Pandur,603109,Kanchipuram,TAMIL NADU","603109, Orakattupettai, Uththiramaeroor, Kaanjchipuram, Thamiznaatu",12.7220012239387,79.93786743256928,40.58080226555218
102030,Puliyur,603109,Kanchipuram,TAMIL NADU,"Puliyur,603109,Kanchipuram,TAMIL NADU","Puliyur, Uthiramerur, Kancheepuram, Tamil Nadu",12.58740000000006,79.78099000000003,63.074925317972856
102031,Thathalur,603109,Kanchipuram,TAMIL NADU,"Thathalur,603109,Kanchipuram,TAMIL NADU","603109, Orakattupettai, Uththiramaeroor, Kaanjchipuram, Thamiznaatu",12.7220012239387,79.93786743256928,40.58080226555218
102032,Tirukalikundram Bazaar,603109,Kanchipuram,TAMIL NADU,"Tirukalikundram Bazaar,603109,Kanchipuram,TAMIL NADU","603109, Orakattupettai, Uththiramaeroor, Kaanjchipuram, Thamiznaatu",12.7220012239387,79.93786743256928,40.58080226555218
102033,Tirukalikundram,603109,Kanchipuram,TAMIL NADU,"Tirukalikundram,603109,Kanchipuram,TAMIL NADU","603109, Orakattupettai, Uththiramaeroor, Kaanjchipuram, Thamiznaatu",12.7220012239387,79.93786743256928,40.58080226555218
102034,Veerapuram,603109,Kanchipuram,TAMIL NADU,"Veerapuram,603109,Kanchipuram,TAMIL NADU","603109, Orakattupettai, Uththiramaeroor, Kaanjchipuram, Thamiznaatu",12.7220012239387,79.93786743256928,40.58080226555218
102035,Alathur Industrial Estate,603110,Kanchipuram,TAMIL NADU,"Alathur Industrial Estate,603110,Kanchipuram,TAMIL NADU","Leo Industrial Estate, Pallikaranai, Chennai, Kancheepuram, Tamil Nadu",12.93748000000005,80.20401000000004,5.2985420997750365
102036,Illalur,603110,Kanchipuram,TAMIL NADU,"Illalur,603110,Kanchipuram,TAMIL NADU","Kānchipuram, Tamil Nādu",12.835150000000056,79.70006000000006,60.53447344940606
102037,Kayar,603110,Kanchipuram,TAMIL NADU,"Kayar,603110,Kanchipuram,TAMIL NADU","Kayar, Chennai, Kancheepuram, Tamil Nadu",12.769190000000037,80.15678000000008,19.8289249973374
102038,Tiruporur,603110,Kanchipuram,TAMIL NADU,"Tiruporur,603110,Kanchipuram,TAMIL NADU","Thiruporur Road, Chromepet, Chennai, Kancheepuram, Tamil Nadu, 600044",12.942335048197926,80.15134507331592,10.975953719709095
102039,Venbedu,603110,Kanchipuram,TAMIL NADU,"Venbedu,603110,Kanchipuram,TAMIL NADU","Kānchipuram, Tamil Nādu",12.835150000000056,79.70006000000006,60.53447344940606
102040,Mamandur,603111,Kanchipuram,TAMIL NADU,"Mamandur,603111,Kanchipuram,TAMIL NADU","603111, Uththiramaeroor, Kaanjchipuram, Thamiznaatu",12.660600937543405,79.91653633002171,46.45356094916263
102041,Manapakkam,603111,Kanchipuram,TAMIL NADU,"Manapakkam,603111,Kanchipuram,TAMIL NADU","603111, Uththiramaeroor, Kaanjchipuram, Thamiznaatu",12.660600937543405,79.91653633002171,46.45356094916263
102042,Meyyur,603111,Kanchipuram,TAMIL NADU,"Meyyur,603111,Kanchipuram,TAMIL NADU","603111, Uththiramaeroor, Kaanjchipuram, Thamiznaatu",12.660600937543405,79.91653633002171,46.45356094916263
102043,Ozhalur,603111,Kanchipuram,TAMIL NADU,"Ozhalur,603111,Kanchipuram,TAMIL NADU","603111, Uththiramaeroor, Kaanjchipuram, Thamiznaatu",12.660600937543405,79.91653633002171,46.45356094916263
102044,Pazhamathur,603111,Kanchipuram,TAMIL NADU,"Pazhamathur,603111,Kanchipuram,TAMIL NADU","603111, Uththiramaeroor, Kaanjchipuram, Thamiznaatu",12.660600937543405,79.91653633002171,46.45356094916263
102045,Tirumani,603111,Kanchipuram,TAMIL NADU,"Tirumani,603111,Kanchipuram,TAMIL NADU","603111, Uththiramaeroor, Kaanjchipuram, Thamiznaatu",12.660600937543405,79.91653633002171,46.45356094916263
102046,Venpakkam,603111,Kanchipuram,TAMIL NADU,"Venpakkam,603111,Kanchipuram,TAMIL NADU","603111, Uththiramaeroor, Kaanjchipuram, Thamiznaatu",12.660600937543405,79.91653633002171,46.45356094916263
102047,Kovalam (Kanchipuram),603112,Kanchipuram,TAMIL NADU,"Kovalam (Kanchipuram),603112,Kanchipuram,TAMIL NADU","Kānchipuram, Tamil Nādu",12.835150000000056,79.70006000000006,60.53447344940606
102048,Muttukadu,603112,Kanchipuram,TAMIL NADU,"Muttukadu,603112,Kanchipuram,TAMIL NADU","603112, Muttukadu, Chennai, Kancheepuram, Tamil Nadu",12.824073725310077,80.24274860396065,10.977678329276284
102049,Thiruvidanthai,603112,Kanchipuram,TAMIL NADU,"Thiruvidanthai,603112,Kanchipuram,TAMIL NADU","Thiruvidanthai, Chennai, Kancheepuram, Tamil Nadu",12.760530000000074,80.24466000000007,17.98607959731721
102050,Anupuram,603127,Kanchipuram,TAMIL NADU,"Anupuram,603127,Kanchipuram,TAMIL NADU","Kānchipuram, Tamil Nādu",12.835150000000056,79.70006000000006,60.53447344940606
102051,Elapakkam,603201,Kanchipuram,TAMIL NADU,"Elapakkam,603201,Kanchipuram,TAMIL NADU","Elapakkam, Uthiramerur, Kancheepuram, Tamil Nadu",12.634540000000072,79.84818000000007,54.10381391259709
102052,Kattukaranai,603201,Kanchipuram,TAMIL NADU,"Kattukaranai,603201,Kanchipuram,TAMIL NADU","Kānchipuram, Tamil Nādu",12.835150000000056,79.70006000000006,60.53447344940606
102053,Madhur,603201,Kanchipuram,TAMIL NADU,"Madhur,603201,Kanchipuram,TAMIL NADU","Kānchipuram, Tamil Nādu",12.835150000000056,79.70006000000006,60.53447344940606
102054,Padiri,603201,Kanchipuram,TAMIL NADU,"Padiri,603201,Kanchipuram,TAMIL NADU","Kānchipuram, Tamil Nādu",12.835150000000056,79.70006000000006,60.53447344940606
102055,Ramapuram,603201,Kanchipuram,TAMIL NADU,"Ramapuram,603201,Kanchipuram,TAMIL NADU","Kānchipuram, Tamil Nādu",12.835150000000056,79.70006000000006,60.53447344940606
102056,Guduvanchery,603202,Kanchipuram,TAMIL NADU,"Guduvanchery,603202,Kanchipuram,TAMIL NADU","603202, Guduvanchery, Chennai, Kancheepuram, Tamil Nadu",12.84262155493626,80.06548275364166,21.967447705294422
102057,Kannivakkam,603202,Kanchipuram,TAMIL NADU,"Kannivakkam,603202,Kanchipuram,TAMIL NADU","603202, Kannivakkam, Chennai, Kancheepuram, Tamil Nadu",12.80402636674534,80.09201123888677,21.665759199379902
102058,Karanaipuduchery,603202,Kanchipuram,TAMIL NADU,"Karanaipuduchery,603202,Kanchipuram,TAMIL NADU","Karanaipuducheri, Chennai, Kancheepuram, Tamil Nadu",12.84391000000005,80.09199000000007,19.30674392613073
102059,Madambakkam,603202,Kanchipuram,TAMIL NADU,"Madambakkam,603202,Kanchipuram,TAMIL NADU","Madambakkam, Chennai, Kancheepuram, Tamil Nadu",12.905290000000036,80.15352000000007,10.71128164556767
102060,Kayarambedu,603202,Kanchipuram,TAMIL NADU,"Kayarambedu,603202,Kanchipuram,TAMIL NADU","603202, Kayarambedu, Chennai, Kancheepuram, Tamil Nadu",12.821976306448839,80.07057102968314,22.506837541944844
102061,Kattankolathur,603203,Kanchipuram,TAMIL NADU,"Kattankolathur,603203,Kanchipuram,TAMIL NADU","Kattankulathur, Chennai, Kancheepuram, Tamil Nadu",12.812950000000058,80.03188000000006,26.676052270764
102062,Kavanur,603203,Kanchipuram,TAMIL NADU,"Kavanur,603203,Kanchipuram,TAMIL NADU","Kavanur, Chennai, Kancheepuram, Tamil Nadu",12.836870000000033,80.03370000000007,25.392604679134298
102063,Ninnakarai,603203,Kanchipuram,TAMIL NADU,"Ninnakarai,603203,Kanchipuram,TAMIL NADU",603203,12.832269512000039,80.00315000000006,28.667693984295685
102064,Anjur,603204,Kanchipuram,TAMIL NADU,"Anjur,603204,Kanchipuram,TAMIL NADU","603204, Vadakkupattu, Sriperumputhoor, Kaanjchipuram, Thamiznaatu",12.816062584393132,79.94628012335247,35.08156232411919
102065,Appur,603204,Kanchipuram,TAMIL NADU,"Appur,603204,Kanchipuram,TAMIL NADU","603204, Vadakkupattu, Sriperumputhoor, Kaanjchipuram, Thamiznaatu",12.816062584393132,79.94628012335247,35.08156232411919
102066,Chettipunniam,603204,Kanchipuram,TAMIL NADU,"Chettipunniam,603204,Kanchipuram,TAMIL NADU","603204, Vadakkupattu, Sriperumputhoor, Kaanjchipuram, Thamiznaatu",12.816062584393132,79.94628012335247,35.08156232411919
102067,Elutchur,603204,Kanchipuram,TAMIL NADU,"Elutchur,603204,Kanchipuram,TAMIL NADU","603204, Vadakkupattu, Sriperumputhoor, Kaanjchipuram, Thamiznaatu",12.816062584393132,79.94628012335247,35.08156232411919
102068,Karunilam,603204,Kanchipuram,TAMIL NADU,"Karunilam,603204,Kanchipuram,TAMIL NADU","603204, Vadakkupattu, Sriperumputhoor, Kaanjchipuram, Thamiznaatu",12.816062584393132,79.94628012335247,35.08156232411919
102069,Melrosapuram,603204,Kanchipuram,TAMIL NADU,"Melrosapuram,603204,Kanchipuram,TAMIL NADU","Malrojapuram, Nallambakkam, Chennai, Kancheepuram, Tamil Nadu",12.836310000000026,80.13511000000005,15.779529266036468
102070,Singaperumalkoil,603204,Kanchipuram,TAMIL NADU,"Singaperumalkoil,603204,Kanchipuram,TAMIL NADU","Singaperumal Koil Sannathi Street, Small Kanchipuram, Kancheepuram, Tamil Nadu, 631502",12.822163766935212,79.70554574372338,60.1979922546843
102071,Tirukatchur,603204,Kanchipuram,TAMIL NADU,"Tirukatchur,603204,Kanchipuram,TAMIL NADU","603204, Vadakkupattu, Sriperumputhoor, Kaanjchipuram, Thamiznaatu",12.816062584393132,79.94628012335247,35.08156232411919
102072,Vadakkupattu,603204,Kanchipuram,TAMIL NADU,"Vadakkupattu,603204,Kanchipuram,TAMIL NADU","603204, Vadakkupattu, Sriperumbudur, Kancheepuram, Tamil Nadu",12.816062584393132,79.94628012335247,35.08156232411919
102073,Venkatapuram,603204,Kanchipuram,TAMIL NADU,"Venkatapuram,603204,Kanchipuram,TAMIL NADU","Venkatapuram, Kundrathur, Chennai, Kancheepuram, Tamil Nadu",12.994690000000048,80.09322000000003,18.823321164453606
102074,Maraimalai Nagar,603209,Kanchipuram,TAMIL NADU,"Maraimalai Nagar,603209,Kanchipuram,TAMIL NADU","603209, Maraimalai Nagar, Chengalpattu, Tamil Nadu",12.790792944236642,80.02291957278666,28.71372976903712
102075,Panangottur,603209,Kanchipuram,TAMIL NADU,"Panangottur,603209,Kanchipuram,TAMIL NADU",603209,12.792515000000037,80.01762150000008,29.115075390637177
102076,Urapakkam,603210,Kanchipuram,TAMIL NADU,"Urapakkam,603210,Kanchipuram,TAMIL NADU",Urapakkam,12.859800000000064,80.07279000000005,20.521239050188225
102077,Annai Anjugam Nagar,603211,Kanchipuram,TAMIL NADU,"Annai Anjugam Nagar,603211,Kanchipuram,TAMIL NADU","Annai Anjugam Nagar, Old Perungalathur, Chennai, Kancheepuram, Tamil Nadu",12.937560000000076,80.08887000000004,17.618954443060673
102078,Acharapakkam R.S.,603301,Kanchipuram,TAMIL NADU,"Acharapakkam R.S.,603301,Kanchipuram,TAMIL NADU","Acharapakkam, Maduranthakam, Chengalpattu, Tamil Nadu",12.407660000000021,79.81675000000007,73.96575656426347
102079,Acharapakkam,603301,Kanchipuram,TAMIL NADU,"Acharapakkam,603301,Kanchipuram,TAMIL NADU","Acharapakkam, Maduranthakam, Chengalpattu, Tamil Nadu",12.407660000000021,79.81675000000007,73.96575656426347
102080,Indalur,603301,Kanchipuram,TAMIL NADU,"Indalur,603301,Kanchipuram,TAMIL NADU","Kānchipuram, Tamil Nādu",12.835150000000056,79.70006000000006,60.53447344940606
102081,Irumbuli,603301,Kanchipuram,TAMIL NADU,"Irumbuli,603301,Kanchipuram,TAMIL NADU","Kānchipuram, Tamil Nādu",12.835150000000056,79.70006000000006,60.53447344940606
102082,Kattugudalur,603301,Kanchipuram,TAMIL NADU,"Kattugudalur,603301,Kanchipuram,TAMIL NADU","Kattugudalur, Maduranthakam, Chengalpattu, Tamil Nadu",12.457030000000032,79.78389000000004,72.29576485451634
102083,Kayapakkam,603301,Kanchipuram,TAMIL NADU,"Kayapakkam,603301,Kanchipuram,TAMIL NADU","Karapakkam, Chennai, Kancheepuram, Tamil Nadu",12.915950000000066,80.23192000000006,2.1677323574112433
102084,Parukkal,603301,Kanchipuram,TAMIL NADU,"Parukkal,603301,Kanchipuram,TAMIL NADU","Kānchipuram, Tamil Nādu",12.835150000000056,79.70006000000006,60.53447344940606
102085,Seethapuram,603301,Kanchipuram,TAMIL NADU,"Seethapuram,603301,Kanchipuram,TAMIL NADU","Seethapuram, Uthiramerur, Kancheepuram, Tamil Nadu",12.674090000000035,79.88911000000007,47.94049226535908
102086,Chengattur,603302,Kanchipuram,TAMIL NADU,"Chengattur,603302,Kanchipuram,TAMIL NADU","Kānchipuram, Tamil Nādu",12.835150000000056,79.70006000000006,60.53447344940606
102087,Cheyur (Kanchipuram),603302,Kanchipuram,TAMIL NADU,"Cheyur (Kanchipuram),603302,Kanchipuram,TAMIL NADU","Kānchipuram, Tamil Nādu",12.835150000000056,79.70006000000006,60.53447344940606
102088,Cheyyur North,603302,Kanchipuram,TAMIL NADU,"Cheyyur North,603302,Kanchipuram,TAMIL NADU","Kānchipuram, Tamil Nādu",12.835150000000056,79.70006000000006,60.53447344940606
102089,Irumbedu,603302,Kanchipuram,TAMIL NADU,"Irumbedu,603302,Kanchipuram,TAMIL NADU","Irumbedu, Sriperumbudur, Kancheepuram, Tamil Nadu",12.957820000000027,80.01869000000005,25.452872672528294
102090,Nainarkuppam,603302,Kanchipuram,TAMIL NADU,"Nainarkuppam,603302,Kanchipuram,TAMIL NADU","Nainar Kuppam, Uthandi, Chennai, Kancheepuram, Tamil Nadu",12.874690000000044,80.24662000000006,5.362324532682783
102091,Palaiyur,603302,Kanchipuram,TAMIL NADU,"Palaiyur,603302,Kanchipuram,TAMIL NADU","Panaiyur, Chennai, Kancheepuram, Tamil Nadu",12.88268000000005,80.24789000000004,4.470727580357781
102092,Panaiyur,603302,Kanchipuram,TAMIL NADU,"Panaiyur,603302,Kanchipuram,TAMIL NADU","Panaiyur, Chennai, Kancheepuram, Tamil Nadu",12.88268000000005,80.24789000000004,4.470727580357781
102093,Perumbakkam,603302,Kanchipuram,TAMIL NADU,"Perumbakkam,603302,Kanchipuram,TAMIL NADU","Perumbakkam, Chennai, Kancheepuram, Tamil Nadu",12.90563000000003,80.20907000000005,4.895297523849703
102094,Zamin Budur,603302,Kanchipuram,TAMIL NADU,"Zamin Budur,603302,Kanchipuram,TAMIL NADU","Kānchipuram, Tamil Nādu",12.835150000000056,79.70006000000006,60.53447344940606
102095,Janakipuram,603303,Kanchipuram,TAMIL NADU,"Janakipuram,603303,Kanchipuram,TAMIL NADU",Janakiram,12.978930000000048,80.13886000000008,13.607360111205853
102096,Karunguli,603303,Kanchipuram,TAMIL NADU,"Karunguli,603303,Kanchipuram,TAMIL NADU","Kānchipuram, Tamil Nādu",12.835150000000056,79.70006000000006,60.53447344940606
102097,Kathirichery,603303,Kanchipuram,TAMIL NADU,"Kathirichery,603303,Kanchipuram,TAMIL NADU","Kānchipuram, Tamil Nādu",12.835150000000056,79.70006000000006,60.53447344940606
102098,Keelavalam,603303,Kanchipuram,TAMIL NADU,"Keelavalam,603303,Kanchipuram,TAMIL NADU","Kānchipuram, Tamil Nādu",12.835150000000056,79.70006000000006,60.53447344940606
102099,Kinar,603303,Kanchipuram,TAMIL NADU,"Kinar,603303,Kanchipuram,TAMIL NADU","Kānchipuram, Tamil Nādu",12.835150000000056,79.70006000000006,60.53447344940606
102100,Kinar Kandigai Pudur,603303,Kanchipuram,TAMIL NADU,"Kinar Kandigai Pudur,603303,Kanchipuram,TAMIL NADU","Kandigai, Chennai, Kancheepuram, Tamil Nadu",12.850530000000049,80.14008000000007,14.424155528549433
102101,Malapalayam,603303,Kanchipuram,TAMIL NADU,"Malapalayam,603303,Kanchipuram,TAMIL NADU","Kānchipuram, Tamil Nādu",12.835150000000056,79.70006000000006,60.53447344940606
102102,Malayalipettai,603303,Kanchipuram,TAMIL NADU,"Malayalipettai,603303,Kanchipuram,TAMIL NADU","Malalipettai, Karasangal, Sriperumbudur, Kancheepuram, Tamil Nadu",12.897290000000055,80.04455000000007,22.536717344367133
102103,Melavalam,603303,Kanchipuram,TAMIL NADU,"Melavalam,603303,Kanchipuram,TAMIL NADU","Kānchipuram, Tamil Nādu",12.835150000000056,79.70006000000006,60.53447344940606
102104,Pudupattu,603303,Kanchipuram,TAMIL NADU,"Pudupattu,603303,Kanchipuram,TAMIL NADU","Kānchipuram, Tamil Nādu",12.835150000000056,79.70006000000006,60.53447344940606
102105,Vedavakkam,603303,Kanchipuram,TAMIL NADU,"Vedavakkam,603303,Kanchipuram,TAMIL NADU","Vendivakkam, Uthiramerur, Kancheepuram, Tamil Nadu",12.679610000000025,79.83686000000006,52.367974466414985
102106,Kolathur,603304,Kanchipuram,TAMIL NADU,"Kolathur,603304,Kanchipuram,TAMIL NADU","Kolathur, Sriperumbudur, Kancheepuram, Tamil Nadu",12.936450000000036,79.99171000000007,28.127958451225844
102107,Kottaikadu,603304,Kanchipuram,TAMIL NADU,"Kottaikadu,603304,Kanchipuram,TAMIL NADU","Kānchipuram, Tamil Nādu",12.835150000000056,79.70006000000006,60.53447344940606
102108,Kudapakkam,603304,Kanchipuram,TAMIL NADU,"Kudapakkam,603304,Kanchipuram,TAMIL NADU","Kolapakkam, Chennai, Kancheepuram, Tamil Nadu",13.011220000000037,80.15393000000006,14.322947908413257
102109,Sembulipuram,603304,Kanchipuram,TAMIL NADU,"Sembulipuram,603304,Kanchipuram,TAMIL NADU","Kānchipuram, Tamil Nādu",12.835150000000056,79.70006000000006,60.53447344940606
102110,Vedal,603304,Kanchipuram,TAMIL NADU,"Vedal,603304,Kanchipuram,TAMIL NADU","Vedal, Kancheepuram Sub-District, Kancheepuram, Tamil Nadu",12.759730000000047,79.73936000000003,58.357723204025696
102111,Vilambur,603304,Kanchipuram,TAMIL NADU,"Vilambur,603304,Kanchipuram,TAMIL NADU","Kānchipuram, Tamil Nādu",12.835150000000056,79.70006000000006,60.53447344940606
102112,Kadalur,603305,Kanchipuram,TAMIL NADU,"Kadalur,603305,Kanchipuram,TAMIL NADU","Kānchipuram, Tamil Nādu",12.835150000000056,79.70006000000006,60.53447344940606
102113,Kodoovur,603305,Kanchipuram,TAMIL NADU,"Kodoovur,603305,Kanchipuram,TAMIL NADU","Kānchipuram, Tamil Nādu",12.835150000000056,79.70006000000006,60.53447344940606
102114,Kuvathur,603305,Kanchipuram,TAMIL NADU,"Kuvathur,603305,Kanchipuram,TAMIL NADU","Kānchipuram, Tamil Nādu",12.835150000000056,79.70006000000006,60.53447344940606
102115,Mugaiyur,603305,Kanchipuram,TAMIL NADU,"Mugaiyur,603305,Kanchipuram,TAMIL NADU","Kānchipuram, Tamil Nādu",12.835150000000056,79.70006000000006,60.53447344940606
102116,Nedumaram,603305,Kanchipuram,TAMIL NADU,"Nedumaram,603305,Kanchipuram,TAMIL NADU","Kānchipuram, Tamil Nādu",12.835150000000056,79.70006000000006,60.53447344940606
102117,Nerkunapattu,603305,Kanchipuram,TAMIL NADU,"Nerkunapattu,603305,Kanchipuram,TAMIL NADU","Kānchipuram, Tamil Nādu",12.835150000000056,79.70006000000006,60.53447344940606
102118,Seekanankuppam,603305,Kanchipuram,TAMIL NADU,"Seekanankuppam,603305,Kanchipuram,TAMIL NADU","Kānchipuram, Tamil Nādu",12.835150000000056,79.70006000000006,60.53447344940606
102119,Vepancheri,603305,Kanchipuram,TAMIL NADU,"Vepancheri,603305,Kanchipuram,TAMIL NADU","Kānchipuram, Tamil Nādu",12.835150000000056,79.70006000000006,60.53447344940606
102120,Arungunam,603306,Kanchipuram,TAMIL NADU,"Arungunam,603306,Kanchipuram,TAMIL NADU","Kānchipuram, Tamil Nādu",12.835150000000056,79.70006000000006,60.53447344940606
102121,Madurantakam,603306,Kanchipuram,TAMIL NADU,"Madurantakam,603306,Kanchipuram,TAMIL NADU","Madurantakam, Chengalpattu, Tamil Nadu",12.506490000000042,79.88067000000007,61.13121111596553
102122,Morapakkam,603306,Kanchipuram,TAMIL NADU,"Morapakkam,603306,Kanchipuram,TAMIL NADU","Kānchipuram, Tamil Nādu",12.835150000000056,79.70006000000006,60.53447344940606
102123,Murugambakkam,603306,Kanchipuram,TAMIL NADU,"Murugambakkam,603306,Kanchipuram,TAMIL NADU","Kānchipuram, Tamil Nādu",12.835150000000056,79.70006000000006,60.53447344940606
102124,New Mambakkam,603306,Kanchipuram,TAMIL NADU,"New Mambakkam,603306,Kanchipuram,TAMIL NADU","Mambakkam, Chennai, Kancheepuram, Tamil Nadu",12.834510000000023,80.16728000000006,13.324590270649956
102125,Pakkam,603306,Kanchipuram,TAMIL NADU,"Pakkam,603306,Kanchipuram,TAMIL NADU","Kānchipuram, Tamil Nādu",12.835150000000056,79.70006000000006,60.53447344940606
102126,Perumbakkam,603306,Kanchipuram,TAMIL NADU,"Perumbakkam,603306,Kanchipuram,TAMIL NADU","Perumbakkam, Chennai, Kancheepuram, Tamil Nadu",12.90563000000003,80.20907000000005,4.895297523849703
102127,Senguntharpettai,603306,Kanchipuram,TAMIL NADU,"Senguntharpettai,603306,Kanchipuram,TAMIL NADU","Kānchipuram, Tamil Nādu",12.835150000000056,79.70006000000006,60.53447344940606
102128,Thatchur,603306,Kanchipuram,TAMIL NADU,"Thatchur,603306,Kanchipuram,TAMIL NADU","Thatchar Street, Kundrathur, Chennai, Kancheepuram, Tamil Nadu, 600069",12.998961846863681,80.09243921926702,19.103167922574478
102129,Unamalai,603306,Kanchipuram,TAMIL NADU,"Unamalai,603306,Kanchipuram,TAMIL NADU","Unnamalai Street, Mangadu, Chennai, Kancheepuram, Tamil Nadu, 600122",13.032713369155129,80.12084323087518,18.583654867529933
102130,Vanniarpettai,603306,Kanchipuram,TAMIL NADU,"Vanniarpettai,603306,Kanchipuram,TAMIL NADU","Kānchipuram, Tamil Nādu",12.835150000000056,79.70006000000006,60.53447344940606
102131,Veeranakunnam,603306,Kanchipuram,TAMIL NADU,"Veeranakunnam,603306,Kanchipuram,TAMIL NADU","Veeranakunnam, Maduranthakam, Chengalpattu, Tamil Nadu",12.50795000000005,79.96640000000008,55.3242985998141
102132,Ananthamangalam,603307,Kanchipuram,TAMIL NADU,"Ananthamangalam,603307,Kanchipuram,TAMIL NADU","Anathamangalam, Maduranthakam, Chengalpattu, Tamil Nadu",12.33364000000006,79.66782000000006,90.88040671188298
102133,Minnal Sithamur,603307,Kanchipuram,TAMIL NADU,"Minnal Sithamur,603307,Kanchipuram,TAMIL NADU","Kānchipuram, Tamil Nādu",12.835150000000056,79.70006000000006,60.53447344940606
102134,Orathy,603307,Kanchipuram,TAMIL NADU,"Orathy,603307,Kanchipuram,TAMIL NADU","Kānchipuram, Tamil Nādu",12.835150000000056,79.70006000000006,60.53447344940606
102135,Sirudamur,603307,Kanchipuram,TAMIL NADU,"Sirudamur,603307,Kanchipuram,TAMIL NADU","Sirudamur, Uthiramerur, Kancheepuram, Tamil Nadu",12.719960000000071,79.86479000000008,47.52322644062846
102136,Vadamanipakkam,603307,Kanchipuram,TAMIL NADU,"Vadamanipakkam,603307,Kanchipuram,TAMIL NADU","Vadamanipakkam, Maduranthakam, Chengalpattu, Tamil Nadu",12.359830000000045,79.68910000000005,87.1898465468439
102137,Budur,603308,Kanchipuram,TAMIL NADU,"Budur,603308,Kanchipuram,TAMIL NADU","603308, Uththiramaeroor, Kaanjchipuram, Thamiznaatu",12.642690360111445,79.90837027815545,48.39513974121149
102138,Bukkathurai,603308,Kanchipuram,TAMIL NADU,"Bukkathurai,603308,Kanchipuram,TAMIL NADU","603308, Uththiramaeroor, Kaanjchipuram, Thamiznaatu",12.642690360111445,79.90837027815545,48.39513974121149
102139,Isur,603308,Kanchipuram,TAMIL NADU,"Isur,603308,Kanchipuram,TAMIL NADU","603308, Uththiramaeroor, Kaanjchipuram, Thamiznaatu",12.642690360111445,79.90837027815545,48.39513974121149
102140,Kallabiranpuram,603308,Kanchipuram,TAMIL NADU,"Kallabiranpuram,603308,Kanchipuram,TAMIL NADU","603308, Uththiramaeroor, Kaanjchipuram, Thamiznaatu",12.642690360111445,79.90837027815545,48.39513974121149
102141,Kolampakkam,603308,Kanchipuram,TAMIL NADU,"Kolampakkam,603308,Kanchipuram,TAMIL NADU","Kolapakkam, Chennai, Kancheepuram, Tamil Nadu",13.011220000000037,80.15393000000006,14.322947908413257
102142,Malaivaiyavur,603308,Kanchipuram,TAMIL NADU,"Malaivaiyavur,603308,Kanchipuram,TAMIL NADU","Vaiyavur, Kancheepuram Sub-District, Kancheepuram, Tamil Nadu",12.840670000000046,79.74296000000004,55.840191642660265
102143,Padalam,603308,Kanchipuram,TAMIL NADU,"Padalam,603308,Kanchipuram,TAMIL NADU","603308, Uththiramaeroor, Kaanjchipuram, Thamiznaatu",12.642690360111445,79.90837027815545,48.39513974121149
102144,Palayanur,603308,Kanchipuram,TAMIL NADU,"Palayanur,603308,Kanchipuram,TAMIL NADU","603308, Uththiramaeroor, Kaanjchipuram, Thamiznaatu",12.642690360111445,79.90837027815545,48.39513974121149
102145,Mugundagiri,603309,Kanchipuram,TAMIL NADU,"Mugundagiri,603309,Kanchipuram,TAMIL NADU","Kānchipuram, Tamil Nādu",12.835150000000056,79.70006000000006,60.53447344940606
102146,Paiyambadi,603309,Kanchipuram,TAMIL NADU,"Paiyambadi,603309,Kanchipuram,TAMIL NADU","Kānchipuram, Tamil Nādu",12.835150000000056,79.70006000000006,60.53447344940606
102147,Perukkaranai,603309,Kanchipuram,TAMIL NADU,"Perukkaranai,603309,Kanchipuram,TAMIL NADU","Perukkaranai, Cheyyur, Chengalpattu, Tamil Nadu",12.371680000000026,79.86229000000003,74.1560027529264
102148,Polambakkam,603309,Kanchipuram,TAMIL NADU,"Polambakkam,603309,Kanchipuram,TAMIL NADU","Pullambakkam, Kancheepuram Sub-District, Kancheepuram, Tamil Nadu",12.971740000000068,79.74899000000005,54.6899755065212
102149,Ayakonamkolathur,603310,Kanchipuram,TAMIL NADU,"Ayakonamkolathur,603310,Kanchipuram,TAMIL NADU","Kolathur, Sriperumbudur, Kancheepuram, Tamil Nadu",12.936450000000036,79.99171000000007,28.127958451225844
102150,Isur,603310,Kanchipuram,TAMIL NADU,"Isur,603310,Kanchipuram,TAMIL NADU","Kānchipuram, Tamil Nādu",12.835150000000056,79.70006000000006,60.53447344940606
102151,Karasangal,603310,Kanchipuram,TAMIL NADU,"Karasangal,603310,Kanchipuram,TAMIL NADU","Karasangal, Sriperumbudur, Kancheepuram, Tamil Nadu",12.896250000000066,80.04381000000006,22.631191918634908
102152,Nerkunam,603310,Kanchipuram,TAMIL NADU,"Nerkunam,603310,Kanchipuram,TAMIL NADU","Kānchipuram, Tamil Nādu",12.835150000000056,79.70006000000006,60.53447344940606
102153,Perumber Kandigai,603310,Kanchipuram,TAMIL NADU,"Perumber Kandigai,603310,Kanchipuram,TAMIL NADU","Kandigai, Chennai, Kancheepuram, Tamil Nadu",12.850530000000049,80.14008000000007,14.424155528549433
102154,Sirumailur,603310,Kanchipuram,TAMIL NADU,"Sirumailur,603310,Kanchipuram,TAMIL NADU","Sirumailur, Uthiramerur, Kancheepuram, Tamil Nadu",12.720440000000053,79.83317000000005,50.55070503688867
102155,Sirunagar,603310,Kanchipuram,TAMIL NADU,"Sirunagar,603310,Kanchipuram,TAMIL NADU","Kānchipuram, Tamil Nādu",12.835150000000056,79.70006000000006,60.53447344940606
102156,Thozhupedu,603310,Kanchipuram,TAMIL NADU,"Thozhupedu,603310,Kanchipuram,TAMIL NADU","Kānchipuram, Tamil Nādu",12.835150000000056,79.70006000000006,60.53447344940606
102157,Ozhavetti,603311,Kanchipuram,TAMIL NADU,"Ozhavetti,603311,Kanchipuram,TAMIL NADU","Kānchipuram, Tamil Nādu",12.835150000000056,79.70006000000006,60.53447344940606
102158,Peria Venmani,603311,Kanchipuram,TAMIL NADU,"Peria Venmani,603311,Kanchipuram,TAMIL NADU","Periavenmani, Kunnam, Perambalur, Tamil Nadu",11.209900000000061,79.08618000000007,227.9988182330958
102159,Zamin Endathur,603311,Kanchipuram,TAMIL NADU,"Zamin Endathur,603311,Kanchipuram,TAMIL NADU","Athur, Uthiramerur, Kancheepuram, Tamil Nadu",12.73231000000004,79.94560000000007,39.25621195753053
102160,Anaicut,603312,Kanchipuram,TAMIL NADU,"Anaicut,603312,Kanchipuram,TAMIL NADU","Kānchipuram, Tamil Nādu",12.835150000000056,79.70006000000006,60.53447344940606
102161,Iranya Sidhi,603312,Kanchipuram,TAMIL NADU,"Iranya Sidhi,603312,Kanchipuram,TAMIL NADU","Kānchipuram, Tamil Nādu",12.835150000000056,79.70006000000006,60.53447344940606
102162,K.Nelvoy,603312,Kanchipuram,TAMIL NADU,"K.Nelvoy,603312,Kanchipuram,TAMIL NADU","Nelvoy, Sriperumbudur, Kancheepuram, Tamil Nadu",12.957230000000038,79.78104000000008,51.08788184259066
102163,Kalkulam,603312,Kanchipuram,TAMIL NADU,"Kalkulam,603312,Kanchipuram,TAMIL NADU","Kānchipuram, Tamil Nādu",12.835150000000056,79.70006000000006,60.53447344940606
102164,Lathur,603312,Kanchipuram,TAMIL NADU,"Lathur,603312,Kanchipuram,TAMIL NADU","Kānchipuram, Tamil Nādu",12.835150000000056,79.70006000000006,60.53447344940606
102165,Palur,603312,Kanchipuram,TAMIL NADU,"Palur,603312,Kanchipuram,TAMIL NADU","Kānchipuram, Tamil Nādu",12.835150000000056,79.70006000000006,60.53447344940606
102166,Pavunjur,603312,Kanchipuram,TAMIL NADU,"Pavunjur,603312,Kanchipuram,TAMIL NADU","Kānchipuram, Tamil Nādu",12.835150000000056,79.70006000000006,60.53447344940606
102167,Seevadi,603312,Kanchipuram,TAMIL NADU,"Seevadi,603312,Kanchipuram,TAMIL NADU","Kānchipuram, Tamil Nādu",12.835150000000056,79.70006000000006,60.53447344940606
102168,Tiruvadur,603312,Kanchipuram,TAMIL NADU,"Tiruvadur,603312,Kanchipuram,TAMIL NADU","Kānchipuram, Tamil Nādu",12.835150000000056,79.70006000000006,60.53447344940606
102169,Chithamur,603313,Kanchipuram,TAMIL NADU,"Chithamur,603313,Kanchipuram,TAMIL NADU","Kānchipuram, Tamil Nādu",12.835150000000056,79.70006000000006,60.53447344940606
102170,Kattudevadur,603313,Kanchipuram,TAMIL NADU,"Kattudevadur,603313,Kanchipuram,TAMIL NADU","Kattudevadur, Maduranthakam, Chengalpattu, Tamil Nadu",12.395290000000045,79.93896000000007,67.48309933936515
102171,Neerpair,603313,Kanchipuram,TAMIL NADU,"Neerpair,603313,Kanchipuram,TAMIL NADU","Kānchipuram, Tamil Nādu",12.835150000000056,79.70006000000006,60.53447344940606
102172,Nugumbal,603313,Kanchipuram,TAMIL NADU,"Nugumbal,603313,Kanchipuram,TAMIL NADU","Kānchipuram, Tamil Nādu",12.835150000000056,79.70006000000006,60.53447344940606
102173,Onambakkam,603313,Kanchipuram,TAMIL NADU,"Onambakkam,603313,Kanchipuram,TAMIL NADU","Anambakkam, Uthiramerur, Kancheepuram, Tamil Nadu",12.701110000000028,79.84329000000008,50.57255100963052
102174,Vilanganur,603313,Kanchipuram,TAMIL NADU,"Vilanganur,603313,Kanchipuram,TAMIL NADU","Kānchipuram, Tamil Nādu",12.835150000000056,79.70006000000006,60.53447344940606
102175,Kattiampandal,603314,Kanchipuram,TAMIL NADU,"Kattiampandal,603314,Kanchipuram,TAMIL NADU","Kattiampandal, Uthiramerur, Kancheepuram, Tamil Nadu",12.574760000000026,79.81001000000003,61.42402352238456
102176,Perungozhi,603314,Kanchipuram,TAMIL NADU,"Perungozhi,603314,Kanchipuram,TAMIL NADU","Perumgozhi, Uthiramerur, Kancheepuram, Tamil Nadu",12.606790000000046,79.80454000000003,59.743908619080834
102177,Pulithivakkam,603314,Kanchipuram,TAMIL NADU,"Pulithivakkam,603314,Kanchipuram,TAMIL NADU","Puzhithivakkam, Puzhuthivakkam, Chennai, Kancheepuram, Tamil Nadu",12.974640000000022,80.20038000000005,7.891107549209452
102178,Vedanthangal,603314,Kanchipuram,TAMIL NADU,"Vedanthangal,603314,Kanchipuram,TAMIL NADU","603314, Uththiramaeroor, Kaanjchipuram, Thamiznaatu",12.587495236182493,79.81091508053248,60.47174913131152
102179,Vellaputhur,603314,Kanchipuram,TAMIL NADU,"Vellaputhur,603314,Kanchipuram,TAMIL NADU","603314, Uththiramaeroor, Kaanjchipuram, Thamiznaatu",12.587495236182493,79.81091508053248,60.47174913131152
102180,Melmaruvathur,603319,Kanchipuram,TAMIL NADU,"Melmaruvathur,603319,Kanchipuram,TAMIL NADU","Melmaruvathur, Maduranthakam, Chengalpattu, Tamil Nadu",12.420370000000048,79.82822000000004,72.08750820190701
102181,Sendivakkam,603319,Kanchipuram,TAMIL NADU,"Sendivakkam,603319,Kanchipuram,TAMIL NADU","Sinnivakkam, Kancheepuram Sub-District, Kancheepuram, Tamil Nadu",12.855420000000038,79.82640000000004,46.63794578179103
102182,Sirunagalur,603319,Kanchipuram,TAMIL NADU,"Sirunagalur,603319,Kanchipuram,TAMIL NADU","Kānchipuram, Tamil Nādu",12.835150000000056,79.70006000000006,60.53447344940606
102183,Andarkuppam,603401,Kanchipuram,TAMIL NADU,"Andarkuppam,603401,Kanchipuram,TAMIL NADU","Andankuppam, Kundrathur, Chennai, Kancheepuram, Tamil Nadu",12.991990000000044,80.10893000000004,17.15746714090384
102184,Chunampet,603401,Kanchipuram,TAMIL NADU,"Chunampet,603401,Kanchipuram,TAMIL NADU","Kānchipuram, Tamil Nādu",12.835150000000056,79.70006000000006,60.53447344940606
102185,Kadukkalur,603401,Kanchipuram,TAMIL NADU,"Kadukkalur,603401,Kanchipuram,TAMIL NADU","Kānchipuram, Tamil Nādu",12.835150000000056,79.70006000000006,60.53447344940606
102186,Puthirankottai,603401,Kanchipuram,TAMIL NADU,"Puthirankottai,603401,Kanchipuram,TAMIL NADU","Puthirankottai, Cheyyur, Chengalpattu, Tamil Nadu",12.306740000000048,79.89772000000005,78.21472301188538
102187,Vannianallur,603401,Kanchipuram,TAMIL NADU,"Vannianallur,603401,Kanchipuram,TAMIL NADU","Nallur, Sriperumbudur, Kancheepuram, Tamil Nadu",12.966130000000021,80.03139000000004,24.25512359345852
102188,Velur,603401,Kanchipuram,TAMIL NADU,"Velur,603401,Kanchipuram,TAMIL NADU","Kānchipuram, Tamil Nādu",12.835150000000056,79.70006000000006,60.53447344940606
102189,Alisoor,603402,Kanchipuram,TAMIL NADU,"Alisoor,603402,Kanchipuram,TAMIL NADU","Alisoor, Uthiramerur, Kancheepuram, Tamil Nadu",12.666440000000023,79.72688000000005,63.5480478669996
102190,Arasanimangalam,603402,Kanchipuram,TAMIL NADU,"Arasanimangalam,603402,Kanchipuram,TAMIL NADU","Arasanimangalam, Uthiramerur, Kancheepuram, Tamil Nadu",12.574010000000044,79.74272000000008,67.31913260663322
102191,Elaganar,603402,Kanchipuram,TAMIL NADU,"Elaganar,603402,Kanchipuram,TAMIL NADU",603402,12.636391901000025,79.71212500000007,66.50748717356159
102192,Hanumanthandalam,603402,Kanchipuram,TAMIL NADU,"Hanumanthandalam,603402,Kanchipuram,TAMIL NADU","Hanumanthandalam, Uthiramerur, Kancheepuram, Tamil Nadu",12.658240000000035,79.69466000000006,67.08819247504248
102193,Kaliyampoondi,603402,Kanchipuram,TAMIL NADU,"Kaliyampoondi,603402,Kanchipuram,TAMIL NADU","Kaliyampoondi, Uthiramerur, Kancheepuram, Tamil Nadu",12.641320000000064,79.72737000000006,64.79276602695874
102194,Pennalur,603402,Kanchipuram,TAMIL NADU,"Pennalur,603402,Kanchipuram,TAMIL NADU","Pennalur, Sriperumbudur, Kancheepuram, Tamil Nadu",12.989100000000064,79.98153000000008,30.09208110826978
102195,Manampathi,603403,Kanchipuram,TAMIL NADU,"Manampathi,603403,Kanchipuram,TAMIL NADU","Manampathy, Uthiramerur, Kancheepuram, Tamil Nadu",12.628850000000057,79.68007000000006,69.97169729263473
102196,Manampathikandigai,603403,Kanchipuram,TAMIL NADU,"Manampathikandigai,603403,Kanchipuram,TAMIL NADU",603403,12.630839042000048,79.67042500000008,70.7995382307634
102197,Perunagar,603403,Kanchipuram,TAMIL NADU,"Perunagar,603403,Kanchipuram,TAMIL NADU","Perunagar, Uthiramerur, Kancheepuram, Tamil Nadu",12.65166000000005,79.65477000000004,71.31392664484869
102198,R.N.Kandigai,603403,Kanchipuram,TAMIL NADU,"R.N.Kandigai,603403,Kanchipuram,TAMIL NADU","Kandigai, Chennai, Kancheepuram, Tamil Nadu",12.850530000000049,80.14008000000007,14.424155528549433
102199,Thandarai,603403,Kanchipuram,TAMIL NADU,"Thandarai,603403,Kanchipuram,TAMIL NADU","Thandarai, Uthiramerur, Kancheepuram, Tamil Nadu",12.622150000000033,79.69876000000005,68.53922750880322
102200,Anur,603405,Kanchipuram,TAMIL NADU,"Anur,603405,Kanchipuram,TAMIL NADU","Kānchipuram, Tamil Nādu",12.835150000000056,79.70006000000006,60.53447344940606
102201,Ponpathirkoodam,603405,Kanchipuram,TAMIL NADU,"Ponpathirkoodam,603405,Kanchipuram,TAMIL NADU","Ponpathirkoodam, Tirukalukundram, Chengalpattu, Tamil Nadu",12.612370000000055,80.01241000000005,43.007635450070694
102202,Ponvilainthakalathur,603405,Kanchipuram,TAMIL NADU,"Ponvilainthakalathur,603405,Kanchipuram,TAMIL NADU",Post Office Ponvilainthakalathur,12.842660000000024,79.94505000000004,34.32885121456935
102203,Salur,603405,Kanchipuram,TAMIL NADU,"Salur,603405,Kanchipuram,TAMIL NADU","Kānchipuram, Tamil Nādu",12.835150000000056,79.70006000000006,60.53447344940606
102204,Sogandi,603405,Kanchipuram,TAMIL NADU,"Sogandi,603405,Kanchipuram,TAMIL NADU","Sogandi, Sriperumbudur, Kancheepuram, Tamil Nadu",12.943570000000022,79.86874000000006,41.494544232741994
102205,Vallipuram,603405,Kanchipuram,TAMIL NADU,"Vallipuram,603405,Kanchipuram,TAMIL NADU","Valarpuram, Sriperumbudur, Kancheepuram, Tamil Nadu",13.041600000000074,79.97649000000007,32.49989341540085
102206,Agaramduli,603406,Kanchipuram,TAMIL NADU,"Agaramduli,603406,Kanchipuram,TAMIL NADU","Agaramduli, Alapakkam, Uthiramerur, Kancheepuram, Tamil Nadu",12.52747000000005,79.75173000000007,69.63842766862841
102207,Kammalampoondi,603406,Kanchipuram,TAMIL NADU,"Kammalampoondi,603406,Kanchipuram,TAMIL NADU","Kammalampoondi, Uthiramerur, Kancheepuram, Tamil Nadu",12.571970000000022,79.78123000000005,64.07504449688449
102208,Kavanur Pudhucheri,603406,Kanchipuram,TAMIL NADU,"Kavanur Pudhucheri,603406,Kanchipuram,TAMIL NADU","Kavanurpuducheri, Uthiramerur, Kancheepuram, Tamil Nadu",12.576470000000029,79.76194000000004,65.46031957705694
102209,Kiliyanagar,603406,Kanchipuram,TAMIL NADU,"Kiliyanagar,603406,Kanchipuram,TAMIL NADU",603406,12.61428931100005,79.77467500000006,61.93973180689786
102210,L.Endathur,603406,Kanchipuram,TAMIL NADU,"L.Endathur,603406,Kanchipuram,TAMIL NADU",603406,12.61428931100005,79.77467500000006,61.93973180689786
102211,Malliyankaranai,603406,Kanchipuram,TAMIL NADU,"Malliyankaranai,603406,Kanchipuram,TAMIL NADU",603406,12.61428931100005,79.77467500000006,61.93973180689786
102212,Maruthuvambadi,603406,Kanchipuram,TAMIL NADU,"Maruthuvambadi,603406,Kanchipuram,TAMIL NADU","Maruthuvambadi, Uthiramerur, Kancheepuram, Tamil Nadu",12.650060000000053,79.77683000000007,59.6438561278817
102213,Sirungoli,603406,Kanchipuram,TAMIL NADU,"Sirungoli,603406,Kanchipuram,TAMIL NADU",603406,12.61428931100005,79.77467500000006,61.93973180689786
102214,Tirupulivanam,603406,Kanchipuram,TAMIL NADU,"Tirupulivanam,603406,Kanchipuram,TAMIL NADU","Thriupulivanam, Uthiramerur, Kancheepuram, Tamil Nadu",12.66330000000005,79.76364000000007,60.16900139914463
102215,Tittalam,603406,Kanchipuram,TAMIL NADU,"Tittalam,603406,Kanchipuram,TAMIL NADU",603406,12.61428931100005,79.77467500000006,61.93973180689786
102216,Uttiramerur,603406,Kanchipuram,TAMIL NADU,"Uttiramerur,603406,Kanchipuram,TAMIL NADU",603406,12.61428931100005,79.77467500000006,61.93973180689786
102217,Vadanallur,603406,Kanchipuram,TAMIL NADU,"Vadanallur,603406,Kanchipuram,TAMIL NADU",603406,12.61428931100005,79.77467500000006,61.93973180689786
109540,Kothakuppam,631202,Kanchipuram,TAMIL NADU,"Kothakuppam,631202,Kanchipuram,TAMIL NADU","Kānchipuram, Tamil Nādu",12.835150000000056,79.70006000000006,60.53447344940606
109663,Kilacheri,631402,Kanchipuram,TAMIL NADU,"Kilacheri,631402,Kanchipuram,TAMIL NADU","Kollacheri, Chennai, Kancheepuram, Tamil Nadu",13.00314000000003,80.09910000000008,18.6717275308874
109665,Kuvam,631402,Kanchipuram,TAMIL NADU,"Kuvam,631402,Kanchipuram,TAMIL NADU","Kānchipuram, Tamil Nādu",12.835150000000056,79.70006000000006,60.53447344940606
109666,Mappedu,631402,Kanchipuram,TAMIL NADU,"Mappedu,631402,Kanchipuram,TAMIL NADU","Mappedu, Chennai, Kancheepuram, Tamil Nadu",12.890090000000043,80.13341000000008,13.224458254469878
109667,Narasingapuram,631402,Kanchipuram,TAMIL NADU,"Narasingapuram,631402,Kanchipuram,TAMIL NADU","Narasingapuram, Kolappancheri, Chennai, Kancheepuram, Tamil Nadu",13.045250000000067,80.05547000000007,25.11680154286617
109669,Kanchipuram Collectorate,631501,Kanchipuram,TAMIL NADU,"Kanchipuram Collectorate,631501,Kanchipuram,TAMIL NADU",631501,12.836952311000061,79.68392500000004,62.2326005556605
109670,Kanchipuram Cutchery,631501,Kanchipuram,TAMIL NADU,"Kanchipuram Cutchery,631501,Kanchipuram,TAMIL NADU",Kanchipuram Nagarachi,12.834020000000066,79.68511000000007,62.15640745416152
109671,Kanchipuram,631501,Kanchipuram,TAMIL NADU,"Kanchipuram,631501,Kanchipuram,TAMIL NADU",Kanchipuram Nagarachi,12.834020000000066,79.68511000000007,62.15640745416152
109672,Little Kanchipuram,631501,Kanchipuram,TAMIL NADU,"Little Kanchipuram,631501,Kanchipuram,TAMIL NADU","Kānchipuram, Tamil Nādu",12.835150000000056,79.70006000000006,60.53447344940606
109673,Pillayarpalayam,631501,Kanchipuram,TAMIL NADU,"Pillayarpalayam,631501,Kanchipuram,TAMIL NADU","631501, Pillaiyar Palayam, Kancheepuram, Tamil Nadu",12.834010662958613,79.68761340129129,61.88830534170058
109674,Thoopul,631501,Kanchipuram,TAMIL NADU,"Thoopul,631501,Kanchipuram,TAMIL NADU",631501,12.836952311000061,79.68392500000004,62.2326005556605
109675,Tirukachinambi Street,631501,Kanchipuram,TAMIL NADU,"Tirukachinambi Street,631501,Kanchipuram,TAMIL NADU",631501,12.836952311000061,79.68392500000004,62.2326005556605
109676,Ayyankarkulam,631502,Kanchipuram,TAMIL NADU,"Ayyankarkulam,631502,Kanchipuram,TAMIL NADU","631502, Big Kanchipuram, Kancheepuram, Tamil Nadu",12.838506406067172,79.69920614766421,60.56713386459821
109677,Big Kanchipuram,631502,Kanchipuram,TAMIL NADU,"Big Kanchipuram,631502,Kanchipuram,TAMIL NADU","631502, Big Kanchipuram, Kancheepuram, Tamil Nadu",12.838506406067172,79.69920614766421,60.56713386459821
109678,Govindavadi,631502,Kanchipuram,TAMIL NADU,"Govindavadi,631502,Kanchipuram,TAMIL NADU","Govindavadi, Thirumalpur, Kancheepuram Sub-District, Kancheepuram, Tamil Nadu",12.946200000000033,79.66530000000006,63.559625862981704
109679,Kammavarpalayam,631502,Kanchipuram,TAMIL NADU,"Kammavarpalayam,631502,Kanchipuram,TAMIL NADU","631502, Big Kanchipuram, Kancheepuram, Tamil Nadu",12.838506406067172,79.69920614766421,60.56713386459821
109680,Kilakattur,631502,Kanchipuram,TAMIL NADU,"Kilakattur,631502,Kanchipuram,TAMIL NADU","Kalakattur, Kancheepuram Sub-District, Kancheepuram, Tamil Nadu",12.768190000000061,79.73317000000003,58.71634831577638
109681,Kuram,631502,Kanchipuram,TAMIL NADU,"Kuram,631502,Kanchipuram,TAMIL NADU","631502, Big Kanchipuram, Kancheepuram, Tamil Nadu",12.838506406067172,79.69920614766421,60.56713386459821
109682,Melkadirpur,631502,Kanchipuram,TAMIL NADU,"Melkadirpur,631502,Kanchipuram,TAMIL NADU","631502, Big Kanchipuram, Kancheepuram, Tamil Nadu",12.838506406067172,79.69920614766421,60.56713386459821
109683,Olimohamedpet,631502,Kanchipuram,TAMIL NADU,"Olimohamedpet,631502,Kanchipuram,TAMIL NADU","631502, Big Kanchipuram, Kancheepuram, Tamil Nadu",12.838506406067172,79.69920614766421,60.56713386459821
109684,Orikkai,631502,Kanchipuram,TAMIL NADU,"Orikkai,631502,Kanchipuram,TAMIL NADU","631502, Orikkai, Kancheepuram, Tamil Nadu",12.805080388691868,79.71320062884577,59.76754648466376
109685,Perumanallur,631502,Kanchipuram,TAMIL NADU,"Perumanallur,631502,Kanchipuram,TAMIL NADU","631502, Big Kanchipuram, Kancheepuram, Tamil Nadu",12.838506406067172,79.69920614766421,60.56713386459821
109686,Sankaramutt,631502,Kanchipuram,TAMIL NADU,"Sankaramutt,631502,Kanchipuram,TAMIL NADU","631502, Big Kanchipuram, Kancheepuram, Tamil Nadu",12.838506406067172,79.69920614766421,60.56713386459821
109687,Sevilimedu,631502,Kanchipuram,TAMIL NADU,"Sevilimedu,631502,Kanchipuram,TAMIL NADU","631502, Sevilimedu, Kancheepuram, Tamil Nadu",12.815412068665099,79.69248365390384,61.732207190461025
109688,Sirukaveripakkam,631502,Kanchipuram,TAMIL NADU,"Sirukaveripakkam,631502,Kanchipuram,TAMIL NADU","Sirukaveripakkam, Thimmasamudram, Kancheepuram, Tamil Nadu",12.850810000000024,79.69087000000007,61.26749908235685
109689,Thimamsamudram,631502,Kanchipuram,TAMIL NADU,"Thimamsamudram,631502,Kanchipuram,TAMIL NADU","631502, Thimmasamudram, Kancheepuram, Tamil Nadu",12.864877037603494,79.68650554817201,61.55349159207089
109690,Veliyur,631502,Kanchipuram,TAMIL NADU,"Veliyur,631502,Kanchipuram,TAMIL NADU","Veliyur, Kancheepuram Sub-District, Kancheepuram, Tamil Nadu",12.92285000000004,79.71483000000006,58.1358695130149
109691,Balchettychatram,631551,Kanchipuram,TAMIL NADU,"Balchettychatram,631551,Kanchipuram,TAMIL NADU",631551,12.870400000000075,79.60325328900007,70.49193470544171
109692,Damal,631551,Kanchipuram,TAMIL NADU,"Damal,631551,Kanchipuram,TAMIL NADU",631551,12.870400000000075,79.60325328900007,70.49193470544171
109693,Krishnapuram,631551,Kanchipuram,TAMIL NADU,"Krishnapuram,631551,Kanchipuram,TAMIL NADU",631551,12.870400000000075,79.60325328900007,70.49193470544171
109694,Musaravakkam,631551,Kanchipuram,TAMIL NADU,"Musaravakkam,631551,Kanchipuram,TAMIL NADU","Musaravakkam, Kancheepuram Sub-District, Kancheepuram, Tamil Nadu",12.860360000000071,79.61123000000003,69.73221767023576
109695,Muthavedu,631551,Kanchipuram,TAMIL NADU,"Muthavedu,631551,Kanchipuram,TAMIL NADU","Muthavedu, Kancheepuram Sub-District, Kancheepuram, Tamil Nadu",12.839060000000075,79.59530000000007,71.72266507819049
109696,Karai,631552,Kanchipuram,TAMIL NADU,"Karai,631552,Kanchipuram,TAMIL NADU",631552,12.918310000000076,79.74743819600008,54.60025394909767
109697,Karaipettai,631552,Kanchipuram,TAMIL NADU,"Karaipettai,631552,Kanchipuram,TAMIL NADU",631552,12.918310000000076,79.74743819600008,54.60025394909767
109698,Parandur,631552,Kanchipuram,TAMIL NADU,"Parandur,631552,Kanchipuram,TAMIL NADU","Parandur, Valathur, Kancheepuram Sub-District, Kancheepuram, Tamil Nadu",12.942960000000028,79.74486000000007,54.91925167702716
109699,Siruvakkam,631552,Kanchipuram,TAMIL NADU,"Siruvakkam,631552,Kanchipuram,TAMIL NADU","Siruvakkam, Kancheepuram Sub-District, Kancheepuram, Tamil Nadu",12.913520000000062,79.71656000000007,57.95870969767618
109700,Siruvallur,631552,Kanchipuram,TAMIL NADU,"Siruvallur,631552,Kanchipuram,TAMIL NADU","Siruvallur, Kancheepuram Sub-District, Kancheepuram, Tamil Nadu",12.899760000000072,79.74847000000005,54.54848085989628
109701,Chellampattidai,631553,Kanchipuram,TAMIL NADU,"Chellampattidai,631553,Kanchipuram,TAMIL NADU",631553,12.985260525000058,79.78627000000006,50.84566224312298
109702,Edayarpakkam,631553,Kanchipuram,TAMIL NADU,"Edayarpakkam,631553,Kanchipuram,TAMIL NADU","Edayarpakkam, Sriperumbudur, Kancheepuram, Tamil Nadu",12.986470000000054,79.80161000000004,49.215851296922786
109703,Ekanapuram,631553,Kanchipuram,TAMIL NADU,"Ekanapuram,631553,Kanchipuram,TAMIL NADU","Ekanapuram, Kancheepuram Sub-District, Kancheepuram, Tamil Nadu",12.957350000000076,79.77537000000007,51.70242706970799
109704,Kappankottur,631553,Kanchipuram,TAMIL NADU,"Kappankottur,631553,Kanchipuram,TAMIL NADU","Kappankottur, Sriperumbudur, Kancheepuram, Tamil Nadu",13.008340000000032,79.79455000000007,50.3689626422429
109705,Melmaduramangalam,631553,Kanchipuram,TAMIL NADU,"Melmaduramangalam,631553,Kanchipuram,TAMIL NADU","Melmaduramangalam, Sriperumbudur, Kancheepuram, Tamil Nadu",12.934640000000059,79.81172000000004,47.63781926734507
109706,Pichivakkam,631553,Kanchipuram,TAMIL NADU,"Pichivakkam,631553,Kanchipuram,TAMIL NADU","Pichivakkam, Sriperumbudur, Kancheepuram, Tamil Nadu",12.998250000000041,79.75322000000006,54.60001231003717
109707,Pullalur,631553,Kanchipuram,TAMIL NADU,"Pullalur,631553,Kanchipuram,TAMIL NADU","Pullalur, Kancheepuram Sub-District, Kancheepuram, Tamil Nadu",12.973460000000046,79.71267000000006,58.63066922264411
109708,Purisai,631553,Kanchipuram,TAMIL NADU,"Purisai,631553,Kanchipuram,TAMIL NADU","Purisai, Kancheepuram Sub-District, Kancheepuram, Tamil Nadu",12.986120000000028,79.74850000000004,54.92083191582263
109709,Valathur,631553,Kanchipuram,TAMIL NADU,"Valathur,631553,Kanchipuram,TAMIL NADU","Valathur, Kancheepuram Sub-District, Kancheepuram, Tamil Nadu",12.94315000000006,79.74065000000007,55.3765493360959
109710,Attuputhur,631561,Kanchipuram,TAMIL NADU,"Attuputhur,631561,Kanchipuram,TAMIL NADU","Attuputhur, Kancheepuram Sub-District, Kancheepuram, Tamil Nadu",12.885880000000043,79.78928000000008,50.22859101237578
109711,Enathur,631561,Kanchipuram,TAMIL NADU,"Enathur,631561,Kanchipuram,TAMIL NADU",631561,12.873991441000044,79.80232500000005,48.94709490253172
109712,Nirvalur,631561,Kanchipuram,TAMIL NADU,"Nirvalur,631561,Kanchipuram,TAMIL NADU",631561,12.873991441000044,79.80232500000005,48.94709490253172
109713,Rajakulam,631561,Kanchipuram,TAMIL NADU,"Rajakulam,631561,Kanchipuram,TAMIL NADU",631561,12.873991441000044,79.80232500000005,48.94709490253172
109714,Singadivakkam,631561,Kanchipuram,TAMIL NADU,"Singadivakkam,631561,Kanchipuram,TAMIL NADU","Singadivakkam, Kancheepuram Sub-District, Kancheepuram, Tamil Nadu",12.871030000000076,79.81894000000005,47.19448438471122
109715,Vaiyavur,631561,Kanchipuram,TAMIL NADU,"Vaiyavur,631561,Kanchipuram,TAMIL NADU","Vaiyavur, Kancheepuram Sub-District, Kancheepuram, Tamil Nadu",12.840670000000046,79.74296000000004,55.840191642660265
109716,Vedal,631561,Kanchipuram,TAMIL NADU,"Vedal,631561,Kanchipuram,TAMIL NADU",631561,12.873991441000044,79.80232500000005,48.94709490253172
109717,Ayyampettai,631601,Kanchipuram,TAMIL NADU,"Ayyampettai,631601,Kanchipuram,TAMIL NADU","631601, Ayyampettai, Kancheepuram Sub-District, Kancheepuram, Tamil Nadu",12.80591527690279,79.765383380477,54.23190546964515
109718,Ekanampet,631601,Kanchipuram,TAMIL NADU,"Ekanampet,631601,Kanchipuram,TAMIL NADU",631601,12.78354500000006,79.78095473300004,53.25796696914435
109719,Muthialpet,631601,Kanchipuram,TAMIL NADU,"Muthialpet,631601,Kanchipuram,TAMIL NADU",631601,12.78354500000006,79.78095473300004,53.25796696914435
109720,Naickenpet,631601,Kanchipuram,TAMIL NADU,"Naickenpet,631601,Kanchipuram,TAMIL NADU",631601,12.78354500000006,79.78095473300004,53.25796696914435
109721,Thenambakkam,631601,Kanchipuram,TAMIL NADU,"Thenambakkam,631601,Kanchipuram,TAMIL NADU","631601, Thenambakkam, Kancheepuram, Tamil Nadu",12.814882490695751,79.73376406676138,57.35441989745813
109722,Thimmarajampettai,631601,Kanchipuram,TAMIL NADU,"Thimmarajampettai,631601,Kanchipuram,TAMIL NADU","Thimmarajampettai, Kancheepuram Sub-District, Kancheepuram, Tamil Nadu",12.799550000000067,79.78107000000006,52.758605141532335
109723,Arpakkam,631603,Kanchipuram,TAMIL NADU,"Arpakkam,631603,Kanchipuram,TAMIL NADU","Arpakkam, Kancheepuram Sub-District, Kancheepuram, Tamil Nadu",12.734110000000044,79.76092000000006,57.11449853628509
109724,Kavanthandalam,631603,Kanchipuram,TAMIL NADU,"Kavanthandalam,631603,Kanchipuram,TAMIL NADU","Kavanthandalam, Kancheepuram Sub-District, Kancheepuram, Tamil Nadu",12.732440000000054,79.79425000000003,53.835664783660135
109725,Magaral,631603,Kanchipuram,TAMIL NADU,"Magaral,631603,Kanchipuram,TAMIL NADU","Magaral, Kancheepuram Sub-District, Kancheepuram, Tamil Nadu",12.718720000000076,79.75390000000004,58.46277376835919
109726,Malayankulam,631603,Kanchipuram,TAMIL NADU,"Malayankulam,631603,Kanchipuram,TAMIL NADU","Malayankulam, Uthiramerur, Kancheepuram, Tamil Nadu",12.708120000000065,79.80595000000005,53.80484011225369
109727,Neyyadupakkam,631603,Kanchipuram,TAMIL NADU,"Neyyadupakkam,631603,Kanchipuram,TAMIL NADU","Neyyadivakkam, Uthiramerur, Kancheepuram, Tamil Nadu",12.723860000000059,79.80418000000003,53.23198744533249
109728,Olugarai,631603,Kanchipuram,TAMIL NADU,"Olugarai,631603,Kanchipuram,TAMIL NADU",631603,12.730360000000076,79.76835244400007,56.51984592350733
109729,Puthali,631603,Kanchipuram,TAMIL NADU,"Puthali,631603,Kanchipuram,TAMIL NADU","Puthali, Uthiramerur, Kancheepuram, Tamil Nadu",12.698620000000062,79.78980000000007,55.84317256091932
109730,Vayalakkavur,631603,Kanchipuram,TAMIL NADU,"Vayalakkavur,631603,Kanchipuram,TAMIL NADU","Vayalakkavoor, Uthiramerur, Kancheepuram, Tamil Nadu",12.734940000000051,79.82329000000004,50.835827149213586
109731,Echoor,631604,Kanchipuram,TAMIL NADU,"Echoor,631604,Kanchipuram,TAMIL NADU",631604,12.844205000000045,79.87583273000007,41.594358752830345
109732,Kunnam,631604,Kanchipuram,TAMIL NADU,"Kunnam,631604,Kanchipuram,TAMIL NADU",631604,12.844205000000045,79.87583273000007,41.594358752830345
109733,Panruti,631604,Kanchipuram,TAMIL NADU,"Panruti,631604,Kanchipuram,TAMIL NADU",631604,12.844205000000045,79.87583273000007,41.594358752830345
109734,Sinnivakkam,631604,Kanchipuram,TAMIL NADU,"Sinnivakkam,631604,Kanchipuram,TAMIL NADU","Sinnivakkam, Kancheepuram Sub-District, Kancheepuram, Tamil Nadu",12.855420000000038,79.82640000000004,46.63794578179103
109735,Thenneri,631604,Kanchipuram,TAMIL NADU,"Thenneri,631604,Kanchipuram,TAMIL NADU","Thenneri, Kancheepuram Sub-District, Kancheepuram, Tamil Nadu",12.851600000000076,79.85395000000005,43.763806584237486
109736,Varanavasi,631604,Kanchipuram,TAMIL NADU,"Varanavasi,631604,Kanchipuram,TAMIL NADU","Varanavasi, Kancheepuram Sub-District, Kancheepuram, Tamil Nadu",12.83188000000007,79.88284000000004,41.16451056468482
109737,Asoor,631605,Kanchipuram,TAMIL NADU,"Asoor,631605,Kanchipuram,TAMIL NADU",631605,12.806995000000029,79.83257057100008,47.14970050152671
109738,Avalur,631605,Kanchipuram,TAMIL NADU,"Avalur,631605,Kanchipuram,TAMIL NADU",631605,12.806995000000029,79.83257057100008,47.14970050152671
109739,Nathanallur,631605,Kanchipuram,TAMIL NADU,"Nathanallur,631605,Kanchipuram,TAMIL NADU","Nathanallur, Kancheepuram Sub-District, Kancheepuram, Tamil Nadu",12.802710000000047,79.84508000000005,45.979969568217186
109740,Puliambakkam,631605,Kanchipuram,TAMIL NADU,"Puliambakkam,631605,Kanchipuram,TAMIL NADU","Puliyambakkam, Kancheepuram Sub-District, Kancheepuram, Tamil Nadu",12.783300000000054,79.84108000000003,47.05826767954984
109741,Serkadu,631605,Kanchipuram,TAMIL NADU,"Serkadu,631605,Kanchipuram,TAMIL NADU","Serkadu, Walajabad, Kancheepuram Sub-District, Kancheepuram, Tamil Nadu",12.802180000000021,79.82226000000009,48.372451096669344
109742,Thammanur,631605,Kanchipuram,TAMIL NADU,"Thammanur,631605,Kanchipuram,TAMIL NADU","Thammanur, Kancheepuram Sub-District, Kancheepuram, Tamil Nadu",12.762830000000065,79.81284000000005,50.711821879221986
109743,Uttukadu,631605,Kanchipuram,TAMIL NADU,"Uttukadu,631605,Kanchipuram,TAMIL NADU",631605,12.806995000000029,79.83257057100008,47.14970050152671
109744,Walajabad,631605,Kanchipuram,TAMIL NADU,"Walajabad,631605,Kanchipuram,TAMIL NADU","631605, Walajabad, Kancheepuram Sub-District, Kancheepuram, Tamil Nadu",12.795445226551568,79.82063864581782,48.75263609789601
109745,Madhur,631606,Kanchipuram,TAMIL NADU,"Madhur,631606,Kanchipuram,TAMIL NADU",631606,12.727622265000036,79.85422500000004,48.149980843315554
109746,Padur,631606,Kanchipuram,TAMIL NADU,"Padur,631606,Kanchipuram,TAMIL NADU",631606,12.727622265000036,79.85422500000004,48.149980843315554
109747,Palayaseevaram,631606,Kanchipuram,TAMIL NADU,"Palayaseevaram,631606,Kanchipuram,TAMIL NADU","Palayaseevaram, Kancheepuram Sub-District, Kancheepuram, Tamil Nadu",12.781810000000064,79.87607000000008,43.5477259684045
109748,Thirumukkudal,631606,Kanchipuram,TAMIL NADU,"Thirumukkudal,631606,Kanchipuram,TAMIL NADU","Thirumukkudal, Uthiramerur, Kancheepuram, Tamil Nadu",12.752310000000023,79.85836000000006,46.57475446366974
109749,Ullavur,631606,Kanchipuram,TAMIL NADU,"Ullavur,631606,Kanchipuram,TAMIL NADU","Ullavur, Kancheepuram Sub-District, Kancheepuram, Tamil Nadu",12.796320000000037,79.89248000000003,41.31708471122965
